{"type":"FeatureCollection","features":[{"type":"Feature","geometry":{"type":"Polygon","coordinates":[[[9.175654,45.535973],[9.17406,45.535922],[9.174246,45.535022],[9.172878,45.534984],[9.172017,45.534962],[9.172017,45.53516],[9.1709,45.535081],[9.170812,45.535482],[9.169208,45.535332],[9.168811,45.53531],[9.168789,45.535705],[9.167318,45.535573],[9.167272,45.535946],[9.165606,45.535786],[9.165721,45.535255],[9.164221,45.535086],[9.164268,45.53492],[9.162705,45.534753],[9.160923,45.534564],[9.161203,45.533822],[9.158482,45.533479],[9.158485,45.533444],[9.158561,45.532736],[9.157481,45.532373],[9.157781,45.531159],[9.156746,45.53101],[9.156991,45.530128],[9.156542,45.530079],[9.156811,45.52899],[9.15578,45.52879],[9.155675,45.52877],[9.156008,45.527735],[9.156211,45.527092],[9.156421,45.526407],[9.155013,45.526225],[9.155147,45.525743],[9.154272,45.525645],[9.153706,45.525582],[9.153636,45.525901],[9.152615,45.525773],[9.152704,45.525431],[9.15237,45.52539],[9.152601,45.524396],[9.151493,45.524253],[9.151792,45.523177],[9.151154,45.523093],[9.15162,45.521219],[9.151324,45.521144],[9.150915,45.521162],[9.151442,45.520288],[9.151901,45.52],[9.152405,45.519672],[9.15351,45.518985],[9.15364,45.518769],[9.15379,45.518683],[9.153841,45.518598],[9.151519,45.518096],[9.151391,45.518403],[9.15038,45.518171],[9.150061,45.518099],[9.149662,45.518806],[9.148511,45.518631],[9.148413,45.518618],[9.14832,45.518645],[9.148249,45.518713],[9.147661,45.520198],[9.148307,45.520302],[9.148124,45.520783],[9.148831,45.520827],[9.148816,45.520881],[9.148799,45.520944],[9.148488,45.521854],[9.14556,45.521412],[9.145198,45.522848],[9.143889,45.522711],[9.144111,45.521607],[9.143624,45.521568],[9.143554,45.521883],[9.143017,45.521839],[9.142826,45.522072],[9.141298,45.521912],[9.141637,45.520576],[9.140578,45.520442],[9.139503,45.520322],[9.136893,45.52],[9.136715,45.521162],[9.136017,45.521078],[9.134722,45.520922],[9.134438,45.522528],[9.134373,45.522857],[9.13541,45.523004],[9.135261,45.523689],[9.135863,45.523778],[9.135728,45.524268],[9.132644,45.523525],[9.132477,45.523485],[9.131796,45.523197],[9.130398,45.522988],[9.130054,45.522888],[9.129906,45.523182],[9.129954,45.523614],[9.129916,45.523816],[9.129591,45.524262],[9.129299,45.524519],[9.12897,45.524694],[9.128673,45.525024],[9.128458,45.524889],[9.128451,45.524119],[9.128801,45.523574],[9.128841,45.522985],[9.126221,45.522917],[9.125012,45.522886],[9.12473,45.522805],[9.123896,45.522788],[9.123987,45.522369],[9.123885,45.521865],[9.12365,45.52147],[9.123303,45.521096],[9.123664,45.520641],[9.122454,45.520507],[9.122376,45.520845],[9.120377,45.520631],[9.120215,45.521522],[9.120019,45.521644],[9.119794,45.521785],[9.117661,45.52162],[9.117935,45.519972],[9.117772,45.51991],[9.118455,45.519045],[9.118392,45.519014],[9.118227,45.518959],[9.117275,45.519744],[9.1168,45.520027],[9.115977,45.520293],[9.114786,45.520435],[9.112944,45.520779],[9.111576,45.521743],[9.11101,45.522243],[9.110527,45.522815],[9.109801,45.52309],[9.109338,45.523423],[9.109098,45.523821],[9.108964,45.524045],[9.108654,45.523969],[9.109102,45.522748],[9.108935,45.522731],[9.10767,45.522599],[9.114145,45.519005],[9.11477,45.51867],[9.115918,45.518132],[9.116077,45.518058],[9.11389,45.516814],[9.113127,45.516364],[9.112872,45.515959],[9.112894,45.515299],[9.112974,45.514199],[9.113041,45.51372],[9.113369,45.513258],[9.113678,45.51291],[9.114719,45.5126],[9.116021,45.512168],[9.11653,45.512059],[9.117083,45.512035],[9.117093,45.511864],[9.116513,45.511784],[9.115871,45.511852],[9.115545,45.511814],[9.113417,45.511852],[9.111577,45.511775],[9.109757,45.511592],[9.108746,45.51147],[9.108412,45.511516],[9.107753,45.512206],[9.107719,45.512292],[9.10746,45.512664],[9.106086,45.512603],[9.104387,45.512551],[9.103158,45.512698],[9.100632,45.512896],[9.09937,45.512841],[9.09837,45.512697],[9.096555,45.512481],[9.096199,45.512426],[9.096227,45.512382],[9.096336,45.51221],[9.096513,45.511202],[9.097725,45.508717],[9.098363,45.507402],[9.098439,45.506691],[9.098148,45.506889],[9.098071,45.50675],[9.09801,45.506719],[9.097946,45.506687],[9.097854,45.506642],[9.097587,45.506507],[9.095294,45.506955],[9.095049,45.506667],[9.094364,45.506024],[9.094312,45.506034],[9.093791,45.506132],[9.092895,45.506295],[9.092818,45.506309],[9.092533,45.506365],[9.092358,45.506399],[9.092082,45.506287],[9.092016,45.50626],[9.091919,45.505562],[9.091811,45.504595],[9.091707,45.504208],[9.091241,45.50396],[9.091192,45.503934],[9.090847,45.503853],[9.09059,45.503412],[9.090723,45.502686],[9.090796,45.502287],[9.090587,45.501738],[9.090172,45.500991],[9.090029,45.500865],[9.089976,45.500817],[9.089898,45.500748],[9.089548,45.500434],[9.089647,45.499983],[9.089719,45.499656],[9.089754,45.499497],[9.089727,45.499426],[9.089546,45.498948],[9.089468,45.498735],[9.089407,45.498569],[9.089714,45.4987],[9.090951,45.498553],[9.091334,45.498873],[9.091931,45.498319],[9.094115,45.49951],[9.094496,45.499534],[9.095513,45.497013],[9.096343,45.49644],[9.096724,45.496372],[9.097152,45.493687],[9.097326,45.493741],[9.097386,45.493413],[9.097602,45.493272],[9.098424,45.493174],[9.098612,45.49253],[9.09789,45.492461],[9.097964,45.491191],[9.099593,45.490218],[9.099932,45.488592],[9.099982,45.487891],[9.098522,45.487374],[9.097653,45.487104],[9.097422,45.487228],[9.096754,45.487027],[9.09591,45.486832],[9.094439,45.486513],[9.093657,45.487539],[9.09255,45.488552],[9.087168,45.492127],[9.086083,45.491399],[9.087533,45.489668],[9.085738,45.488768],[9.085103,45.488832],[9.08364,45.487654],[9.083754,45.48485],[9.08444,45.484595],[9.084256,45.484077],[9.084219,45.482824],[9.084242,45.482545],[9.084395,45.482295],[9.084631,45.482208],[9.085791,45.48199],[9.086598,45.480188],[9.086941,45.479598],[9.08695,45.479416],[9.085901,45.479244],[9.085451,45.479241],[9.083772,45.479119],[9.081794,45.478775],[9.081102,45.478594],[9.083669,45.476338],[9.082963,45.474914],[9.083673,45.475239],[9.083872,45.474151],[9.086946,45.474731],[9.087172,45.474758],[9.08764,45.473787],[9.088692,45.473971],[9.089082,45.473066],[9.089819,45.470871],[9.085869,45.47025],[9.081382,45.469838],[9.080985,45.470027],[9.080279,45.470263],[9.07976,45.470538],[9.079274,45.470684],[9.079061,45.47026],[9.078377,45.469098],[9.077782,45.468024],[9.07681,45.466345],[9.076466,45.465655],[9.076249,45.464922],[9.076153,45.464374],[9.076125,45.463646],[9.076002,45.463588],[9.07571,45.46358],[9.075716,45.463531],[9.075485,45.463333],[9.075266,45.46323],[9.074443,45.463011],[9.073796,45.46284],[9.073295,45.463168],[9.072173,45.46376],[9.071846,45.463934],[9.071794,45.463963],[9.071519,45.464111],[9.07085,45.464475],[9.070459,45.464641],[9.069699,45.464862],[9.069477,45.464894],[9.069261,45.464823],[9.069378,45.46457],[9.069461,45.464579],[9.070015,45.464259],[9.069799,45.463936],[9.069789,45.463741],[9.06999,45.463355],[9.070384,45.46285],[9.070706,45.462756],[9.071011,45.462521],[9.071611,45.462359],[9.071739,45.462228],[9.071827,45.462102],[9.07183,45.461985],[9.071801,45.461886],[9.071699,45.461773],[9.072093,45.46132],[9.072139,45.461058],[9.072671,45.460603],[9.073166,45.46045],[9.07334,45.460316],[9.073414,45.46013],[9.073751,45.460013],[9.073992,45.45978],[9.074268,45.459513],[9.074474,45.459369],[9.074637,45.459063],[9.074424,45.459],[9.074686,45.458545],[9.074736,45.457897],[9.074531,45.457348],[9.074175,45.457339],[9.072525,45.457086],[9.072558,45.457004],[9.073031,45.456999],[9.074486,45.457096],[9.076232,45.457264],[9.077514,45.457363],[9.077363,45.455892],[9.076885,45.455943],[9.076632,45.455205],[9.076058,45.454859],[9.074559,45.454053],[9.074103,45.45439],[9.073186,45.454729],[9.072831,45.454556],[9.071955,45.454157],[9.070298,45.453679],[9.069378,45.453423],[9.068042,45.453058],[9.067058,45.452829],[9.066452,45.452634],[9.06589,45.452451],[9.067425,45.450391],[9.066614,45.450054],[9.066478,45.449917],[9.066525,45.449726],[9.067286,45.448884],[9.067836,45.448151],[9.068141,45.447988],[9.068408,45.447526],[9.069462,45.44788],[9.075474,45.44952],[9.076693,45.449356],[9.077345,45.449378],[9.077839,45.449441],[9.077987,45.449458],[9.077987,45.449489],[9.077987,45.449577],[9.077473,45.450554],[9.077231,45.450941],[9.077175,45.451279],[9.077162,45.45136],[9.077129,45.451562],[9.077421,45.451906],[9.077534,45.452045],[9.077569,45.452115],[9.077992,45.45297],[9.078109,45.452858],[9.07825,45.452711],[9.078279,45.452681],[9.078853,45.452101],[9.078893,45.45206],[9.078931,45.452024],[9.079658,45.451286],[9.079902,45.451389],[9.080087,45.451467],[9.080272,45.451547],[9.080384,45.451544],[9.080605,45.451537],[9.0809,45.451381],[9.08096,45.451353],[9.081145,45.451258],[9.081321,45.451163],[9.081395,45.451136],[9.081711,45.451028],[9.081806,45.450996],[9.082327,45.451128],[9.082484,45.451167],[9.082965,45.451263],[9.083207,45.451311],[9.083247,45.451324],[9.083512,45.451371],[9.083613,45.451391],[9.083677,45.451404],[9.084007,45.451472],[9.085239,45.452061],[9.085271,45.452076],[9.085606,45.452236],[9.086399,45.452582],[9.086758,45.452739],[9.087027,45.452856],[9.087219,45.452914],[9.088153,45.453197],[9.088626,45.453134],[9.088723,45.453152],[9.089078,45.453219],[9.089421,45.453165],[9.089956,45.453087],[9.091848,45.45278],[9.092184,45.452663],[9.092995,45.452379],[9.093057,45.452356],[9.093205,45.452307],[9.093283,45.452277],[9.093349,45.452253],[9.093542,45.452054],[9.093835,45.451754],[9.093876,45.451712],[9.093934,45.45163],[9.0941,45.45139],[9.094431,45.451095],[9.094639,45.45086],[9.094833,45.45062],[9.09488,45.450565],[9.094935,45.450488],[9.095083,45.450293],[9.095131,45.450172],[9.095206,45.449974],[9.095351,45.449708],[9.095352,45.449611],[9.09535,45.449384],[9.095379,45.449123],[9.095519,45.449048],[9.095886,45.448852],[9.096213,45.448879],[9.096718,45.448905],[9.096759,45.448903],[9.096937,45.44889],[9.097242,45.448869],[9.097491,45.448851],[9.097819,45.4484],[9.098132,45.447926],[9.09816,45.447882],[9.098205,45.447815],[9.098415,45.447574],[9.098449,45.447536],[9.098483,45.447497],[9.09856,45.44741],[9.098857,45.447207],[9.099221,45.446955],[9.099278,45.446916],[9.099333,45.446878],[9.099838,45.446904],[9.100129,45.446915],[9.100583,45.446931],[9.101124,45.44693],[9.101267,45.44693],[9.101172,45.447088],[9.101088,45.447227],[9.101048,45.447335],[9.100849,45.447597],[9.100454,45.448141],[9.10005,45.448607],[9.099599,45.449245],[9.098713,45.451598],[9.099881,45.451579],[9.100979,45.451728],[9.102035,45.452079],[9.103084,45.452606],[9.104785,45.453524],[9.10558,45.45307],[9.106689,45.452444],[9.107232,45.452158],[9.108082,45.451785],[9.109428,45.451272],[9.109326,45.451119],[9.109412,45.450977],[9.109267,45.45094],[9.108477,45.450702],[9.108065,45.450505],[9.107622,45.450493],[9.107491,45.45053],[9.106982,45.45045],[9.106764,45.450363],[9.106708,45.45028],[9.106874,45.450019],[9.107037,45.45021],[9.107804,45.450372],[9.108584,45.45047],[9.108911,45.450575],[9.109074,45.450627],[9.109199,45.450667],[9.109404,45.450627],[9.109478,45.450612],[9.110358,45.450441],[9.110445,45.450423],[9.110527,45.450405],[9.110794,45.449127],[9.110926,45.448875],[9.111222,45.448317],[9.111375,45.448029],[9.111457,45.447875],[9.111825,45.446731],[9.111929,45.446372],[9.111943,45.446321],[9.111991,45.4462],[9.11214,45.446211],[9.112306,45.446222],[9.112499,45.446236],[9.112764,45.446254],[9.113001,45.446271],[9.113243,45.445911],[9.112243,45.445785],[9.112455,45.445315],[9.112671,45.444827],[9.112879,45.444356],[9.112972,45.444147],[9.112996,45.444097],[9.11334,45.443318],[9.11353,45.443363],[9.115098,45.443731],[9.115178,45.443752],[9.11525,45.443771],[9.115333,45.443627],[9.115424,45.443445],[9.115477,45.443337],[9.115515,45.443247],[9.115559,45.443163],[9.11562,45.44306],[9.115658,45.442982],[9.11569,45.442916],[9.115772,45.442753],[9.115794,45.442707],[9.115881,45.442537],[9.115908,45.442489],[9.116096,45.442092],[9.116166,45.441954],[9.116189,45.441904],[9.116392,45.441497],[9.116425,45.441443],[9.116489,45.441339],[9.116517,45.441294],[9.116715,45.44097],[9.116983,45.440824],[9.117171,45.440722],[9.117306,45.440644],[9.117405,45.440594],[9.117452,45.440569],[9.1175,45.440506],[9.117561,45.440427],[9.117643,45.440322],[9.117816,45.440098],[9.117854,45.440047],[9.117911,45.439974],[9.118029,45.439849],[9.118065,45.43981],[9.118682,45.439155],[9.118729,45.439104],[9.118775,45.439055],[9.118817,45.43901],[9.119518,45.438352],[9.120165,45.437635],[9.120362,45.437419],[9.120404,45.437375],[9.120748,45.437512],[9.120917,45.437226],[9.121526,45.4362],[9.12207,45.435276],[9.122102,45.435164],[9.122091,45.435136],[9.122079,45.43511],[9.121961,45.43506],[9.121874,45.435029],[9.121678,45.434961],[9.121412,45.434867],[9.12126,45.434769],[9.121243,45.434739],[9.121225,45.434704],[9.12126,45.434644],[9.121427,45.434564],[9.121498,45.434531],[9.124558,45.431906],[9.125616,45.430999],[9.125702,45.431432],[9.123792,45.434845],[9.123479,45.435553],[9.124073,45.43598],[9.126435,45.437365],[9.126793,45.437167],[9.129264,45.436404],[9.129738,45.436204],[9.130135,45.435967],[9.13041,45.435638],[9.131089,45.434597],[9.131456,45.434311],[9.13183,45.434062],[9.132679,45.433582],[9.133948,45.432842],[9.134827,45.432415],[9.135656,45.432097],[9.133847,45.434365],[9.136534,45.434666],[9.136513,45.435123],[9.137961,45.435253],[9.138018,45.434974],[9.138856,45.435066],[9.138799,45.435258],[9.138969,45.435282],[9.139726,45.435413],[9.141338,45.432517],[9.141529,45.432034],[9.140705,45.430987],[9.140046,45.430053],[9.139012,45.42836],[9.138197,45.427587],[9.138909,45.426872],[9.138574,45.426615],[9.139984,45.424796],[9.140263,45.424416],[9.140934,45.423499],[9.142685,45.42397],[9.141649,45.425531],[9.14165,45.425955],[9.143407,45.426666],[9.147206,45.427727],[9.148166,45.428266],[9.147845,45.428534],[9.148072,45.428676],[9.149108,45.429373],[9.149924,45.429231],[9.149863,45.429097],[9.149878,45.428937],[9.150007,45.428803],[9.150605,45.428514],[9.151111,45.4283],[9.150805,45.427828],[9.1528,45.425917],[9.153208,45.425745],[9.154015,45.425418],[9.154264,45.425331],[9.156298,45.424701],[9.15587,45.424026],[9.156377,45.423778],[9.157091,45.423407],[9.158009,45.424922],[9.158614,45.426394],[9.158681,45.426645],[9.158763,45.427243],[9.158888,45.427756],[9.15984,45.427224],[9.159886,45.427084],[9.159709,45.426761],[9.159869,45.426476],[9.16012,45.426244],[9.160555,45.426055],[9.161123,45.425891],[9.162699,45.425441],[9.163459,45.425177],[9.16414,45.424709],[9.16509,45.423962],[9.165824,45.423311],[9.167505,45.422682],[9.166911,45.421644],[9.16629,45.420566],[9.164516,45.417502],[9.162787,45.414512],[9.162521,45.414055],[9.160817,45.411226],[9.161811,45.410976],[9.162325,45.411827],[9.164307,45.411828],[9.164563,45.411174],[9.164551,45.410552],[9.165163,45.409166],[9.16651,45.409263],[9.168742,45.408768],[9.168061,45.407602],[9.16794,45.40712],[9.167877,45.406405],[9.167765,45.405459],[9.167072,45.40422],[9.166435,45.402201],[9.166363,45.402214],[9.165252,45.400496],[9.165558,45.400498],[9.166604,45.400507],[9.166541,45.400867],[9.167324,45.401191],[9.167466,45.401303],[9.168042,45.402139],[9.168178,45.402198],[9.16837,45.402269],[9.170009,45.402803],[9.170766,45.402828],[9.170518,45.400776],[9.172445,45.400771],[9.173599,45.400768],[9.173988,45.400768],[9.174448,45.402765],[9.174831,45.40381],[9.175264,45.404725],[9.175291,45.405412],[9.17498,45.406658],[9.176171,45.406567],[9.176207,45.406031],[9.180027,45.405543],[9.179991,45.406253],[9.180051,45.407083],[9.182257,45.40728],[9.18207,45.408205],[9.183514,45.408306],[9.182583,45.410756],[9.182525,45.411276],[9.181963,45.414729],[9.182165,45.415218],[9.181937,45.415613],[9.181828,45.417144],[9.181673,45.417963],[9.181923,45.418161],[9.181691,45.418343],[9.182275,45.420138],[9.18041,45.42107],[9.180678,45.421456],[9.180633,45.42234],[9.180644,45.423562],[9.18069,45.425374],[9.180479,45.425556],[9.18081,45.425885],[9.182583,45.426992],[9.182729,45.428189],[9.182708,45.429973],[9.184434,45.429852],[9.184838,45.429813],[9.185678,45.429783],[9.186112,45.429839],[9.186356,45.429966],[9.186501,45.430233],[9.187468,45.43032],[9.188375,45.429016],[9.18943,45.429196],[9.189725,45.427589],[9.190763,45.42767],[9.190761,45.426984],[9.191427,45.42698],[9.191329,45.42655],[9.190957,45.426278],[9.190577,45.42603],[9.190093,45.425761],[9.190798,45.425262],[9.19106,45.425456],[9.193854,45.425557],[9.19373,45.427828],[9.195992,45.427916],[9.196503,45.426701],[9.197737,45.423824],[9.198485,45.422899],[9.199098,45.422431],[9.202076,45.421004],[9.203754,45.420235],[9.202718,45.419752],[9.202248,45.419604],[9.200186,45.418217],[9.198049,45.416634],[9.19945,45.415773],[9.198384,45.414881],[9.200803,45.413447],[9.200329,45.413066],[9.201117,45.411613],[9.200317,45.411309],[9.200329,45.409713],[9.200435,45.405632],[9.200285,45.404917],[9.200414,45.404081],[9.201525,45.402213],[9.201845,45.401591],[9.198752,45.401672],[9.198735,45.400568],[9.198818,45.399876],[9.199809,45.400099],[9.199933,45.399824],[9.200785,45.39999],[9.202051,45.400172],[9.204402,45.400467],[9.204477,45.399762],[9.204277,45.399655],[9.203867,45.398813],[9.20382,45.39826],[9.203788,45.397548],[9.203394,45.397559],[9.201887,45.397635],[9.201824,45.397563],[9.202208,45.39756],[9.20224,45.397524],[9.202309,45.397449],[9.202367,45.397384],[9.202443,45.39706],[9.202506,45.396726],[9.202961,45.396411],[9.203212,45.396195],[9.203295,45.396111],[9.203435,45.395973],[9.203625,45.395523],[9.203701,45.395253],[9.203738,45.394884],[9.204348,45.394099],[9.204806,45.393441],[9.205029,45.3934],[9.205495,45.393314],[9.205524,45.393294],[9.205954,45.392998],[9.206078,45.392554],[9.20627,45.39217],[9.206705,45.392295],[9.20746,45.392564],[9.207726,45.392658],[9.208496,45.392931],[9.208433,45.39321],[9.20832,45.393867],[9.2084,45.394596],[9.208644,45.395001],[9.208776,45.395084],[9.208976,45.39521],[9.209156,45.395324],[9.209145,45.395558],[9.209132,45.395828],[9.208903,45.396324],[9.208841,45.396459],[9.208077,45.397144],[9.209688,45.397582],[9.209832,45.397231],[9.209948,45.396948],[9.210017,45.39678],[9.210145,45.396803],[9.210383,45.396841],[9.210483,45.396856],[9.213218,45.397294],[9.213651,45.397363],[9.214681,45.397528],[9.21475,45.397294],[9.21482,45.397051],[9.215033,45.397084],[9.216559,45.397326],[9.218507,45.397812],[9.218707,45.397862],[9.218428,45.39834],[9.217626,45.399151],[9.216927,45.399999],[9.216768,45.40021],[9.216062,45.401153],[9.215824,45.402224],[9.215891,45.403007],[9.216175,45.403709],[9.216663,45.404491],[9.216821,45.404627],[9.216944,45.404733],[9.217509,45.405219],[9.218534,45.405847],[9.218113,45.406856],[9.217976,45.407172],[9.216738,45.406831],[9.212651,45.405652],[9.210413,45.409153],[9.21211,45.409433],[9.211009,45.412085],[9.211942,45.412129],[9.211691,45.413064],[9.212992,45.41343],[9.212365,45.414247],[9.212689,45.414309],[9.213112,45.414499],[9.213652,45.414909],[9.214096,45.415189],[9.214197,45.415259],[9.214617,45.414966],[9.216796,45.41602],[9.216147,45.416833],[9.218041,45.417365],[9.218227,45.417733],[9.217783,45.417686],[9.217397,45.418567],[9.216633,45.419042],[9.214548,45.418374],[9.213758,45.419284],[9.211557,45.418489],[9.211009,45.419135],[9.210605,45.419306],[9.209605,45.41899],[9.208872,45.420041],[9.207032,45.419479],[9.205992,45.419638],[9.205158,45.422026],[9.206561,45.4233],[9.206868,45.423308],[9.206923,45.423141],[9.207434,45.423239],[9.20761,45.42295],[9.210122,45.423472],[9.209442,45.424733],[9.210945,45.424938],[9.212076,45.425043],[9.212434,45.425236],[9.211454,45.426422],[9.210993,45.42714],[9.210392,45.429121],[9.209542,45.431221],[9.20897,45.431482],[9.20881,45.431664],[9.208562,45.432092],[9.210293,45.432433],[9.211778,45.432709],[9.2143,45.433471],[9.214845,45.433497],[9.215311,45.432325],[9.217107,45.431868],[9.217335,45.431598],[9.218656,45.432308],[9.219467,45.431723],[9.221172,45.430222],[9.221947,45.430094],[9.222175,45.429844],[9.224327,45.430605],[9.224664,45.429761],[9.224339,45.429071],[9.223235,45.428675],[9.224011,45.427594],[9.223788,45.427464],[9.224113,45.426981],[9.225011,45.424536],[9.225741,45.424845],[9.226222,45.424089],[9.227215,45.424656],[9.228054,45.42393],[9.230321,45.421898],[9.231481,45.420858],[9.234633,45.42261],[9.233095,45.423906],[9.232462,45.424381],[9.232812,45.424896],[9.233312,45.425434],[9.233121,45.425673],[9.235184,45.428146],[9.237038,45.430155],[9.238078,45.429872],[9.239141,45.431386],[9.239888,45.431248],[9.239984,45.4307],[9.240233,45.429629],[9.241213,45.429838],[9.24291,45.430513],[9.243822,45.429697],[9.245119,45.427202],[9.245627,45.4266],[9.245397,45.425912],[9.24533,45.425013],[9.245535,45.423155],[9.246646,45.423621],[9.247861,45.423735],[9.248956,45.423548],[9.249253,45.423498],[9.250057,45.423136],[9.250605,45.422856],[9.250799,45.422774],[9.250988,45.422693],[9.251639,45.42293],[9.25185,45.423006],[9.252773,45.423251],[9.253062,45.423328],[9.253526,45.423471],[9.253804,45.423557],[9.253872,45.423578],[9.252787,45.424618],[9.251991,45.425382],[9.251765,45.4256],[9.252417,45.425878],[9.252505,45.425916],[9.252583,45.425948],[9.253092,45.426154],[9.253224,45.426237],[9.253472,45.426393],[9.253702,45.426587],[9.25376,45.426713],[9.253867,45.426784],[9.254012,45.426967],[9.254886,45.427438],[9.255758,45.427907],[9.256119,45.428098],[9.257221,45.42868],[9.257294,45.428724],[9.258507,45.429471],[9.259364,45.430291],[9.259948,45.430399],[9.260245,45.430456],[9.261715,45.431257],[9.261919,45.431369],[9.262038,45.431329],[9.263607,45.432212],[9.26378,45.432504],[9.26006,45.433934],[9.255386,45.435425],[9.253023,45.436135],[9.250202,45.433799],[9.249604,45.434132],[9.249042,45.434457],[9.248819,45.435065],[9.24867,45.435444],[9.248327,45.43565],[9.247759,45.436005],[9.24735,45.436249],[9.246665,45.436664],[9.24688,45.436743],[9.245647,45.437483],[9.244333,45.438326],[9.242824,45.439213],[9.242809,45.43946],[9.242907,45.43971],[9.243046,45.439836],[9.243972,45.440584],[9.245493,45.441768],[9.24634,45.442508],[9.246553,45.442664],[9.246998,45.442874],[9.247465,45.443033],[9.247914,45.443133],[9.248327,45.443172],[9.249266,45.44331],[9.251264,45.44323],[9.251239,45.441951],[9.251474,45.440612],[9.257108,45.440381],[9.258611,45.440325],[9.259168,45.439415],[9.261713,45.440262],[9.261879,45.439985],[9.262094,45.439739],[9.26213,45.439404],[9.261981,45.439159],[9.262352,45.437981],[9.262508,45.437337],[9.262703,45.436686],[9.263385,45.436832],[9.26418,45.437002],[9.265994,45.437311],[9.266545,45.437462],[9.266653,45.43778],[9.266656,45.438347],[9.266646,45.439013],[9.266957,45.439777],[9.266951,45.439919],[9.266939,45.440243],[9.266934,45.440357],[9.26672,45.441155],[9.266687,45.442116],[9.266728,45.442901],[9.266751,45.443032],[9.266834,45.443513],[9.266828,45.443545],[9.266766,45.443969],[9.266735,45.444188],[9.266691,45.444325],[9.266597,45.444618],[9.266559,45.444945],[9.266639,45.445719],[9.266578,45.44616],[9.266534,45.446437],[9.266453,45.44688],[9.266512,45.447303],[9.266612,45.448041],[9.266987,45.448868],[9.267132,45.449785],[9.266368,45.450481],[9.266377,45.450717],[9.266382,45.450832],[9.266254,45.45098],[9.266179,45.451067],[9.26577,45.451094],[9.265194,45.451015],[9.264924,45.45149],[9.264876,45.451575],[9.264788,45.451727],[9.264894,45.451807],[9.265248,45.452073],[9.265173,45.452271],[9.265105,45.452447],[9.265049,45.4526],[9.264524,45.4527],[9.264054,45.453502],[9.263701,45.454529],[9.26384,45.45496],[9.26387,45.45505],[9.264178,45.455338],[9.264286,45.455791],[9.264374,45.456156],[9.26448,45.457002],[9.264556,45.457224],[9.264597,45.457344],[9.265773,45.45735],[9.267104,45.45741],[9.268051,45.457534],[9.26896,45.457739],[9.269357,45.457945],[9.269267,45.458139],[9.269243,45.458188],[9.269335,45.458557],[9.269411,45.458593],[9.269617,45.458691],[9.26984,45.458816],[9.269937,45.458871],[9.270169,45.459059],[9.270286,45.459581],[9.270319,45.459918],[9.27034,45.46013],[9.270418,45.460391],[9.271531,45.460505],[9.272209,45.460558],[9.272197,45.460695],[9.272161,45.461098],[9.271719,45.461822],[9.271666,45.461909],[9.271591,45.462287],[9.271492,45.462287],[9.27165,45.463282],[9.271656,45.463352],[9.271725,45.464134],[9.271746,45.46438],[9.271614,45.465041],[9.271543,45.465402],[9.271407,45.466023],[9.271109,45.467613],[9.271308,45.468152],[9.271784,45.46839],[9.271405,45.470767],[9.27142,45.471442],[9.271434,45.472225],[9.271374,45.472311],[9.270334,45.472326],[9.269918,45.472393],[9.269543,45.472452],[9.26889,45.472494],[9.26821,45.472196],[9.268108,45.472168],[9.267521,45.472093],[9.266278,45.471936],[9.265011,45.471774],[9.263236,45.471623],[9.26168,45.471503],[9.260982,45.471425],[9.260962,45.471462],[9.260909,45.472017],[9.260794,45.473218],[9.260742,45.473757],[9.260724,45.473937],[9.260706,45.474123],[9.260477,45.476508],[9.260897,45.476484],[9.261328,45.476459],[9.261462,45.476452],[9.26147,45.476546],[9.26155,45.477477],[9.261587,45.47791],[9.261692,45.479124],[9.261984,45.479134],[9.263641,45.479191],[9.264674,45.479226],[9.264676,45.479281],[9.264691,45.479721],[9.264705,45.48009],[9.264712,45.480282],[9.264856,45.48405],[9.26407,45.484065],[9.262362,45.484096],[9.259284,45.484153],[9.259241,45.484177],[9.258812,45.484424],[9.258443,45.487137],[9.258398,45.487471],[9.258388,45.487549],[9.258381,45.487597],[9.258099,45.489667],[9.258241,45.48969],[9.25849,45.489726],[9.259558,45.489994],[9.259697,45.49006],[9.259897,45.490155],[9.260423,45.490406],[9.260487,45.49046],[9.260674,45.490617],[9.260753,45.490715],[9.260835,45.490819],[9.260851,45.490967],[9.26087,45.491044],[9.260896,45.491156],[9.261127,45.493131],[9.261531,45.494865],[9.26178,45.494936],[9.262007,45.495],[9.262057,45.495001],[9.262085,45.495024],[9.262131,45.495037],[9.262204,45.49506],[9.262102,45.49519],[9.262083,45.495216],[9.262058,45.495249],[9.261861,45.495799],[9.261638,45.496173],[9.261436,45.496659],[9.261337,45.496911],[9.261184,45.497245],[9.261147,45.497324],[9.260789,45.497295],[9.26052,45.497145],[9.259789,45.496486],[9.259549,45.496339],[9.259182,45.496286],[9.257765,45.49622],[9.25662,45.496147],[9.255948,45.495945],[9.255418,45.495604],[9.255046,45.49519],[9.254854,45.494814],[9.254307,45.494865],[9.253261,45.494964],[9.253946,45.496824],[9.254016,45.497339],[9.253963,45.497798],[9.253774,45.498317],[9.253377,45.498967],[9.253236,45.499168],[9.252966,45.499597],[9.252784,45.500044],[9.252761,45.500237],[9.252781,45.500562],[9.252314,45.500767],[9.252461,45.500995],[9.2527,45.501317],[9.253297,45.501915],[9.254583,45.502834],[9.254752,45.504164],[9.254767,45.506168],[9.254796,45.506643],[9.254851,45.507127],[9.255,45.507512],[9.255215,45.507765],[9.256315,45.508205],[9.256481,45.508443],[9.256778,45.508379],[9.257304,45.507852],[9.260843,45.508515],[9.261416,45.50841],[9.261082,45.507911],[9.258345,45.504499],[9.258929,45.504177],[9.259803,45.504032],[9.261016,45.504323],[9.261297,45.504375],[9.261298,45.504405],[9.26155,45.504481],[9.262367,45.504618],[9.262416,45.504623],[9.263117,45.504705],[9.26377,45.504781],[9.264378,45.504899],[9.264987,45.505024],[9.26565,45.505155],[9.266906,45.505418],[9.26744,45.505597],[9.267886,45.505875],[9.267909,45.505915],[9.267968,45.505915],[9.270294,45.505851],[9.271595,45.505817],[9.272146,45.505761],[9.272554,45.505607],[9.272501,45.505103],[9.272332,45.504564],[9.272124,45.503862],[9.271838,45.503044],[9.271815,45.502954],[9.27175,45.502702],[9.271655,45.502333],[9.271773,45.502161],[9.271884,45.501999],[9.273866,45.501964],[9.274201,45.501958],[9.274262,45.50223],[9.274319,45.50248],[9.274865,45.50251],[9.275556,45.502548],[9.27579,45.502562],[9.276019,45.502575],[9.276178,45.503423],[9.276219,45.503636],[9.277588,45.503624],[9.277852,45.505242],[9.277905,45.505567],[9.277495,45.505586],[9.276728,45.505678],[9.275602,45.505789],[9.275039,45.505925],[9.274909,45.506029],[9.274619,45.506259],[9.274274,45.506317],[9.273326,45.506352],[9.273105,45.506375],[9.272303,45.506454],[9.272034,45.506558],[9.271821,45.50664],[9.2716,45.506726],[9.271569,45.506853],[9.271466,45.507284],[9.271233,45.508257],[9.271147,45.50862],[9.271026,45.509126],[9.270997,45.509256],[9.27095,45.509254],[9.269845,45.509205],[9.269543,45.510331],[9.268928,45.510385],[9.26798,45.510469],[9.267447,45.510516],[9.267476,45.510921],[9.267482,45.510988],[9.267578,45.511623],[9.267546,45.51169],[9.267275,45.512263],[9.267256,45.512303],[9.267243,45.512342],[9.267015,45.512408],[9.265921,45.512495],[9.263265,45.512618],[9.261979,45.512715],[9.261607,45.512701],[9.261729,45.513859],[9.261669,45.515402],[9.25996,45.515602],[9.260096,45.515009],[9.259982,45.515014],[9.257657,45.514583],[9.257462,45.514818],[9.255288,45.514927],[9.255181,45.515093],[9.255092,45.5153],[9.255162,45.515548],[9.255226,45.516102],[9.25487,45.517394],[9.25489,45.517565],[9.254922,45.517741],[9.254966,45.517959],[9.255016,45.51824],[9.255035,45.518437],[9.255092,45.518755],[9.255156,45.518913],[9.25529,45.519546],[9.255199,45.519915],[9.255357,45.520423],[9.25402,45.520322],[9.253033,45.520167],[9.252793,45.520104],[9.25252,45.520033],[9.25152,45.519963],[9.250803,45.519852],[9.249782,45.519679],[9.249607,45.520003],[9.248816,45.519821],[9.247585,45.519437],[9.246513,45.519017],[9.246091,45.518864],[9.245586,45.518688],[9.245141,45.518495],[9.245097,45.518476],[9.244878,45.51838],[9.244627,45.519024],[9.24408,45.518922],[9.243715,45.519021],[9.243018,45.519028],[9.242883,45.519045],[9.240984,45.519289],[9.238208,45.518808],[9.23761,45.518705],[9.237914,45.517864],[9.235922,45.517442],[9.23582,45.517683],[9.234629,45.517456],[9.233992,45.51906],[9.233479,45.519061],[9.233341,45.519844],[9.233424,45.519854],[9.233034,45.521285],[9.231288,45.52118],[9.231189,45.521734],[9.230939,45.523152],[9.230863,45.523148],[9.229295,45.523048],[9.229252,45.523224],[9.227816,45.523057],[9.227703,45.523043],[9.226036,45.522853],[9.225936,45.523289],[9.225867,45.523568],[9.225559,45.523515],[9.225536,45.523667],[9.225159,45.523628],[9.225164,45.523583],[9.223973,45.523427],[9.22393,45.523594],[9.223603,45.523549],[9.223521,45.523582],[9.223344,45.52365],[9.223222,45.523524],[9.222825,45.52368],[9.222716,45.523724],[9.221466,45.523428],[9.220128,45.523394],[9.220093,45.523572],[9.219798,45.525038],[9.219559,45.525011],[9.219404,45.525489],[9.219798,45.526172],[9.219809,45.526712],[9.216253,45.526791],[9.216733,45.528387],[9.216844,45.529296],[9.216472,45.529292],[9.216426,45.529292],[9.216253,45.529302],[9.216459,45.529657],[9.215356,45.529632],[9.21381,45.529608],[9.213244,45.52974],[9.213246,45.530289],[9.211873,45.530161],[9.211805,45.52999],[9.211943,45.529265],[9.21138,45.528286],[9.210093,45.528202],[9.209668,45.528176],[9.20973,45.528283],[9.209653,45.528351],[9.209522,45.52834],[9.208062,45.528219],[9.20746,45.528176],[9.207382,45.528019],[9.206123,45.527926],[9.205702,45.529335],[9.205037,45.529256],[9.203018,45.528998],[9.202921,45.52921],[9.202004,45.529023],[9.20202,45.528974],[9.202061,45.528803],[9.20149,45.528687],[9.201269,45.529489],[9.201155,45.529915],[9.200754,45.529856],[9.199962,45.529744],[9.200165,45.529132],[9.200374,45.528509],[9.199129,45.528309],[9.199248,45.52814],[9.198846,45.528042],[9.199006,45.52778],[9.199134,45.527569],[9.198555,45.527451],[9.197705,45.527281],[9.197473,45.528047],[9.197105,45.527977],[9.196572,45.529469],[9.195828,45.529377],[9.195488,45.529335],[9.195648,45.528529],[9.195709,45.528535],[9.195783,45.528542],[9.195851,45.528372],[9.196096,45.527749],[9.1957,45.527692],[9.19427,45.527488],[9.192615,45.527255],[9.192679,45.527985],[9.190454,45.527759],[9.19049,45.527655],[9.190348,45.527652],[9.19044,45.527252],[9.190447,45.527215],[9.190128,45.527184],[9.18899,45.527076],[9.188954,45.527114],[9.188165,45.527911],[9.187258,45.528829],[9.187221,45.528867],[9.186619,45.529476],[9.186622,45.529801],[9.186626,45.529914],[9.186632,45.530049],[9.186685,45.530071],[9.18661,45.53042],[9.186541,45.530741],[9.185975,45.530679],[9.185275,45.5306],[9.18488,45.530554],[9.184763,45.530928],[9.184686,45.531182],[9.184694,45.531368],[9.184701,45.531529],[9.184688,45.531665],[9.184651,45.532028],[9.184583,45.53268],[9.184553,45.532722],[9.184317,45.533062],[9.184264,45.533353],[9.183551,45.533224],[9.183337,45.533185],[9.183051,45.534157],[9.182992,45.534355],[9.182007,45.534225],[9.181971,45.534384],[9.18029,45.534145],[9.179977,45.535157],[9.17974,45.535113],[9.179514,45.53507],[9.179252,45.535021],[9.179145,45.535001],[9.179138,45.535095],[9.179119,45.535343],[9.178067,45.534778],[9.177644,45.535454],[9.175718,45.535321],[9.175654,45.535973]]]},"properties":{"city":"Milan","country":"Italy"}}]}