{"type":"FeatureCollection","features":[{"type":"Feature","properties":{"city":"Amsterdam","country":"Netherlands"},"geometry":{"type":"MultiPolygon","coordinates":[[[[5.016499042297028,52.344051361281345],[5.009141921562502,52.3431282045031],[5.004713058161144,52.34400939981401],[5.00173902533578,52.34669113139063],[5.000236988446318,52.34937667879075],[4.9943161012071755,52.352046966494356],[4.988382815914292,52.355613708306066],[4.985417842859192,52.35739517174983],[4.978041171762698,52.35826492318773],[4.96915912639264,52.36182022112638],[4.964716911656183,52.363594055621206],[4.96174907695837,52.36537933308978],[4.961717128542716,52.36807250943883],[4.972036838229542,52.368114471805484],[4.97206687918316,52.365421295456485],[4.979434967150041,52.36545181305081],[4.983819961621975,52.369060516329796],[4.964557170477065,52.37795639057504],[4.961574077881437,52.38063812215165],[4.967446803727057,52.3833541871461],[4.976334094842628,52.37979888920745],[4.977819919653598,52.378910064947604],[4.983773231949158,52.37354659999562],[4.986721992925709,52.373558044768004],[4.992580890795523,52.37717056297117],[5.001409054184535,52.37900161773052],[5.004403114012575,52.37452697793776],[5.011795043906204,52.372756958367006],[5.014731884369041,52.373668670372865],[5.017629146567913,52.379062652919174],[5.016478062012993,52.382457733037995],[5.016108990137809,52.38354492166087],[5.021982192624137,52.38626098665526],[5.029329776947691,52.388980865674455],[5.0321950916302285,52.39796447777849],[5.035119056499298,52.40066909800055],[5.042462825898724,52.40428543112779],[5.049815177528444,52.40700149522286],[5.0556588175005,52.413307189775026],[5.061554908632161,52.41422271760439],[5.070415973718241,52.41335678109061],[5.0718679426514655,52.41605377236374],[5.068910121904651,52.416942596623585],[5.061536789091576,52.41601943984534],[5.052690982802687,52.415092468142916],[5.043820857946287,52.41685485876479],[5.043225764857198,52.416782378803816],[5.036449909235955,52.415931701986494],[5.031990051599678,52.41950607274714],[5.024740219085913,52.42036056538785],[5.023136138821769,52.419475555152815],[5.021667956910733,52.418571472095834],[5.00389480550092,52.424789428789154],[4.995426177576064,52.42475509627076],[4.993564128581738,52.42474746732182],[4.992105007340285,52.42294693015674],[4.9906311039423485,52.42293930030854],[4.986163138917789,52.42651367196845],[4.979229927119491,52.423946380920825],[4.9788131713908115,52.42378997802513],[4.975871086081781,52.42288208004402],[4.950799941664002,52.42098236114708],[4.947919845724357,52.41468811046798],[4.9464612011235545,52.413787841435806],[4.934681892655249,52.411037444822284],[4.933922767721583,52.41126632677964],[4.931718826162921,52.41192245505732],[4.9287109374598685,52.413326263496344],[4.918364047562818,52.41814804069958],[4.9168891908835235,52.41814041175064],[4.910952091565832,52.42080688453012],[4.910379886222813,52.42103195156335],[4.9020519257558135,52.42435455351989],[4.901673794110366,52.42440032991135],[4.894660950042862,52.42521667510954],[4.879900932182295,52.42514419514856],[4.875415801797885,52.429611205992444],[4.8748211862487665,52.429698943851236],[4.869499206123521,52.43048095743029],[4.865081787494546,52.42956161467686],[4.860723972333517,52.42415237423273],[4.862260818382083,52.419673919515844],[4.859384059826539,52.41699981688811],[4.859356880515691,52.41606903116093],[4.845137119582432,52.41858291596884],[4.84456491513879,52.41868591352414],[4.829781055351475,52.420402526855185],[4.829040050857714,52.4205207823083],[4.813508033369089,52.42300796534539],[4.813007831346397,52.423069000533985],[4.78590679206485,52.42638397174295],[4.785412788169708,52.4264450069316],[4.775064944991243,52.42728424077512],[4.769162178192005,52.42724990825673],[4.75289821597994,52.428947448765825],[4.7524199484219025,52.429016112903355],[4.7410612106064605,52.430671691945065],[4.731224060042393,52.40009689355685],[4.757833003790154,52.39666366599545],[4.758430004341278,52.396667480020255],[4.760784148869448,52.39668273881739],[4.760848045700811,52.39259719880175],[4.760921001403119,52.387832641862985],[4.760989188899998,52.383552551509126],[4.760993957105484,52.38322067289579],[4.761033057829422,52.38079071012322],[4.761065006245076,52.378730774305836],[4.7596039775415875,52.377826690349536],[4.761163234695573,52.37244796749974],[4.759812831596946,52.36436080950381],[4.759743213278739,52.36392974825935],[4.75846576678174,52.356277465532685],[4.770338058854406,52.35095977787148],[4.770553111936636,52.35089492775876],[4.775960922458637,52.349288940032636],[4.776261806836942,52.34919738724966],[4.79371118522306,52.34137725865361],[4.79406213755766,52.34122085575797],[4.800046920728846,52.334972381470266],[4.800446033557648,52.33480453470156],[4.819325923952249,52.32698059118138],[4.820809841301184,52.325210571610626],[4.842874050297212,52.32712173438057],[4.842848777549079,52.32891845662152],[4.8472571373071105,52.329837799375014],[4.8590378756974815,52.32989883456361],[4.8591470722795975,52.32181930551661],[4.8595280646684955,52.32182312044068],[4.872192860012547,52.321884155629334],[4.884117126604167,52.32194519081793],[4.899053096823025,52.321994781234196],[4.9048070905748204,52.32114410441693],[4.912200927930542,52.318485259687066],[4.915147781445,52.3185005184842],[4.916596889634775,52.320301055649225],[4.913630009117696,52.322082519093044],[4.910653114649563,52.32476043664491],[4.910586833715456,52.330146789342905],[4.914984226241074,52.33196258530512],[4.915619849976167,52.33216094966815],[4.923788071062688,52.3346939090967],[4.9282069205129915,52.33471679684277],[4.928955078214358,52.33471679684277],[4.944409847536463,52.3347854609803],[4.945614814971805,52.33628082310156],[4.94586420057243,52.33658981306945],[4.953207015791179,52.33841323887992],[4.956183910259313,52.339374542201426],[4.959051132403886,52.342926025215945],[4.959390163325452,52.343276977550545],[4.963419913897951,52.34743499752716],[4.963699817992278,52.34773635854617],[4.964402198402809,52.34849548347984],[4.969244956789396,52.35374069207933],[4.969612121202488,52.353965759112555],[4.971928120086716,52.355396271121094],[4.972174167403978,52.35554885819329],[4.979560852451414,52.35378265354666],[4.980078220733333,52.35347366357877],[4.986430168317668,52.34965515116437],[4.99151897402146,52.34659957860771],[5.001793861497561,52.34130477869263],[5.002024173376924,52.34130477869263],[5.012106895516865,52.34134292613521],[5.016499042297028,52.344051361281345]]],[[[5.000236988446318,52.34937667879075],[5.007596015743559,52.3503036495938],[5.0105428692580745,52.35031509436618],[5.0090250969307135,52.35479736310788],[5.007542133762513,52.35568618736772],[4.995687961230487,52.36192703270643],[4.989800929869091,52.36100387592819],[4.988318919982191,52.361896515112164],[4.982394218718241,52.36456680281577],[4.98093080501269,52.363662719758736],[4.98833799370351,52.36009979287121],[4.989849090363293,52.356517791363046],[5.000236988446318,52.34937667879075]]],[[[5.025735854925813,52.302799225204126],[5.025414943544831,52.30424118018635],[5.021121025215166,52.323425293242735],[5.019639015328323,52.32431793242671],[5.000729083980104,52.3144416811387],[5.000496864638649,52.318042755468866],[4.993093967512664,52.32780838025258],[4.988647937852079,52.33048248288031],[4.983413219844294,52.33045959513424],[4.982756138285197,52.33045959513424],[4.981275081679712,52.33135223431822],[4.980775832938377,52.33117294277713],[4.971003055846381,52.32771682746966],[4.970795154173061,52.327644348408],[4.960732936575823,52.324085235545226],[4.960165023696959,52.3238525386638],[4.95633411412814,52.32227325450714],[4.9503450393921185,52.3276710510782],[4.949150085008455,52.32724761968194],[4.94744777719319,52.32672119162976],[4.941587925142699,52.32400512663531],[4.940126895539834,52.32310104357833],[4.944596767127166,52.3186302187097],[4.944303035956409,52.318264007577966],[4.941692829260717,52.31502914437954],[4.932931900087169,52.30865097076577],[4.932951927089789,52.30691146878928],[4.956808090121285,52.280086517778614],[4.9569268222151095,52.27994537368011],[4.9582991597784485,52.278297424486595],[4.964182853755744,52.278320312232665],[4.970620155096128,52.279136657430854],[4.971529007257914,52.27925109885916],[4.972988128499367,52.28195953400535],[4.975686073053851,52.283626556020806],[4.975893974727228,52.283756256246306],[4.985835075228579,52.28913116417192],[4.987598895772464,52.290084838544544],[5.000850201075991,52.28924179067616],[5.00522804234032,52.29284667993039],[5.005202770491508,52.29553985627939],[5.006646156295119,52.298240661577324],[5.011035918972539,52.300949096723514],[5.011690139788186,52.30135345439845],[5.015425205009251,52.303657531869646],[5.017633914773398,52.30366516081858],[5.0183677669589315,52.30366897574271],[5.025735854925813,52.302799225204126]]]]}}]}