{"type":"FeatureCollection","features":[{"type":"Feature","properties":{"station_id":85515,"title":"ParkinGO NAPOLI","address":"Prolungamento di Via Giaime Pintor","town":"Napoli","postcode":80144,"operator_id":45,"usage_cost":"ricarica gratuita parcheggio a pagamento","number_of_points":1,"power_kw":null,"verified":false,"last_verified":"2017-04-06T15:22:00Z"},"geometry":{"type":"Point","coordinates":[14.263601898000047,40.88619474800004]}},{"type":"Feature","properties":{"station_id":267586,"title":"Free to X Dognaella Ovest","address":"Exit service area Doganella","town":"Naples","postcode":80143,"operator_id":3503,"usage_cost":"0.9","number_of_points":4,"power_kw":300,"verified":true,"last_verified":"2023-11-13T11:36:00Z"},"geometry":{"type":"Point","coordinates":[14.279622500000073,40.87328151600008]}},{"type":"Feature","properties":{"station_id":170642,"title":"Base ALD NLT Auto Moto Napoli","address":"Via Nuova Poggioreale, 40","town":"Napoli","postcode":80143,"operator_id":80,"usage_cost":"","number_of_points":2,"power_kw":22,"verified":false,"last_verified":"2020-12-04T13:39:00Z"},"geometry":{"type":"Point","coordinates":[14.279783168000051,40.86169389600008]}},{"type":"Feature","properties":{"station_id":106893,"title":"EVAD Sede Enel","address":"Via Galileo Ferraris, 45","town":"Napoli","postcode":80142,"operator_id":80,"usage_cost":"0,50â‚¬/kWh","number_of_points":2,"power_kw":50,"verified":false,"last_verified":"2023-02-13T06:23:00Z"},"geometry":{"type":"Point","coordinates":[14.280475932000058,40.84969833500003]}},{"type":"Feature","properties":{"station_id":256697,"title":"Be Charge Eni","address":"Via Mariano Semmola 40","town":"Napoli","postcode":"","operator_id":3327,"usage_cost":"","number_of_points":1,"power_kw":75,"verified":false,"last_verified":"2023-03-12T06:39:00Z"},"geometry":{"type":"Point","coordinates":[14.220184000000074,40.86306300000007]}},{"type":"Feature","properties":{"station_id":235055,"title":"Be Charge Policlinico","address":"Via Sergio Pansini 5","town":"Napoli","postcode":"","operator_id":3327,"usage_cost":"","number_of_points":1,"power_kw":110,"verified":false,"last_verified":"2023-02-16T12:21:00Z"},"geometry":{"type":"Point","coordinates":[14.22170200000005,40.86582200000004]}},{"type":"Feature","properties":{"station_id":94764,"title":" Coppola Vincenzo Srl","address":"Via della Pigna, 28","town":"Napoli","postcode":80126,"operator_id":45,"usage_cost":"","number_of_points":1,"power_kw":null,"verified":false,"last_verified":"2017-10-25T15:43:00Z"},"geometry":{"type":"Point","coordinates":[14.210032513000044,40.84537225400004]}},{"type":"Feature","properties":{"station_id":235338,"title":"Compleo UnicoGo Fuorigrotta","address":"Viale John Fitzgerald Kennedy 34","town":"Napoli","postcode":"","operator_id":1,"usage_cost":"","number_of_points":4,"power_kw":350,"verified":false,"last_verified":"2023-02-18T19:30:00Z"},"geometry":{"type":"Point","coordinates":[14.189809000000025,40.82298000000003]}},{"type":"Feature","properties":{"station_id":126691,"title":"EnelX Fast Bourelly Car Service","address":"Via Comunale delle Murelle","town":"Napoli","postcode":80146,"operator_id":80,"usage_cost":"0,50 â‚¬/kWh","number_of_points":4,"power_kw":50,"verified":false,"last_verified":"2022-05-20T06:08:00Z"},"geometry":{"type":"Point","coordinates":[14.300336375000029,40.84133284700005]}},{"type":"Feature","properties":{"station_id":170640,"title":"MINIMAX Selezione Auto NAPOLI | ENELX","address":"Via delle Repubbliche Marinare, 2","town":"Napoli","postcode":80146,"operator_id":80,"usage_cost":"","number_of_points":2,"power_kw":22,"verified":false,"last_verified":"2020-12-04T13:40:00Z"},"geometry":{"type":"Point","coordinates":[14.30105297800003,40.84515234100007]}},{"type":"Feature","properties":{"station_id":170639,"title":"Minimax S.p.A. NAPOLI | ENELX","address":"Via delle Repubbliche Marinare, 2","town":"Napoli","postcode":80142,"operator_id":80,"usage_cost":"","number_of_points":2,"power_kw":22,"verified":false,"last_verified":"2020-12-04T13:40:00Z"},"geometry":{"type":"Point","coordinates":[14.30196442700003,40.84525752600007]}},{"type":"Feature","properties":{"station_id":194242,"title":"Ewiva Mercedes Selezione Auto","address":"Via delle Repubbliche Marinare 2","town":"Naples","postcode":80143,"operator_id":3720,"usage_cost":"","number_of_points":2,"power_kw":150,"verified":true,"last_verified":"2023-09-18T17:39:00Z"},"geometry":{"type":"Point","coordinates":[14.30228968700004,40.84543341400007]}},{"type":"Feature","properties":{"station_id":112715,"title":" AS Rent Noleggio Auto Napoli | EnelX","address":"Via Mario Palermo, 100","town":"Napoli","postcode":80147,"operator_id":80,"usage_cost":"","number_of_points":2,"power_kw":22,"verified":false,"last_verified":"2018-11-12T14:31:00Z"},"geometry":{"type":"Point","coordinates":[14.323627159000068,40.85960891000008]}},{"type":"Feature","properties":{"station_id":235033,"title":"Be Charge Eni","address":"Via della Stadera 138","town":"Napoli ","postcode":"","operator_id":3327,"usage_cost":"","number_of_points":1,"power_kw":75,"verified":false,"last_verified":"2023-02-16T12:21:00Z"},"geometry":{"type":"Point","coordinates":[14.300316000000066,40.87082600000008]}},{"type":"Feature","properties":{"station_id":88956,"title":" Lidl Napoli Arpino ","address":"Via Nazionale delle Puglie, 300","town":"Napoli","postcode":80026,"operator_id":38,"usage_cost":"gratis","number_of_points":6,"power_kw":11,"verified":false,"last_verified":"2019-01-14T16:45:00Z"},"geometry":{"type":"Point","coordinates":[14.313196911000034,40.87810921400006]}}]}