{"type":"FeatureCollection","features":[{"type":"Feature","properties":{"station_id":"280585","title":"Conad Giaconia - Corso dei Mille","address":"Corso dei Mille 1660","town":"Palermo","postcode":"90100","operator_id":"3328","usage_cost":"0.58 €","number_of_points":"1","power_kw":null,"verified":true,"last_verified":"2023-12-01T16:44:00Z"},"geometry":{"type":"Point","coordinates":[13.424990114000025,38.08498941600004]}},{"type":"Feature","properties":{"station_id":"104103","title":"Eneldrive Fast EVA+ Conad Sicilia","address":"Via Messina Montagne","town":"Palermo","postcode":"90121","operator_id":"80","usage_cost":"","number_of_points":"2","power_kw":null,"verified":true,"last_verified":"2018-05-15T19:26:00Z"},"geometry":{"type":"Point","coordinates":[13.425258863000067,38.08569687600004]}},{"type":"Feature","properties":{"station_id":"209964","title":"Tesla Supercharger Forum Palermo aperto a veicoli non Tesla","address":"Via Filippo Pecoraino","town":"Palermo","postcode":"","operator_id":"3534","usage_cost":"","number_of_points":"8","power_kw":null,"verified":true,"last_verified":"2023-06-17T09:00:00Z"},"geometry":{"type":"Point","coordinates":[13.409912000000077,38.08972000000006]}},{"type":"Feature","properties":{"station_id":"193598","title":"EnelX Fast Foro Italico Umberto I","address":"Foro Italico Umberto I","town":"Palermo","postcode":"90133","operator_id":"80","usage_cost":"","number_of_points":"2","power_kw":null,"verified":true,"last_verified":"2022-06-27T20:44:00Z"},"geometry":{"type":"Point","coordinates":[13.37565606100003,38.115212161000045]}},{"type":"Feature","properties":{"station_id":"118671","title":"T.F. Car Service Palermo | EnelX","address":"Via Filippo Pecoraino, 23","town":"Palermo","postcode":"90124","operator_id":"80","usage_cost":"","number_of_points":"2","power_kw":null,"verified":true,"last_verified":"2019-03-27T15:18:00Z"},"geometry":{"type":"Point","coordinates":[13.395907728000054,38.095987956000045]}},{"type":"Feature","properties":{"station_id":"73498","title":" Giaconia Supermercati - Conad","address":"Via Messina Marine, 155","town":"Palermo","postcode":"90123","operator_id":"80","usage_cost":"free","number_of_points":"2","power_kw":null,"verified":true,"last_verified":"2016-11-22T14:31:00Z"},"geometry":{"type":"Point","coordinates":[13.383496515000047,38.10655288000004]}},{"type":"Feature","properties":{"station_id":"195462","title":"EnelX Via Mongibello","address":"Via Mongibello","town":"Palermo","postcode":"90149","operator_id":"80","usage_cost":"","number_of_points":"2","power_kw":null,"verified":true,"last_verified":"2022-08-22T15:31:00Z"},"geometry":{"type":"Point","coordinates":[13.322740560000057,38.207330539000054]}},{"type":"Feature","properties":{"station_id":"193592","title":"Enel X Way Eni Mondello","address":"Via Principe di Scalea","town":"Palermo","postcode":"90149","operator_id":"80","usage_cost":"","number_of_points":"1","power_kw":null,"verified":true,"last_verified":"2022-11-30T14:09:00Z"},"geometry":{"type":"Point","coordinates":[13.328984834000039,38.197984775000066]}},{"type":"Feature","properties":{"station_id":"208606","title":"Sibeg Centro Olimpo","address":"Viale dell'Olimpo 24","town":"Palermo","postcode":"","operator_id":"1","usage_cost":"","number_of_points":"1","power_kw":null,"verified":true,"last_verified":"2022-12-06T10:59:00Z"},"geometry":{"type":"Point","coordinates":[13.315796000000034,38.18856100000005]}},{"type":"Feature","properties":{"station_id":"167270","title":"ALD Costa CAR SERVICE PALERMO | ENELX","address":"Viale Strasburgo","town":"Palermo","postcode":"90146","operator_id":"80","usage_cost":"","number_of_points":"2","power_kw":null,"verified":true,"last_verified":"2020-09-04T10:55:00Z"},"geometry":{"type":"Point","coordinates":[13.330251475000068,38.151993031000075]}},{"type":"Feature","properties":{"station_id":"155257","title":"CONAD SUPERSTORE Palermo Mandalà | EnelX","address":"Via E. Oliveri Mandalà","town":"Palermo","postcode":"90100","operator_id":"80","usage_cost":"","number_of_points":"2","power_kw":null,"verified":true,"last_verified":"2020-04-03T16:18:00Z"},"geometry":{"type":"Point","coordinates":[13.329444687000034,38.14372403500005]}},{"type":"Feature","properties":{"station_id":"193593","title":"Enel X Way Eni","address":"Via Ugo la Malfa, 93","town":"Palermo","postcode":"90146","operator_id":"80","usage_cost":"","number_of_points":"1","power_kw":null,"verified":true,"last_verified":"2022-12-19T06:43:00Z"},"geometry":{"type":"Point","coordinates":[13.31595397500007,38.16044259700004]}},{"type":"Feature","properties":{"station_id":"130546","title":"R.Star Concessionaria | EnelX","address":"Viale Michelangelo, 1822","town":"Palermo","postcode":"90145","operator_id":"80","usage_cost":"","number_of_points":"4","power_kw":null,"verified":true,"last_verified":"2019-08-06T13:48:00Z"},"geometry":{"type":"Point","coordinates":[13.310637110000073,38.13335075400005]}},{"type":"Feature","properties":{"station_id":"118670","title":"Conad Centro Commerciale Ai Leoni | EnelX","address":"Via Crocifisso Pietratagliata","town":"Palermo","postcode":"90135","operator_id":"80","usage_cost":"","number_of_points":"2","power_kw":null,"verified":true,"last_verified":"2019-03-27T15:14:00Z"},"geometry":{"type":"Point","coordinates":[13.325493920000042,38.103168409000034]}},{"type":"Feature","properties":{"station_id":"94076","title":"Green Energy","address":"Via Badia 3/a","town":"Palermo","postcode":"90145","operator_id":"45","usage_cost":"","number_of_points":"1","power_kw":null,"verified":true,"last_verified":"2017-10-16T09:07:00Z"},"geometry":{"type":"Point","coordinates":[13.32273996400005,38.131937864000065]}},{"type":"Feature","properties":{"station_id":"193597","title":"EnelX Fast Viale Leonardo da Vinci","address":"Viale Leonardo da Vinci","town":"Palermo","postcode":"90135","operator_id":"80","usage_cost":"","number_of_points":"2","power_kw":null,"verified":true,"last_verified":"2022-06-27T20:44:00Z"},"geometry":{"type":"Point","coordinates":[13.328839322000022,38.12826534200008]}},{"type":"Feature","properties":{"station_id":"193595","title":"EnelX Fast Via Giuseppe Sciuti","address":"Via Giuseppe Sciuti","town":"Palermo","postcode":"90144","operator_id":"80","usage_cost":"","number_of_points":"2","power_kw":null,"verified":true,"last_verified":"2022-06-27T20:40:00Z"},"geometry":{"type":"Point","coordinates":[13.341225530000031,38.13585726400004]}},{"type":"Feature","properties":{"station_id":"193596","title":"EnelX Fast Via Terrasanta","address":"Via Terrasanta","town":"Palermo","postcode":"90141","operator_id":"80","usage_cost":"","number_of_points":"2","power_kw":null,"verified":true,"last_verified":"2022-06-27T20:41:00Z"},"geometry":{"type":"Point","coordinates":[13.345399951000047,38.130135137000025]}},{"type":"Feature","properties":{"station_id":"107336","title":"EnelX EVA+ Negozio Enel di Palermo","address":"Via Marchese di Villabianca, 121","town":"Palermo","postcode":"90143","operator_id":"80","usage_cost":"","number_of_points":"8","power_kw":null,"verified":true,"last_verified":"2018-07-24T13:50:00Z"},"geometry":{"type":"Point","coordinates":[13.349392541000043,38.13932740300004]}},{"type":"Feature","properties":{"station_id":"193594","title":"Enel X Way Eni","address":"Via Sampolo","town":"Palermo","postcode":"90143","operator_id":"80","usage_cost":"","number_of_points":"1","power_kw":null,"verified":true,"last_verified":"2022-12-13T06:50:00Z"},"geometry":{"type":"Point","coordinates":[13.354269842000065,38.137491200000056]}},{"type":"Feature","properties":{"station_id":"149890","title":"IONITY Basile Palermo","address":"Via Ernesto Basile","town":"Palermo PA","postcode":"90100","operator_id":"3299","usage_cost":"","number_of_points":"2","power_kw":null,"verified":true,"last_verified":"2022-02-02T18:55:00Z"},"geometry":{"type":"Point","coordinates":[13.346183000000053,38.09985100000006]}}]}