{"type":"FeatureCollection","features":[{"type":"Feature","geometry":{"type":"Point","coordinates":[9.116371,45.514703]},"properties":{"station_id":21186,"title":"KLIMA HOTEL MILANO FIERE","address":"Via privata Venezia Giulia, 8","town":"Milano","postcode":"20157","operator_id":1,"usage_cost":"","number_of_points":2,"power_kw":null,"verified":false,"last_verified":"2014-03-04T21:47:00Z"}},{"type":"Feature","geometry":{"type":"Point","coordinates":[9.124594,45.510296]},"properties":{"station_id":156446,"title":"Centro Porsche Milano Nord","address":"Via Giorgio Stephenson, 53","town":"Milano","postcode":"20157","operator_id":45,"usage_cost":"","number_of_points":null,"power_kw":"350","verified":false,"last_verified":"2022-01-01T20:59:00Z"}},{"type":"Feature","geometry":{"type":"Point","coordinates":[9.11971,45.513811]},"properties":{"station_id":79816,"title":"The Hub Hotel","address":"Via Privata Polonia, 10","town":"Milano","postcode":"20157","operator_id":23,"usage_cost":"Free","number_of_points":1,"power_kw":"22","verified":false,"last_verified":"2018-10-03T23:36:00Z"}},{"type":"Feature","geometry":{"type":"Point","coordinates":[9.139033,45.507901]},"properties":{"station_id":189569,"title":"Enel X  Quarto Oggiaro","address":"Via Giulio Confalonieri 1","town":"Milano","postcode":"","operator_id":80,"usage_cost":"","number_of_points":2,"power_kw":"50","verified":false,"last_verified":"2022-06-10T08:11:00Z"}},{"type":"Feature","geometry":{"type":"Point","coordinates":[9.147703,45.520968]},"properties":{"station_id":47995,"title":"Autoparco Fiorenza Deposito Giud\u00ecziario","address":"Via Carlo Amoretti, 91","town":"Milano","postcode":"20026","operator_id":80,"usage_cost":"0,40\u20ac/kW","number_of_points":2,"power_kw":"22","verified":false,"last_verified":"2015-06-20T17:48:00Z"}},{"type":"Feature","geometry":{"type":"Point","coordinates":[9.192481,45.527612]},"properties":{"station_id":49060,"title":"Il Gigante","address":"Via Luigi Ornato, 169","town":"Milano","postcode":"20162","operator_id":1,"usage_cost":"","number_of_points":6,"power_kw":"7.4","verified":false,"last_verified":"2019-10-16T16:05:00Z"}},{"type":"Feature","geometry":{"type":"Point","coordinates":[9.192679,45.525479]},"properties":{"station_id":131775,"title":"LIDL Milano Ornato","address":"Via Luigi Ornato","town":"Milano","postcode":"20162","operator_id":38,"usage_cost":"free","number_of_points":2,"power_kw":"22","verified":false,"last_verified":"2020-05-02T13:36:00Z"}},{"type":"Feature","geometry":{"type":"Point","coordinates":[9.194317,45.51491]},"properties":{"station_id":258113,"title":"A2A  Niguarda","address":"Via Monte Rotondo 5","town":"Milano","postcode":"","operator_id":82,"usage_cost":"","number_of_points":1,"power_kw":"50","verified":false,"last_verified":"2023-03-20T06:28:00Z"}},{"type":"Feature","geometry":{"type":"Point","coordinates":[9.190209,45.509494]},"properties":{"station_id":174441,"title":"Be Charge Ospedale Niguarda Zona Ca' Granda","address":"Piazza dell'Ospedale Maggiore 8","town":"Milano","postcode":"","operator_id":3327,"usage_cost":"","number_of_points":1,"power_kw":"22","verified":false,"last_verified":"2021-03-30T12:38:00Z"}},{"type":"Feature","geometry":{"type":"Point","coordinates":[9.191656,45.497928]},"properties":{"station_id":191947,"title":"Be Charge Eni","address":"Via Gioacchino Murat 14","town":"Milano","postcode":"","operator_id":3327,"usage_cost":"","number_of_points":2,"power_kw":"75","verified":false,"last_verified":"2022-06-10T08:12:00Z"}},{"type":"Feature","geometry":{"type":"Point","coordinates":[9.164095,45.503988]},"properties":{"station_id":148120,"title":"Ekomobil - 22 kW","address":"Via Giovanni Durando 3","town":"Milano","postcode":"20158","operator_id":3342,"usage_cost":"","number_of_points":2,"power_kw":"22","verified":false,"last_verified":"2020-01-25T22:57:00Z"}},{"type":"Feature","geometry":{"type":"Point","coordinates":[9.164053,45.504382]},"properties":{"station_id":23193,"title":"A2A PoliMi Bovisa","address":"Via Giovanni Durando 10","town":"Milano","postcode":"20158","operator_id":82,"usage_cost":"15\u20ac for 3months","number_of_points":2,"power_kw":"22","verified":false,"last_verified":"2016-05-27T15:13:00Z"}},{"type":"Feature","geometry":{"type":"Point","coordinates":[9.159476,45.501927]},"properties":{"station_id":127213,"title":" SEA Smart Energy Area Milano Bovisa FNM","address":"Piazza Emilio Alfieri","town":"Milano","postcode":"20157","operator_id":1,"usage_cost":"","number_of_points":3,"power_kw":"3.7","verified":false,"last_verified":"2019-08-07T08:08:00Z"}},{"type":"Feature","geometry":{"type":"Point","coordinates":[9.146443,45.490386]},"properties":{"station_id":21196,"title":"Iper Portello","address":"Via Grosotto 7","town":"Milano","postcode":"20149","operator_id":84,"usage_cost":"free","number_of_points":6,"power_kw":"40","verified":false,"last_verified":"2021-01-16T16:48:00Z"}},{"type":"Feature","geometry":{"type":"Point","coordinates":[9.145332,45.483677]},"properties":{"station_id":101431,"title":"Sorgenia sede","address":"Via Alessandro Algardi 4","town":"Milan","postcode":"20149","operator_id":1,"usage_cost":"free","number_of_points":10,"power_kw":"22","verified":false,"last_verified":"2021-08-04T06:45:00Z"}},{"type":"Feature","geometry":{"type":"Point","coordinates":[9.152872,45.484321]},"properties":{"station_id":216750,"title":"A2A Traiano ","address":"Via Marco Ulpio Traiano 1","town":"Milano","postcode":"","operator_id":1,"usage_cost":"","number_of_points":1,"power_kw":"50","verified":false,"last_verified":"2023-02-12T17:55:00Z"}},{"type":"Feature","geometry":{"type":"Point","coordinates":[9.151014,45.489119]},"properties":{"station_id":90021,"title":" MediaWorld Certosa","address":"Viale Certosa, 29","town":"Milano","postcode":"20148","operator_id":3282,"usage_cost":"Free","number_of_points":2,"power_kw":"22","verified":false,"last_verified":"2018-05-10T08:43:00Z"}},{"type":"Feature","geometry":{"type":"Point","coordinates":[9.157178,45.486814]},"properties":{"station_id":103642,"title":"Enterprise Hotel, Design Hotel & Congress Centre","address":"Corso Sempione","town":"91","postcode":"20149","operator_id":23,"usage_cost":"","number_of_points":1,"power_kw":"22","verified":false,"last_verified":"2018-10-03T23:29:00Z"}},{"type":"Feature","geometry":{"type":"Point","coordinates":[9.160702,45.485727]},"properties":{"station_id":157459,"title":"BECHARGE Milano Salvioni","address":"Via Fratelli Salvioni, 6","town":"Milano","postcode":"20154","operator_id":3327,"usage_cost":"0,45\u20ac/kWh","number_of_points":2,"power_kw":"22","verified":false,"last_verified":"2020-06-11T12:51:00Z"}},{"type":"Feature","geometry":{"type":"Point","coordinates":[9.157514,45.486701]},"properties":{"station_id":73379,"title":"Enterprise Hotel","address":"Corso Sempione 91","town":"Milano","postcode":"20149","operator_id":1,"usage_cost":"20\u20ac","number_of_points":5,"power_kw":"22","verified":false,"last_verified":"2016-11-21T15:25:00Z"}},{"type":"Feature","geometry":{"type":"Point","coordinates":[9.160105,45.482819]},"properties":{"station_id":213078,"title":"Ewiva Coop Arona","address":"Via Arona 15/9","town":"Milano","postcode":"","operator_id":3720,"usage_cost":"","number_of_points":1,"power_kw":"100","verified":true,"last_verified":"2023-09-23T17:02:00Z"}},{"type":"Feature","geometry":{"type":"Point","coordinates":[9.164125,45.485541]},"properties":{"station_id":84020,"title":"Una Hotel Scandinavia","address":"Via Giovanni Battista Fauch\u00e8, 15","town":"Milano","postcode":"20154","operator_id":23,"usage_cost":"","number_of_points":1,"power_kw":"22","verified":false,"last_verified":"2018-10-03T15:58:00Z"}},{"type":"Feature","geometry":{"type":"Point","coordinates":[9.167273,45.497057]},"properties":{"station_id":117563,"title":"Bodio Center | Driwe","address":"Viale Luigi Bodio","town":"Milano","postcode":"20158","operator_id":3332,"usage_cost":"Costo al min. \u20ac0,20 Costo prenotazione \u20ac5,50","number_of_points":11,"power_kw":"22","verified":false,"last_verified":"2019-02-18T15:32:00Z"}},{"type":"Feature","geometry":{"type":"Point","coordinates":[9.185727,45.481164]},"properties":{"station_id":61330,"title":"A2A Isola Digitale Corso Como - Porta Garibaldi","address":"Viale Pasubio, 1","town":"Milano","postcode":"20154","operator_id":82,"usage_cost":"15,10\u20ac per 3 mesi","number_of_points":4,"power_kw":"3.4","verified":false,"last_verified":"2016-02-24T14:53:00Z"}},{"type":"Feature","geometry":{"type":"Point","coordinates":[9.184458,45.47869]},"properties":{"station_id":92105,"title":"A2A Volta","address":"Via Volta","town":"Milano","postcode":"20121","operator_id":82,"usage_cost":"15\u20ac for 3months","number_of_points":2,"power_kw":"22","verified":false,"last_verified":"2020-02-21T17:35:00Z"}},{"type":"Feature","geometry":{"type":"Point","coordinates":[9.177614,45.48315]},"properties":{"station_id":131024,"title":"Hotel Viu Milano","address":"Via Aristotile Fioravanti","town":"Milano","postcode":"20154","operator_id":23,"usage_cost":"","number_of_points":2,"power_kw":"22","verified":false,"last_verified":"2019-08-28T19:59:00Z"}},{"type":"Feature","geometry":{"type":"Point","coordinates":[9.166323,45.482222]},"properties":{"station_id":21185,"title":"AUTORIMESSA SEMPIONE 76","address":"Via Mussi 14","town":"Milano","postcode":"20154","operator_id":1,"usage_cost":"","number_of_points":1,"power_kw":null,"verified":false,"last_verified":"2014-03-04T21:50:00Z"}},{"type":"Feature","geometry":{"type":"Point","coordinates":[9.168562,45.481686]},"properties":{"station_id":47961,"title":"Green Park","address":"Piazza A. Gramsci","town":"Milano","postcode":"20145","operator_id":80,"usage_cost":"free","number_of_points":2,"power_kw":"22","verified":false,"last_verified":"2015-06-19T12:59:00Z"}},{"type":"Feature","geometry":{"type":"Point","coordinates":[9.186097,45.477]},"properties":{"station_id":174142,"title":"Via Lovanio","address":"Via Lovanio","town":"Milan","postcode":"20121","operator_id":1,"usage_cost":"0,37 \u20ac/kWh","number_of_points":2,"power_kw":"22","verified":false,"last_verified":"2021-03-18T12:38:00Z"}},{"type":"Feature","geometry":{"type":"Point","coordinates":[9.184387,45.470505]},"properties":{"station_id":129398,"title":"BeCharge Milano Arco","address":"Via Arco","town":"Milano","postcode":"20121","operator_id":3327,"usage_cost":"","number_of_points":2,"power_kw":"22","verified":false,"last_verified":"2019-12-11T14:54:00Z"}},{"type":"Feature","geometry":{"type":"Point","coordinates":[9.185158,45.469125]},"properties":{"station_id":134897,"title":"ENERMIA MILANO Ponte Vetero","address":"Via Ponte Vetero","town":"Milano","postcode":"20121","operator_id":null,"usage_cost":"","number_of_points":2,"power_kw":"22","verified":false,"last_verified":"2020-07-31T10:04:00Z"}},{"type":"Feature","geometry":{"type":"Point","coordinates":[9.183916,45.468713]},"properties":{"station_id":61331,"title":"A2A Isola Digitale Foro Buonaparte","address":"Via Cusani","town":"Milano","postcode":"20121","operator_id":82,"usage_cost":"15,10\u20ac per 3 mesi","number_of_points":4,"power_kw":"3.4","verified":false,"last_verified":"2016-02-24T14:57:00Z"}},{"type":"Feature","geometry":{"type":"Point","coordinates":[9.174148,45.468315]},"properties":{"station_id":23094,"title":"A2A Cadorna ","address":"Via Metastasio","town":"Milano","postcode":"20100","operator_id":82,"usage_cost":"15\u20ac for 3months","number_of_points":2,"power_kw":"22","verified":false,"last_verified":"2016-05-27T14:54:00Z"}},{"type":"Feature","geometry":{"type":"Point","coordinates":[9.175705,45.463902]},"properties":{"station_id":70580,"title":"S. Ambrogio Parking","address":"Piazza S. Ambrogio, 5/A ","town":"Milano","postcode":"20123","operator_id":45,"usage_cost":"Parcheggio a pagamento, ricarica gratuita","number_of_points":1,"power_kw":"22","verified":false,"last_verified":"2016-07-26T15:20:00Z"}},{"type":"Feature","geometry":{"type":"Point","coordinates":[9.17779,45.465569]},"properties":{"station_id":131940,"title":"King Mokinba Hotels","address":"Corso Magenta","town":"Milano","postcode":"20123","operator_id":23,"usage_cost":"","number_of_points":1,"power_kw":"22","verified":false,"last_verified":"2019-09-16T05:31:00Z"}},{"type":"Feature","geometry":{"type":"Point","coordinates":[9.177636,45.467661]},"properties":{"station_id":65064,"title":"A2A Isola Digitale Cadorna","address":"Piazzale Luigi Cadorna","town":"Milano","postcode":"20123","operator_id":82,"usage_cost":"15\u20ac for 3months","number_of_points":4,"power_kw":"3.7","verified":false,"last_verified":"2016-04-22T14:47:00Z"}},{"type":"Feature","geometry":{"type":"Point","coordinates":[9.180134,45.467074]},"properties":{"station_id":77770,"title":"Buonaparte Parking S.R.L.","address":"Via Giacomo Puccini, 5","town":"Milano","postcode":"20121","operator_id":45,"usage_cost":"","number_of_points":1,"power_kw":"22","verified":false,"last_verified":"2017-01-23T16:06:00Z"}},{"type":"Feature","geometry":{"type":"Point","coordinates":[9.182692,45.463396]},"properties":{"station_id":87356,"title":"Borromeo Parking","address":"5 Piazza Borromeo","town":"Milano","postcode":"20123","operator_id":23,"usage_cost":"","number_of_points":1,"power_kw":"14","verified":false,"last_verified":"2018-10-03T22:26:00Z"}},{"type":"Feature","geometry":{"type":"Point","coordinates":[9.180794,45.465456]},"properties":{"station_id":85242,"title":"A2A E-move.me","address":"Via Santa Maria alla Porta, 11","town":"Milano","postcode":"20121","operator_id":82,"usage_cost":"15\u20ac for 3months","number_of_points":2,"power_kw":"22","verified":false,"last_verified":"2017-03-30T14:42:00Z"}},{"type":"Feature","geometry":{"type":"Point","coordinates":[9.177504,45.46329]},"properties":{"station_id":23311,"title":"A2A Universit\u00e0 Cattolica","address":"Via Santa Valeria, 2","town":"Milano","postcode":"20123","operator_id":82,"usage_cost":"15\u20ac for 3months","number_of_points":2,"power_kw":"22","verified":false,"last_verified":"2017-03-30T14:48:00Z"}},{"type":"Feature","geometry":{"type":"Point","coordinates":[9.17025,45.465332]},"properties":{"station_id":60498,"title":"Parcheggio Zenale","address":"Via Bernardino Zenale 6","town":"Milano","postcode":"20123","operator_id":null,"usage_cost":"","number_of_points":1,"power_kw":"22","verified":false,"last_verified":"2016-01-28T15:52:00Z"}},{"type":"Feature","geometry":{"type":"Point","coordinates":[9.15568,45.460981]},"properties":{"station_id":172642,"title":"Esselunga via Washington","address":"Via Giorgio Washington","town":"Milan","postcode":"20144","operator_id":1,"usage_cost":"Free - pick up card at box information floor 1","number_of_points":4,"power_kw":"40","verified":false,"last_verified":"2021-08-04T06:43:00Z"}},{"type":"Feature","geometry":{"type":"Point","coordinates":[9.148891,45.462548]},"properties":{"station_id":115110,"title":"LIDL Milano Bezzi","address":"Viale Ergisto Bezzi, 69","town":"Milano","postcode":"20146","operator_id":38,"usage_cost":"free","number_of_points":2,"power_kw":"22","verified":false,"last_verified":"2019-09-24T17:40:00Z"}},{"type":"Feature","geometry":{"type":"Point","coordinates":[9.154082,45.466919]},"properties":{"station_id":235540,"title":"A2A Teatro Nazionale","address":"Via Cuneo 1","town":"Milano MI","postcode":"","operator_id":82,"usage_cost":"","number_of_points":1,"power_kw":"50","verified":false,"last_verified":"2023-02-23T06:46:00Z"}},{"type":"Feature","geometry":{"type":"Point","coordinates":[9.160468,45.467965]},"properties":{"station_id":23068,"title":"A2A Pagano","address":"Via Pagano 69","town":"Milano","postcode":"20145","operator_id":82,"usage_cost":"15\u20ac for 3months","number_of_points":4,"power_kw":"22","verified":false,"last_verified":"2021-03-10T10:46:00Z"}},{"type":"Feature","geometry":{"type":"Point","coordinates":[9.160212,45.468491]},"properties":{"station_id":61333,"title":"A2A Isola Digitale Pagano","address":"Via del Burchiello","town":"Milano","postcode":"20145","operator_id":82,"usage_cost":"15,10\u20ac per 3 mesi","number_of_points":2,"power_kw":"3.4","verified":false,"last_verified":"2016-02-24T15:01:00Z"}},{"type":"Feature","geometry":{"type":"Point","coordinates":[9.160409,45.477801]},"properties":{"station_id":23095,"title":"A2A Fiera Est","address":"Piazza 6 Febbraio","town":"Milano","postcode":"20145","operator_id":82,"usage_cost":"15\u20ac for 3months","number_of_points":2,"power_kw":"22","verified":false,"last_verified":"2022-06-10T08:19:00Z"}},{"type":"Feature","geometry":{"type":"Point","coordinates":[9.151541,45.473547]},"properties":{"station_id":61332,"title":"A2A Isola Digitale Piazza Amendola","address":"Piazza Giovanni Amendola, 5","town":"Milano","postcode":"20149","operator_id":82,"usage_cost":"15,10\u20ac per 3 mesi","number_of_points":4,"power_kw":"3.4","verified":false,"last_verified":"2016-02-24T14:59:00Z"}},{"type":"Feature","geometry":{"type":"Point","coordinates":[9.15154,45.474875]},"properties":{"station_id":23310,"title":"A2A AmendolaFiera","address":"Piazza Amendola 8","town":"Milano","postcode":"20145","operator_id":82,"usage_cost":"15\u20ac for 3months","number_of_points":4,"power_kw":"22","verified":false,"last_verified":"2021-03-13T15:03:00Z"}},{"type":"Feature","geometry":{"type":"Point","coordinates":[9.144583,45.478773]},"properties":{"station_id":85126,"title":"Montebianco Mokinba Hotels","address":"90 Via Monte Rosa","town":"Milano","postcode":"20149","operator_id":23,"usage_cost":"","number_of_points":1,"power_kw":"11","verified":false,"last_verified":"2018-10-03T23:26:00Z"}},{"type":"Feature","geometry":{"type":"Point","coordinates":[9.149605,45.470648]},"properties":{"station_id":106483,"title":"Autotecnica 95","address":"Via Alberto Mario","town":"36","postcode":"20149","operator_id":23,"usage_cost":"","number_of_points":1,"power_kw":"11","verified":false,"last_verified":"2018-10-03T23:35:00Z"}},{"type":"Feature","geometry":{"type":"Point","coordinates":[9.138187,45.46535]},"properties":{"station_id":170391,"title":"BECHARGE MILANO Siena c/o Carrefour Market","address":"Piazzale Siena, 5","town":"Milano","postcode":"20153 ","operator_id":3327,"usage_cost":"","number_of_points":2,"power_kw":"75","verified":false,"last_verified":"2020-11-25T14:19:00Z"}},{"type":"Feature","geometry":{"type":"Point","coordinates":[9.133554,45.463249]},"properties":{"station_id":192361,"title":"Be Charge Eni","address":"Via delle Forze Armate 34 ","town":"Milano","postcode":"","operator_id":3327,"usage_cost":"","number_of_points":2,"power_kw":"110","verified":false,"last_verified":"2022-06-10T08:14:00Z"}},{"type":"Feature","geometry":{"type":"Point","coordinates":[9.142949,45.484007]},"properties":{"station_id":65250,"title":"A2A Q8 Easy","address":"viale Serra Ang. Salmoiraghi","town":"Milano","postcode":"20148","operator_id":82,"usage_cost":"","number_of_points":2,"power_kw":"63","verified":false,"last_verified":"2018-06-25T15:41:00Z"}},{"type":"Feature","geometry":{"type":"Point","coordinates":[9.141149,45.489076]},"properties":{"station_id":104089,"title":"EnelX EVA+ ADS Q8 MILANO De Gasperi","address":"Viale Alcide De Gasperi","town":"Milano","postcode":"20148","operator_id":80,"usage_cost":"","number_of_points":2,"power_kw":"50","verified":false,"last_verified":"2019-05-14T08:31:00Z"}},{"type":"Feature","geometry":{"type":"Point","coordinates":[9.137276,45.498186]},"properties":{"station_id":93161,"title":"zephyro MI","address":"Via Giovanni da Udine, 15","town":"Milano","postcode":"20148","operator_id":45,"usage_cost":"","number_of_points":2,"power_kw":"50","verified":false,"last_verified":"2017-09-20T14:51:00Z"}},{"type":"Feature","geometry":{"type":"Point","coordinates":[9.138969,45.49483]},"properties":{"station_id":193354,"title":"Be Charge Eni","address":"Via Gallarate 40","town":"Milano","postcode":"","operator_id":3327,"usage_cost":"","number_of_points":2,"power_kw":"110","verified":false,"last_verified":"2022-06-10T08:13:00Z"}},{"type":"Feature","geometry":{"type":"Point","coordinates":[9.127532,45.497677]},"properties":{"station_id":62756,"title":"Peugot Automobil Italia S.p.a.","address":"Via Alfredo Pizzoni","town":"MI","postcode":"20151","operator_id":45,"usage_cost":"0.00 onbekend","number_of_points":1,"power_kw":"50","verified":false,"last_verified":"2017-03-23T20:59:00Z"}},{"type":"Feature","geometry":{"type":"Point","coordinates":[9.103063,45.478185]},"properties":{"station_id":170380,"title":"Sheraton Milano San Siro","address":"Via Caldera 3","town":"Milano","postcode":"20153","operator_id":23,"usage_cost":"","number_of_points":2,"power_kw":"16","verified":false,"last_verified":"2020-11-25T06:41:00Z"}},{"type":"Feature","geometry":{"type":"Point","coordinates":[9.100764,45.459759]},"properties":{"station_id":167240,"title":"LIDL Milano  Forze Armate","address":"Via delle Forze Armate, 314","town":"Milano","postcode":"20152","operator_id":38,"usage_cost":"free","number_of_points":2,"power_kw":"22","verified":false,"last_verified":"2020-09-01T13:23:00Z"}},{"type":"Feature","geometry":{"type":"Point","coordinates":[9.096476,45.44997]},"properties":{"station_id":47994,"title":"Centro Commerciale La Torre - distributore IP","address":"Via Benozzo Gozzoli, 130","town":"Milano","postcode":"20152","operator_id":80,"usage_cost":"0,40\u20ac/kW","number_of_points":2,"power_kw":"22","verified":false,"last_verified":"2020-10-22T08:23:00Z"}},{"type":"Feature","geometry":{"type":"Point","coordinates":[9.095357,45.451389]},"properties":{"station_id":191774,"title":"Ewiva Coop Gozzoli","address":"Via Benozzo Gozzoli 130","town":"Milano","postcode":"","operator_id":3720,"usage_cost":"","number_of_points":6,"power_kw":"300","verified":true,"last_verified":"2023-09-23T17:01:00Z"}},{"type":"Feature","geometry":{"type":"Point","coordinates":[9.112913,45.455713]},"properties":{"station_id":61334,"title":"A2A Isola Digitale Bisceglie","address":"Via Lucca","town":"Milano","postcode":"20152","operator_id":82,"usage_cost":"15,10\u20ac per 3 mesi","number_of_points":4,"power_kw":"3.4","verified":false,"last_verified":"2016-02-24T15:04:00Z"}},{"type":"Feature","geometry":{"type":"Point","coordinates":[9.122116,45.44458]},"properties":{"station_id":100625,"title":"Lidl Milano Lorenteggio","address":"Via Pietro Giordani, 30","town":"Milano","postcode":"20147 ","operator_id":38,"usage_cost":"free","number_of_points":2,"power_kw":"22","verified":false,"last_verified":"2021-03-14T08:38:00Z"}},{"type":"Feature","geometry":{"type":"Point","coordinates":[9.124145,45.448431]},"properties":{"station_id":171588,"title":"BeCharge Milano Lorenteggio","address":"Via Val Bavona 21","town":"Milano","postcode":"20147","operator_id":3327,"usage_cost":"","number_of_points":2,"power_kw":"22","verified":false,"last_verified":"2021-01-14T15:27:00Z"}},{"type":"Feature","geometry":{"type":"Point","coordinates":[9.167239,45.436619]},"properties":{"station_id":113372,"title":"Esselunga Famagosta","address":"Viale Famagosta","town":"Milano","postcode":"20142","operator_id":45,"usage_cost":"free","number_of_points":4,"power_kw":"50","verified":false,"last_verified":"2021-01-30T13:04:00Z"}},{"type":"Feature","geometry":{"type":"Point","coordinates":[9.157929,45.437001]},"properties":{"station_id":210175,"title":"Be Charge Famagosta ","address":"Viale Famagosta 20","town":"Milano","postcode":"","operator_id":3327,"usage_cost":"","number_of_points":1,"power_kw":"110","verified":false,"last_verified":"2022-12-06T10:48:00Z"}},{"type":"Feature","geometry":{"type":"Point","coordinates":[9.155062,45.450167]},"properties":{"station_id":89866,"title":"Mediaworld Piazza Napoli","address":"Via Carlo Troya 18","town":"Milano","postcode":"20100","operator_id":3282,"usage_cost":"Free","number_of_points":2,"power_kw":"22","verified":false,"last_verified":"2018-11-08T16:47:00Z"}},{"type":"Feature","geometry":{"type":"Point","coordinates":[9.149609,45.450676]},"properties":{"station_id":135096,"title":"Tigros Milano Giambellino","address":"Via Giambellino, 31","town":"Milano","postcode":"20146","operator_id":3291,"usage_cost":"","number_of_points":2,"power_kw":"22","verified":false,"last_verified":"2020-12-27T10:40:00Z"}},{"type":"Feature","geometry":{"type":"Point","coordinates":[9.157834,45.455851]},"properties":{"station_id":192368,"title":"Via Enrico Stendhal","address":"Via Enrico Stendhal","town":"Milan","postcode":"20144","operator_id":1,"usage_cost":"","number_of_points":1,"power_kw":"22","verified":false,"last_verified":"2022-04-02T04:09:00Z"}},{"type":"Feature","geometry":{"type":"Point","coordinates":[9.169606,45.458754]},"properties":{"station_id":61335,"title":"A2A Isola Digitale  S.Agostino ","address":"Via Numa Pompilio","town":"Milano","postcode":"20144","operator_id":82,"usage_cost":"15,10\u20ac per 3 mesi","number_of_points":4,"power_kw":"3.4","verified":false,"last_verified":"2016-02-24T15:07:00Z"}},{"type":"Feature","geometry":{"type":"Point","coordinates":[9.167283,45.453158]},"properties":{"station_id":116986,"title":"Magna Pars | BeCharge by Driwe","address":"Via Forcella 4","town":"Milano","postcode":"20144","operator_id":3332,"usage_cost":"Costo al min. \u20ac0,20 Costo prenotazione \u20ac5,50","number_of_points":2,"power_kw":"22","verified":false,"last_verified":"2022-10-27T08:06:00Z"}},{"type":"Feature","geometry":{"type":"Point","coordinates":[9.164559,45.452724]},"properties":{"station_id":23312,"title":"A2A Bergognone","address":"Via Bergognone,  45/47","town":"Milano","postcode":"20144","operator_id":82,"usage_cost":"15\u20ac for 3months","number_of_points":1,"power_kw":"22","verified":false,"last_verified":"2017-03-30T14:53:00Z"}},{"type":"Feature","geometry":{"type":"Point","coordinates":[9.160263,45.452036]},"properties":{"station_id":167886,"title":"BECHARGE MILANO Stendhal","address":"Via Enrico Stendhal","town":"Milano","postcode":"20144","operator_id":3327,"usage_cost":"","number_of_points":2,"power_kw":"75","verified":false,"last_verified":"2020-10-01T06:59:00Z"}},{"type":"Feature","geometry":{"type":"Point","coordinates":[9.157926,45.455517]},"properties":{"station_id":192367,"title":"Via Standhal 51","address":"Via Standhal 51","town":"Milan","postcode":"20144","operator_id":1,"usage_cost":"","number_of_points":2,"power_kw":"22","verified":false,"last_verified":"2022-04-02T04:09:00Z"}},{"type":"Feature","geometry":{"type":"Point","coordinates":[9.160524,45.44556]},"properties":{"station_id":107647,"title":"LIDL Milano Cassala ","address":"Viale Cassala 14","town":"Milano","postcode":"20143 ","operator_id":38,"usage_cost":"free","number_of_points":2,"power_kw":"22","verified":false,"last_verified":"2019-01-11T09:28:00Z"}},{"type":"Feature","geometry":{"type":"Point","coordinates":[9.172916,45.440627]},"properties":{"station_id":93305,"title":"EnelX EVA+ IP  Via La Spezia","address":"Via La Spezia","town":"Milano","postcode":"20142 ","operator_id":80,"usage_cost":"0,40 \u20ac/kW","number_of_points":2,"power_kw":"50","verified":false,"last_verified":"2019-09-29T09:10:00Z"}},{"type":"Feature","geometry":{"type":"Point","coordinates":[9.170496,45.453715]},"properties":{"station_id":23066,"title":"A2A Stazione di Porta Genova","address":"Corso Cristoforo Colombo 17","town":"Milano","postcode":"20144","operator_id":82,"usage_cost":"15\u20ac for 3months","number_of_points":2,"power_kw":"22","verified":false,"last_verified":"2016-05-27T14:58:00Z"}},{"type":"Feature","geometry":{"type":"Point","coordinates":[9.173586,45.456207]},"properties":{"station_id":23314,"title":"A2A Piazzale Cantore","address":"Piazzale Antonio Cantore","town":"Milano","postcode":"20123","operator_id":82,"usage_cost":"15\u20ac for 3months","number_of_points":2,"power_kw":"22","verified":false,"last_verified":"2016-05-27T14:56:00Z"}},{"type":"Feature","geometry":{"type":"Point","coordinates":[9.172799,45.45573]},"properties":{"station_id":149126,"title":"NHP Milano Cantore","address":"Piazzale Antonio Cantore","town":"Milano","postcode":"20123","operator_id":null,"usage_cost":"","number_of_points":6,"power_kw":"100","verified":false,"last_verified":"2021-01-29T16:41:00Z"}},{"type":"Feature","geometry":{"type":"Point","coordinates":[9.175033,45.457679]},"properties":{"station_id":57674,"title":"Autorimessa Ariberto Lombarda Parking","address":"Via Ariberto, 4","town":"Milano","postcode":"20123","operator_id":null,"usage_cost":"tariffe variabili","number_of_points":1,"power_kw":"43","verified":false,"last_verified":"2019-12-05T11:06:00Z"}},{"type":"Feature","geometry":{"type":"Point","coordinates":[9.18153,45.452194]},"properties":{"station_id":135092,"title":"NHP MILANO Ticinese","address":"Viale Col di Lana","town":"Milano","postcode":"20136","operator_id":null,"usage_cost":"","number_of_points":6,"power_kw":"100","verified":false,"last_verified":"2021-01-29T16:40:00Z"}},{"type":"Feature","geometry":{"type":"Point","coordinates":[9.185335,45.443416]},"properties":{"station_id":135093,"title":"NHP MILANO Aicardo","address":"Piazza Caduti del Lavoro","town":"Milano","postcode":"20141","operator_id":null,"usage_cost":"","number_of_points":6,"power_kw":"100","verified":false,"last_verified":"2021-01-29T16:43:00Z"}},{"type":"Feature","geometry":{"type":"Point","coordinates":[9.188354,45.448243]},"properties":{"station_id":23313,"title":"A2A Universit\u00e0 Bocconi","address":"Via Sarfatti 23","town":"Milano","postcode":"20136","operator_id":82,"usage_cost":"15\u20ac for 3months","number_of_points":2,"power_kw":"22","verified":false,"last_verified":"2016-05-27T14:59:00Z"}},{"type":"Feature","geometry":{"type":"Point","coordinates":[9.190714,45.447918]},"properties":{"station_id":61336,"title":"A2A Isola Digitale Bocconi","address":"Via Ferdinando Bocconi","town":"Milano","postcode":"20136","operator_id":82,"usage_cost":"15,10\u20ac per 3 mesi","number_of_points":4,"power_kw":"3.4","verified":false,"last_verified":"2017-05-21T08:56:00Z"}},{"type":"Feature","geometry":{"type":"Point","coordinates":[9.19073,45.44771]},"properties":{"station_id":135097,"title":"NHP MILANO Bocconi","address":"Via Ferdinando Bocconi, 26","town":"Milano","postcode":" 20136 ","operator_id":null,"usage_cost":"","number_of_points":6,"power_kw":"100","verified":false,"last_verified":"2021-01-29T16:42:00Z"}},{"type":"Feature","geometry":{"type":"Point","coordinates":[9.197317,45.443459]},"properties":{"station_id":133077,"title":"NHP Milano Ripamonti","address":"Via Pietrasanta 8","town":"Milano","postcode":"","operator_id":null,"usage_cost":"","number_of_points":1,"power_kw":"100","verified":false,"last_verified":"2021-01-29T16:44:00Z"}},{"type":"Feature","geometry":{"type":"Point","coordinates":[9.193962,45.449978]},"properties":{"station_id":73299,"title":"Vittadini Park","address":"Via Carlo Vittadini  3/A","town":"Milano","postcode":"20136","operator_id":45,"usage_cost":"free charge - paying parking","number_of_points":2,"power_kw":"22","verified":false,"last_verified":"2017-05-21T09:01:00Z"}},{"type":"Feature","geometry":{"type":"Point","coordinates":[9.19489,45.454223]},"properties":{"station_id":189127,"title":"Be Charge Scuola Primaria Porta Agnesi","address":"Via Quadronno 29","town":"Milano","postcode":"","operator_id":3327,"usage_cost":"","number_of_points":2,"power_kw":"75","verified":false,"last_verified":"2022-06-10T08:18:00Z"}},{"type":"Feature","geometry":{"type":"Point","coordinates":[9.205586,45.454665]},"properties":{"station_id":130458,"title":"BeCharge Milano Botta","address":"Via Carlo Botta, 32","town":"Milano","postcode":"20135","operator_id":3327,"usage_cost":"","number_of_points":2,"power_kw":"22","verified":false,"last_verified":"2020-06-22T10:52:00Z"}},{"type":"Feature","geometry":{"type":"Point","coordinates":[9.203579,45.451494]},"properties":{"station_id":73127,"title":"A2A Isola Digitale Corso Lodi","address":"Corso Lodi, 3","town":"Milano","postcode":"20135","operator_id":82,"usage_cost":"15,10\u20ac per 3 mesi","number_of_points":4,"power_kw":"3.4","verified":false,"last_verified":"2016-12-03T10:58:00Z"}},{"type":"Feature","geometry":{"type":"Point","coordinates":[9.203707,45.451353]},"properties":{"station_id":135094,"title":"NHP MILANO Porta Romana","address":"Corso Lodi, 5","town":"Milano","postcode":"20135","operator_id":null,"usage_cost":"","number_of_points":6,"power_kw":"100","verified":false,"last_verified":"2021-01-29T16:41:00Z"}},{"type":"Feature","geometry":{"type":"Point","coordinates":[9.208808,45.447868]},"properties":{"station_id":135095,"title":"NHP MILANO Lodi TIBB","address":"Corso Lodi, 34","town":"Milano","postcode":"20135","operator_id":null,"usage_cost":"","number_of_points":6,"power_kw":"100","verified":false,"last_verified":"2021-01-29T16:42:00Z"}},{"type":"Feature","geometry":{"type":"Point","coordinates":[9.209498,45.447949]},"properties":{"station_id":21138,"title":"A2A  Corso Lodi","address":"Corso Lodi angolo Piazzale Lodi","town":"Milano","postcode":"20100","operator_id":82,"usage_cost":"15\u20ac for 3months","number_of_points":2,"power_kw":"22","verified":false,"last_verified":"2016-10-01T17:35:00Z"}},{"type":"Feature","geometry":{"type":"Point","coordinates":[9.220324,45.455478]},"properties":{"station_id":131204,"title":"NHP Milano Martini","address":"Via Laura Ciceri Visconti 2","town":"Milano","postcode":"20100","operator_id":null,"usage_cost":"","number_of_points":6,"power_kw":"65","verified":false,"last_verified":"2021-01-29T16:44:00Z"}},{"type":"Feature","geometry":{"type":"Point","coordinates":[9.220901,45.449406]},"properties":{"station_id":235510,"title":"A2A  Calvairate","address":"Via Giovanni Cadolini 9","town":"Milano","postcode":"","operator_id":82,"usage_cost":"","number_of_points":1,"power_kw":"50","verified":false,"last_verified":"2023-02-22T07:05:00Z"}},{"type":"Feature","geometry":{"type":"Point","coordinates":[9.220477,45.443127]},"properties":{"station_id":114880,"title":"BeCharge Milano Bacchiglione","address":"Viale Bacchiglione, 21","town":"Milano","postcode":"20139","operator_id":3327,"usage_cost":"","number_of_points":2,"power_kw":"22","verified":false,"last_verified":"2020-09-24T15:05:00Z"}},{"type":"Feature","geometry":{"type":"Point","coordinates":[9.207735,45.444226]},"properties":{"station_id":132350,"title":"Destination Zero Talent Garden Calabiana","address":"Via Arcivescovo Calabiana 6","town":"Milano","postcode":"","operator_id":3327,"usage_cost":"","number_of_points":1,"power_kw":"22","verified":false,"last_verified":"2021-06-09T10:35:00Z"}},{"type":"Feature","geometry":{"type":"Point","coordinates":[9.205538,45.443831]},"properties":{"station_id":131608,"title":"BeCharge Milano Fondazione Prada","address":"Via Orobia","town":"Milano","postcode":" 20139","operator_id":3327,"usage_cost":"","number_of_points":2,"power_kw":"22","verified":false,"last_verified":"2019-10-10T10:41:00Z"}},{"type":"Feature","geometry":{"type":"Point","coordinates":[9.183843,45.437307]},"properties":{"station_id":235472,"title":"A2A  Stadera","address":"Viale Giovanni da Cermenate 68","town":"Milano","postcode":"","operator_id":82,"usage_cost":"","number_of_points":1,"power_kw":"50","verified":false,"last_verified":"2023-02-21T06:46:00Z"}},{"type":"Feature","geometry":{"type":"Point","coordinates":[9.167837,45.403513]},"properties":{"station_id":174468,"title":"Car-Wash Futura Autolavaggio | E-Station","address":"Via Costantino Baroni 190","town":"Milano","postcode":"20142","operator_id":1,"usage_cost":"","number_of_points":1,"power_kw":"22","verified":false,"last_verified":"2021-04-01T14:16:00Z"}},{"type":"Feature","geometry":{"type":"Point","coordinates":[9.237935,45.434109]},"properties":{"station_id":155212,"title":"Enel X Stazione di Rogoredo","address":"Via Giovanni Battista Cassinis 83","town":"Milano ","postcode":"","operator_id":1,"usage_cost":"","number_of_points":1,"power_kw":"22","verified":false,"last_verified":"2020-03-31T07:37:00Z"}},{"type":"Feature","geometry":{"type":"Point","coordinates":[9.237619,45.433683]},"properties":{"station_id":150098,"title":"NHP MILANO ROGOREDO","address":"Via Giovanni Battista Cassinis","town":"Milano","postcode":"20139","operator_id":null,"usage_cost":"","number_of_points":6,"power_kw":"100","verified":false,"last_verified":"2021-01-29T16:45:00Z"}},{"type":"Feature","geometry":{"type":"Point","coordinates":[9.222675,45.439555]},"properties":{"station_id":134915,"title":"NHP MILANO CORVETTO","address":"Via Sile 25","town":"Milano","postcode":"20139","operator_id":null,"usage_cost":"","number_of_points":6,"power_kw":"100","verified":false,"last_verified":"2021-01-29T16:45:00Z"}},{"type":"Feature","geometry":{"type":"Point","coordinates":[9.257016,45.448268]},"properties":{"station_id":118499,"title":"Novotel Milano Mecenate BeCharge","address":"Via Mecenate 121","town":"Milano","postcode":"20138","operator_id":3327,"usage_cost":"","number_of_points":4,"power_kw":"22","verified":false,"last_verified":"2020-09-24T15:16:00Z"}},{"type":"Feature","geometry":{"type":"Point","coordinates":[9.260713,45.453659]},"properties":{"station_id":194571,"title":"Free to X Viale dell'Aviazione","address":"Viale dell'Aviazione","town":"Milan","postcode":"20138","operator_id":3503,"usage_cost":"","number_of_points":4,"power_kw":"300","verified":true,"last_verified":"2023-09-23T17:06:00Z"}},{"type":"Feature","geometry":{"type":"Point","coordinates":[9.26339,45.479796]},"properties":{"station_id":156445,"title":"Centro Porsche Milano Est","address":"Via Raffaele Rubattino, 94","town":"Milano ","postcode":"20134","operator_id":45,"usage_cost":"","number_of_points":4,"power_kw":"50","verified":false,"last_verified":"2020-12-31T17:45:00Z"}},{"type":"Feature","geometry":{"type":"Point","coordinates":[9.255597,45.477956]},"properties":{"station_id":113546,"title":"EnelX EVAD Sede Enel MI Rubattino","address":"Via Raffaele Rubattino, 54","town":"Milano","postcode":"20134","operator_id":80,"usage_cost":"","number_of_points":4,"power_kw":"50","verified":false,"last_verified":"2020-02-16T20:21:00Z"}},{"type":"Feature","geometry":{"type":"Point","coordinates":[9.246671,45.479979]},"properties":{"station_id":90020,"title":" MediaWorld Rubattino","address":"Via Riccardo Pitteri 84","town":"Milano","postcode":"20132","operator_id":3282,"usage_cost":"Free","number_of_points":2,"power_kw":"22","verified":false,"last_verified":"2019-10-08T18:10:00Z"}},{"type":"Feature","geometry":{"type":"Point","coordinates":[9.245776,45.479725]},"properties":{"station_id":192495,"title":"Be Charge MediaWorld","address":"Via Riccardo Pitteri 95","town":"Milano","postcode":"","operator_id":3327,"usage_cost":"","number_of_points":2,"power_kw":"110","verified":false,"last_verified":"2022-06-10T08:20:00Z"}},{"type":"Feature","geometry":{"type":"Point","coordinates":[9.220242,45.460958]},"properties":{"station_id":189471,"title":"Be Charge ","address":"Via Antonio Dossi 8","town":"Milano","postcode":"","operator_id":3327,"usage_cost":"","number_of_points":2,"power_kw":"75","verified":false,"last_verified":"2022-06-10T08:23:00Z"}},{"type":"Feature","geometry":{"type":"Point","coordinates":[9.215636,45.468259]},"properties":{"station_id":21232,"title":"A2A Corso Indipendenza","address":"Corso Indipendenza 23","town":"Milano","postcode":"20129","operator_id":82,"usage_cost":"Flat 30\u20ac/month - Consumo quick fino a 3H 0,033\u20ac min. fast fino a 1H 0,166\u20ac min.","number_of_points":2,"power_kw":"22","verified":false,"last_verified":"2021-02-02T17:43:00Z"}},{"type":"Feature","geometry":{"type":"Point","coordinates":[9.215597,45.471615]},"properties":{"station_id":92728,"title":"BITTA stazione di ricarica a muro Repower","address":"Via Giulio Uberti, 37","town":"Milano","postcode":"20129","operator_id":3330,"usage_cost":"","number_of_points":1,"power_kw":"22","verified":false,"last_verified":"2019-01-13T17:59:00Z"}},{"type":"Feature","geometry":{"type":"Point","coordinates":[9.206956,45.462744]},"properties":{"station_id":61338,"title":"A2A Isola Digitale Cinque Giornate","address":"Piazza Cinque Giornate, 3","town":"Milano","postcode":"20135","operator_id":82,"usage_cost":"15,10\u20ac per 3 mesi","number_of_points":4,"power_kw":"3.4","verified":false,"last_verified":"2016-02-24T15:17:00Z"}},{"type":"Feature","geometry":{"type":"Point","coordinates":[9.214556,45.459059]},"properties":{"station_id":61337,"title":"A2A Isola Digitale Largo Marinai D'Italia","address":"Via Augusto Anfossi","town":"Milano","postcode":"20135","operator_id":82,"usage_cost":"15,10\u20ac per 3 mesi","number_of_points":4,"power_kw":"3.4","verified":false,"last_verified":"2017-03-11T17:07:00Z"}},{"type":"Feature","geometry":{"type":"Point","coordinates":[9.20044,45.462026]},"properties":{"station_id":21234,"title":"A2A Palazzo di Giustizia","address":"Via Freguglia","town":"Milano","postcode":"20122","operator_id":82,"usage_cost":"15\u20ac for 3months","number_of_points":4,"power_kw":"22","verified":false,"last_verified":"2016-05-27T14:55:00Z"}},{"type":"Feature","geometry":{"type":"Point","coordinates":[9.195366,45.463265]},"properties":{"station_id":21156,"title":"A2A Verziere","address":"Corso Europa","town":"Milano","postcode":"20100","operator_id":82,"usage_cost":"15\u20ac for 3months","number_of_points":2,"power_kw":"22","verified":false,"last_verified":"2016-06-10T14:24:00Z"}},{"type":"Feature","geometry":{"type":"Point","coordinates":[9.196896,45.459482]},"properties":{"station_id":77358,"title":" Autoparcheggio San Barnaba","address":"Via San Barnaba, 18","town":"Milano","postcode":"20122","operator_id":45,"usage_cost":"","number_of_points":1,"power_kw":"22","verified":false,"last_verified":"2017-01-11T17:11:00Z"}},{"type":"Feature","geometry":{"type":"Point","coordinates":[9.190988,45.458588]},"properties":{"station_id":47957,"title":"Parcheggio del Centro ","address":"Via Calderon de la Barca 2 ","town":"Milano","postcode":"20122","operator_id":80,"usage_cost":"0,40 \u20ac/kW","number_of_points":2,"power_kw":"22","verified":false,"last_verified":"2015-06-19T12:40:00Z"}},{"type":"Feature","geometry":{"type":"Point","coordinates":[9.191707,45.458448]},"properties":{"station_id":265168,"title":"A2A Lentasio ","address":"Via Lentasio 1","town":"Milano","postcode":"","operator_id":82,"usage_cost":"","number_of_points":1,"power_kw":"50","verified":false,"last_verified":"2023-05-05T13:37:00Z"}},{"type":"Feature","geometry":{"type":"Point","coordinates":[9.191159,45.459811]},"properties":{"station_id":77480,"title":" Garage Velasca","address":"Piazza Velasca","town":"Milano","postcode":"20123","operator_id":45,"usage_cost":"","number_of_points":1,"power_kw":"11","verified":false,"last_verified":"2017-01-17T15:09:00Z"}},{"type":"Feature","geometry":{"type":"Point","coordinates":[9.192835,45.459366]},"properties":{"station_id":21155,"title":"A2A Largo Richini","address":"Largo Francesco Richini","town":"Milano","postcode":"20100","operator_id":82,"usage_cost":"15\u20ac for 3months","number_of_points":2,"power_kw":"22","verified":false,"last_verified":"2016-05-27T14:53:00Z"}},{"type":"Feature","geometry":{"type":"Point","coordinates":[9.193614,45.462162]},"properties":{"station_id":68772,"title":"A2A Isola Digitale Via Larga","address":"Via Larga","town":"Milano","postcode":"201213","operator_id":82,"usage_cost":"15,10\u20ac per 3 mesi","number_of_points":4,"power_kw":"3.4","verified":false,"last_verified":"2018-03-15T01:02:00Z"}},{"type":"Feature","geometry":{"type":"Point","coordinates":[9.193444,45.462099]},"properties":{"station_id":92120,"title":"A2A Larga","address":"Via Larga","town":"Milano","postcode":"20123","operator_id":82,"usage_cost":"15\u20ac for 3months","number_of_points":2,"power_kw":"22","verified":false,"last_verified":"2019-03-24T21:15:00Z"}},{"type":"Feature","geometry":{"type":"Point","coordinates":[9.190688,45.462625]},"properties":{"station_id":134896,"title":"Enermia Milano Diaz","address":"Via Rastrelli, 2","town":"Milano","postcode":"20122","operator_id":null,"usage_cost":"","number_of_points":2,"power_kw":"22","verified":false,"last_verified":"2020-12-26T17:19:00Z"}},{"type":"Feature","geometry":{"type":"Point","coordinates":[9.189903,45.462082]},"properties":{"station_id":77359,"title":" Autosilo Diaz","address":"Piazza Armando Diaz, 6","town":"Milano","postcode":"20123","operator_id":45,"usage_cost":"","number_of_points":1,"power_kw":"11","verified":false,"last_verified":"2017-01-11T17:15:00Z"}},{"type":"Feature","geometry":{"type":"Point","coordinates":[9.188603,45.460804]},"properties":{"station_id":280814,"title":"Piazza Missori - MPNEXT","address":"Via Alberto Albricci","town":"Milano","postcode":"20122","operator_id":3328,"usage_cost":"0.57 \u20ac","number_of_points":1,"power_kw":"22","verified":true,"last_verified":"2023-12-03T11:54:00Z"}},{"type":"Feature","geometry":{"type":"Point","coordinates":[9.183694,45.463643]},"properties":{"station_id":210793,"title":"Be Charge Via Santa Maria Fulcorina","address":"Via Santa Maria Fulcorina 1","town":"Milano","postcode":"","operator_id":3327,"usage_cost":"","number_of_points":1,"power_kw":"110","verified":false,"last_verified":"2022-12-23T17:14:00Z"}},{"type":"Feature","geometry":{"type":"Point","coordinates":[9.184536,45.464431]},"properties":{"station_id":21195,"title":"A2A Piazza Edison","address":"Piazza Tommaso Edison","town":"Milano","postcode":"20121","operator_id":82,"usage_cost":"15\u20ac for 3months","number_of_points":2,"power_kw":"22","verified":false,"last_verified":"2016-05-27T14:47:00Z"}},{"type":"Feature","geometry":{"type":"Point","coordinates":[9.186008,45.464334]},"properties":{"station_id":189347,"title":"IrenGo Cr\u00e9dit Agricole","address":"Via Armorari 4","town":"Milano","postcode":"","operator_id":1,"usage_cost":"","number_of_points":2,"power_kw":"24","verified":false,"last_verified":"2022-06-10T08:24:00Z"}},{"type":"Feature","geometry":{"type":"Point","coordinates":[9.191669,45.467005]},"properties":{"station_id":21157,"title":"A2A Case Rotte","address":"Largo Raffaele Mattioli","town":"Milano","postcode":"20121","operator_id":82,"usage_cost":"15\u20ac for 3months","number_of_points":2,"power_kw":"22","verified":false,"last_verified":"2017-05-25T20:20:00Z"}},{"type":"Feature","geometry":{"type":"Point","coordinates":[9.193214,45.466991]},"properties":{"station_id":47958,"title":"Parcheggio Piazza Meda","address":"Piazza Meda 2/A ","town":"Milano","postcode":"20121","operator_id":80,"usage_cost":"0,40 \u20ac/kW","number_of_points":2,"power_kw":"22","verified":false,"last_verified":"2015-11-18T20:48:00Z"}},{"type":"Feature","geometry":{"type":"Point","coordinates":[9.192648,45.466427]},"properties":{"station_id":61326,"title":"A2A  Isola Digitale Hoepli","address":"Via Ulrico Hoepli","town":"Milano","postcode":"20121","operator_id":82,"usage_cost":"15,10\u20ac per 3 mesi","number_of_points":4,"power_kw":"3.4","verified":false,"last_verified":"2016-04-02T16:18:00Z"}},{"type":"Feature","geometry":{"type":"Point","coordinates":[9.193997,45.463831]},"properties":{"station_id":68725,"title":"Starhotels Rosa Grand","address":"Piazza Fontana, 3","town":"Milano","postcode":"20122 ","operator_id":23,"usage_cost":"Free","number_of_points":1,"power_kw":"22","verified":false,"last_verified":"2018-10-04T06:16:00Z"}},{"type":"Feature","geometry":{"type":"Point","coordinates":[9.194258,45.466824]},"properties":{"station_id":77786,"title":"Garage Matteotti c/o Hotel Boscolo","address":"Corso Giacomo Matteotti, 4/6","town":"Milano","postcode":"20121","operator_id":1,"usage_cost":"","number_of_points":1,"power_kw":"11","verified":false,"last_verified":"2017-01-24T15:17:00Z"}},{"type":"Feature","geometry":{"type":"Point","coordinates":[9.185544,45.467963]},"properties":{"station_id":21194,"title":"Punto Enel Via Broletto","address":"Via Broletto","town":"Milano","postcode":"20121","operator_id":82,"usage_cost":"15\u20ac for 3months","number_of_points":2,"power_kw":"22","verified":false,"last_verified":"2016-05-27T14:49:00Z"}},{"type":"Feature","geometry":{"type":"Point","coordinates":[9.189404,45.470148]},"properties":{"station_id":65270,"title":" Bulgari Hotels & Resorts, Milan","address":"Via Privata Fratelli Gabba, 7b","town":"Milano","postcode":"20121","operator_id":45,"usage_cost":"","number_of_points":1,"power_kw":"22","verified":false,"last_verified":"2016-06-10T14:41:00Z"}},{"type":"Feature","geometry":{"type":"Point","coordinates":[9.190024,45.470483]},"properties":{"station_id":86185,"title":"Gabba","address":"Via privata Fratelli Gabba","town":"Milano","postcode":"20121","operator_id":1,"usage_cost":"","number_of_points":1,"power_kw":"7","verified":false,"last_verified":"2017-04-29T10:18:00Z"}},{"type":"Feature","geometry":{"type":"Point","coordinates":[9.198596,45.469234]},"properties":{"station_id":65271,"title":" Baglioni Hotel Carlton - Milan","address":"Via Senato, 5","town":"Milano","postcode":"20121","operator_id":45,"usage_cost":"","number_of_points":2,"power_kw":"22","verified":false,"last_verified":"2016-06-10T14:40:00Z"}},{"type":"Feature","geometry":{"type":"Point","coordinates":[9.203291,45.467333]},"properties":{"station_id":21233,"title":"A2A Corso Monforte","address":"Corso Monforte 40","town":"Milano","postcode":"20122","operator_id":82,"usage_cost":"15\u20ac for 3months","number_of_points":2,"power_kw":"22","verified":false,"last_verified":"2016-05-27T14:55:00Z"}},{"type":"Feature","geometry":{"type":"Point","coordinates":[9.204558,45.474703]},"properties":{"station_id":61325,"title":"A2A  Isola Digitale Porta Venezia","address":"Piazza Guglielmo Oberdan","town":"Milano","postcode":"20129","operator_id":82,"usage_cost":"15,10\u20ac per 3 mesi","number_of_points":4,"power_kw":"3.4","verified":false,"last_verified":"2016-04-02T16:29:00Z"}},{"type":"Feature","geometry":{"type":"Point","coordinates":[9.211608,45.480541]},"properties":{"station_id":97813,"title":"Best Western Plus Hotel Galles","address":"Piazza Lima","town":"2","postcode":"20124","operator_id":23,"usage_cost":"","number_of_points":1,"power_kw":"22","verified":false,"last_verified":"2018-10-03T22:35:00Z"}},{"type":"Feature","geometry":{"type":"Point","coordinates":[9.208467,45.483432]},"properties":{"station_id":85149,"title":"Cristallo Mokinba Hotels","address":"22 Via Domenico Scarlatti","town":"Milano","postcode":"20124","operator_id":23,"usage_cost":"","number_of_points":1,"power_kw":"22","verified":false,"last_verified":"2018-10-03T23:33:00Z"}},{"type":"Feature","geometry":{"type":"Point","coordinates":[9.204744,45.484788]},"properties":{"station_id":61328,"title":"A2A Isola Digitale Stazione Centrale","address":"Piazza Duca d'Aosta","town":"Milano","postcode":"20124","operator_id":82,"usage_cost":"15,10\u20ac per 3 mesi","number_of_points":4,"power_kw":"3.4","verified":false,"last_verified":"2017-11-19T09:19:00Z"}},{"type":"Feature","geometry":{"type":"Point","coordinates":[9.200542,45.479003]},"properties":{"station_id":47959,"title":"Parcheggio Via Manuzio ","address":"Via Manuzio 10 ","town":"Milano","postcode":"20124","operator_id":80,"usage_cost":"0,40 \u20ac/kW","number_of_points":2,"power_kw":"22","verified":false,"last_verified":"2015-06-19T12:47:00Z"}},{"type":"Feature","geometry":{"type":"Point","coordinates":[9.201484,45.477954]},"properties":{"station_id":47960,"title":"MACHIAVELLI PARKING ","address":"Via Camillo Finocchiaro Aprile, 1","town":"Milano","postcode":"20124","operator_id":80,"usage_cost":"0,40 \u20ac/kW","number_of_points":2,"power_kw":"22","verified":false,"last_verified":"2015-06-19T12:53:00Z"}},{"type":"Feature","geometry":{"type":"Point","coordinates":[9.198302,45.476996]},"properties":{"station_id":21170,"title":"A2A Via Manin","address":"Via Daniele Manin 37","town":"Milano","postcode":"20124","operator_id":82,"usage_cost":"15\u20ac for 3months","number_of_points":2,"power_kw":"22","verified":false,"last_verified":"2017-04-29T10:23:00Z"}},{"type":"Feature","geometry":{"type":"Point","coordinates":[9.19978,45.478296]},"properties":{"station_id":125501,"title":"Hotel Baviera Mokinba","address":"Via Panfilo Castaldi","town":"Milano","postcode":"20124","operator_id":23,"usage_cost":"","number_of_points":1,"power_kw":"17","verified":false,"last_verified":"2019-04-19T06:02:00Z"}},{"type":"Feature","geometry":{"type":"Point","coordinates":[9.19953,45.47871]},"properties":{"station_id":100830,"title":"The Westin Palace","address":"Piazza Della Repubblica","town":"20","postcode":"20124","operator_id":23,"usage_cost":"","number_of_points":2,"power_kw":"22","verified":false,"last_verified":"2020-08-06T11:33:00Z"}},{"type":"Feature","geometry":{"type":"Point","coordinates":[9.190325,45.480919]},"properties":{"station_id":97981,"title":"NH Palazzo Moscova","address":"Viale Monte Grappa","town":"Milano","postcode":"20124","operator_id":23,"usage_cost":"","number_of_points":1,"power_kw":"22","verified":false,"last_verified":"2018-10-03T23:38:00Z"}},{"type":"Feature","geometry":{"type":"Point","coordinates":[9.18938,45.480811]},"properties":{"station_id":188431,"title":"Be Charge  Porta Garibaldi","address":"Viale Monte Grappa 16","town":"Milano","postcode":"","operator_id":3327,"usage_cost":"","number_of_points":2,"power_kw":"75","verified":false,"last_verified":"2022-06-07T14:07:00Z"}},{"type":"Feature","geometry":{"type":"Point","coordinates":[9.195023,45.481945]},"properties":{"station_id":191198,"title":"GreenFlux Volvo Recharge Portanuova Varesine","address":"Viale della Liberazione 13","town":"Milano","postcode":"","operator_id":63,"usage_cost":"","number_of_points":2,"power_kw":"150","verified":false,"last_verified":"2022-06-10T08:22:00Z"}},{"type":"Feature","geometry":{"type":"Point","coordinates":[9.189665,45.482513]},"properties":{"station_id":131436,"title":"BeCharge Milano Gae Aulenti","address":"Via Francesco Vigan\u00f2, 8","town":"Milano","postcode":"20124","operator_id":3327,"usage_cost":"","number_of_points":2,"power_kw":"22","verified":false,"last_verified":"2019-12-18T11:11:00Z"}},{"type":"Feature","geometry":{"type":"Point","coordinates":[9.196292,45.485723]},"properties":{"station_id":23250,"title":"A2A Palazzo della Regione","address":"Via Melchiorre Gioia 39","town":"Milano","postcode":"20124","operator_id":82,"usage_cost":"15\u20ac for 3months","number_of_points":2,"power_kw":"22","verified":false,"last_verified":"2017-03-24T15:48:00Z"}},{"type":"Feature","geometry":{"type":"Point","coordinates":[9.198148,45.485021]},"properties":{"station_id":85754,"title":" Four Points by Sheraton Milan Center","address":"Via Gerolamo Cardano, 1","town":"Milano","postcode":"20124","operator_id":null,"usage_cost":"","number_of_points":4,"power_kw":"11","verified":false,"last_verified":"2017-04-14T08:00:00Z"}},{"type":"Feature","geometry":{"type":"Point","coordinates":[9.196116,45.483938]},"properties":{"station_id":61329,"title":"A2A Isola Digitale Pirelli Gioia","address":"Via Giovanni Battista Pirelli, 35","town":"Milano","postcode":"20121","operator_id":82,"usage_cost":"15,10\u20ac per 3 mesi","number_of_points":4,"power_kw":"3.4","verified":false,"last_verified":"2016-02-24T14:49:00Z"}},{"type":"Feature","geometry":{"type":"Point","coordinates":[9.196709,45.488016]},"properties":{"station_id":191414,"title":"Be Charge Eni Abbadesse","address":"Via Luigi Galvani 34","town":"Milano","postcode":"","operator_id":3327,"usage_cost":"","number_of_points":2,"power_kw":"110","verified":false,"last_verified":"2022-06-10T08:21:00Z"}},{"type":"Feature","geometry":{"type":"Point","coordinates":[9.192996,45.489257]},"properties":{"station_id":21095,"title":"A2A Via Torquato Taramelli","address":"Via Torquato Taramelli,2","town":"Milano","postcode":"20124","operator_id":82,"usage_cost":"15\u20ac / 3month","number_of_points":1,"power_kw":"22","verified":false,"last_verified":"2018-08-24T17:59:00Z"}},{"type":"Feature","geometry":{"type":"Point","coordinates":[9.207429,45.490702]},"properties":{"station_id":135090,"title":"BECHARGE MILANO Sammartini","address":"Via Giovanni Battista Sammartini, 2","town":"Milano","postcode":"20125","operator_id":3327,"usage_cost":"","number_of_points":2,"power_kw":"75","verified":false,"last_verified":"2021-01-12T16:21:00Z"}},{"type":"Feature","geometry":{"type":"Point","coordinates":[9.206963,45.486521]},"properties":{"station_id":189648,"title":"Enel X Stazione Centrale","address":"Piazza Luigi di Savoia","town":"Milano","postcode":"","operator_id":80,"usage_cost":"","number_of_points":2,"power_kw":"50","verified":false,"last_verified":"2022-06-10T08:21:00Z"}},{"type":"Feature","geometry":{"type":"Point","coordinates":[9.210797,45.487845]},"properties":{"station_id":109154,"title":"Residenza Delle Citta'","address":"Residenza Delle Citta'","town":"Milan","postcode":"20124","operator_id":23,"usage_cost":"","number_of_points":2,"power_kw":"22","verified":false,"last_verified":"2018-10-11T13:46:00Z"}},{"type":"Feature","geometry":{"type":"Point","coordinates":[9.214262,45.484073]},"properties":{"station_id":61327,"title":"A2A  Isola Digitale Piazza Argentina","address":"Via Saverio Mercadante","town":"Milano","postcode":"20124","operator_id":82,"usage_cost":"15,10\u20ac per 3 mesi","number_of_points":4,"power_kw":"3.4","verified":false,"last_verified":"2016-06-11T18:07:00Z"}},{"type":"Feature","geometry":{"type":"Point","coordinates":[9.223126,45.479872]},"properties":{"station_id":129127,"title":"BeCharge Milano Piola","address":"Piazzale Gabrio Piola, 1","town":"Milano","postcode":"20131","operator_id":3327,"usage_cost":"","number_of_points":2,"power_kw":"22","verified":false,"last_verified":"2020-03-29T07:00:00Z"}},{"type":"Feature","geometry":{"type":"Point","coordinates":[9.223126,45.479872]},"properties":{"station_id":161652,"title":"Becharge Milano Palestrina","address":"Via Giovanni Pierluigi da Palestrina, 3","town":"Milano","postcode":"20131","operator_id":3327,"usage_cost":"","number_of_points":2,"power_kw":"22","verified":false,"last_verified":"2020-07-19T13:15:00Z"}},{"type":"Feature","geometry":{"type":"Point","coordinates":[9.226239,45.479191]},"properties":{"station_id":67803,"title":"A2A Isola Digitale PoliMi","address":"Piazza Leonardo da Vinci","town":"Milano","postcode":"20131","operator_id":82,"usage_cost":"15,10\u20ac per 3 mesi","number_of_points":4,"power_kw":"3.4","verified":false,"last_verified":"2016-06-11T18:01:00Z"}},{"type":"Feature","geometry":{"type":"Point","coordinates":[9.226417,45.479348]},"properties":{"station_id":21159,"title":"A2A PoliMi","address":"Via Bonardi","town":"Milano","postcode":"20131","operator_id":82,"usage_cost":"15\u20ac for 3months","number_of_points":2,"power_kw":"22","verified":false,"last_verified":"2017-01-03T20:54:00Z"}},{"type":"Feature","geometry":{"type":"Point","coordinates":[9.232648,45.478541]},"properties":{"station_id":31382,"title":"PoliMi - Dipartimento di Elettronica","address":"Edificio 20","town":"Milano","postcode":"20133","operator_id":82,"usage_cost":"15\u20ac x 3 mesi","number_of_points":2,"power_kw":"22","verified":false,"last_verified":"2016-05-27T15:11:00Z"}},{"type":"Feature","geometry":{"type":"Point","coordinates":[9.235201,45.48422]},"properties":{"station_id":21158,"title":"A2A Pacini","address":"Via Giovanni Pacini 74","town":"Milano","postcode":"20133","operator_id":82,"usage_cost":"15\u20ac for 3months","number_of_points":2,"power_kw":"22","verified":false,"last_verified":"2017-03-24T15:46:00Z"}},{"type":"Feature","geometry":{"type":"Point","coordinates":[9.228053,45.484745]},"properties":{"station_id":129306,"title":"U2 Supermercato Milano Vallazze | EnelX","address":"Via Vallazze, 87","town":"Milano","postcode":"20131","operator_id":80,"usage_cost":"","number_of_points":2,"power_kw":"22","verified":false,"last_verified":"2020-03-22T06:48:00Z"}},{"type":"Feature","geometry":{"type":"Point","coordinates":[9.236909,45.490766]},"properties":{"station_id":134895,"title":"BeCharge Milano Udine","address":"Piazzale Udine","town":"Milano","postcode":"20132","operator_id":3327,"usage_cost":"","number_of_points":2,"power_kw":"75","verified":false,"last_verified":"2021-01-12T16:22:00Z"}},{"type":"Feature","geometry":{"type":"Point","coordinates":[9.223397,45.507397]},"properties":{"station_id":191300,"title":"Be Charge Eni","address":"Viale Monza 166","town":"Milano","postcode":"","operator_id":3327,"usage_cost":"","number_of_points":2,"power_kw":"75","verified":false,"last_verified":"2022-06-10T08:10:00Z"}},{"type":"Feature","geometry":{"type":"Point","coordinates":[9.228273,45.501631]},"properties":{"station_id":280973,"title":"Ramada Plaza Milano","address":"Via Stamira D'Ancona 27","town":"Milano","postcode":"20127","operator_id":3328,"usage_cost":"0.60 \u20ac","number_of_points":1,"power_kw":"22","verified":true,"last_verified":"2023-12-04T09:29:00Z"}},{"type":"Feature","geometry":{"type":"Point","coordinates":[9.21245,45.49595]},"properties":{"station_id":260761,"title":"Be Charge Sammartini","address":"Via Giovanni Battista Sammartini 99","town":"Milano","postcode":"","operator_id":3327,"usage_cost":"","number_of_points":1,"power_kw":"110","verified":false,"last_verified":"2023-04-28T16:42:00Z"}},{"type":"Feature","geometry":{"type":"Point","coordinates":[9.209598,45.499686]},"properties":{"station_id":130581,"title":"BeCharge Milano S. Rafael","address":"Via S. Rafael delle Ande","town":"Milano","postcode":"20125","operator_id":3327,"usage_cost":"","number_of_points":2,"power_kw":"22","verified":false,"last_verified":"2020-05-04T13:58:00Z"}},{"type":"Feature","geometry":{"type":"Point","coordinates":[9.213289,45.512427]},"properties":{"station_id":24121,"title":"A2A Bicocca","address":"Piazzale Egeo","town":"Milano","postcode":"20126","operator_id":82,"usage_cost":"15\u20ac for 3months","number_of_points":2,"power_kw":"22","verified":false,"last_verified":"2021-01-09T17:22:00Z"}},{"type":"Feature","geometry":{"type":"Point","coordinates":[9.214259,45.520904]},"properties":{"station_id":155991,"title":"BECHARGE MILANO Pirelli","address":"Viale Piero e Alberto Pirelli","town":"Milano","postcode":"20126","operator_id":3327,"usage_cost":"","number_of_points":2,"power_kw":"22","verified":false,"last_verified":"2020-10-19T11:44:00Z"}},{"type":"Feature","geometry":{"type":"Point","coordinates":[9.210205,45.521941]},"properties":{"station_id":49061,"title":"Sagam Concessionario VW","address":"Viale Fulvio Testi, 260","town":"Milano","postcode":"20126","operator_id":1,"usage_cost":"","number_of_points":2,"power_kw":"22","verified":false,"last_verified":"2015-08-01T16:38:00Z"}},{"type":"Feature","geometry":{"type":"Point","coordinates":[9.210419,45.522921]},"properties":{"station_id":213611,"title":"Be Charge Testi","address":"Viale Fulvio Testi 262","town":"Milano","postcode":"","operator_id":3327,"usage_cost":"","number_of_points":1,"power_kw":"75","verified":false,"last_verified":"2023-02-18T19:53:00Z"}},{"type":"Feature","geometry":{"type":"Point","coordinates":[9.215318,45.527717]},"properties":{"station_id":156363,"title":"LIDL Milano Sarca ","address":"Viale Sarca 371","town":"Milano","postcode":"20126","operator_id":38,"usage_cost":"","number_of_points":2,"power_kw":"22","verified":false,"last_verified":"2020-10-19T11:42:00Z"}},{"type":"Feature","geometry":{"type":"Point","coordinates":[9.227449,45.521004]},"properties":{"station_id":191348,"title":"Be Charge Eni","address":"Viale Monza 316","town":"Milano","postcode":"","operator_id":3327,"usage_cost":"","number_of_points":2,"power_kw":"75","verified":false,"last_verified":"2022-06-10T08:09:00Z"}},{"type":"Feature","geometry":{"type":"Point","coordinates":[9.225885,45.514871]},"properties":{"station_id":112899,"title":"LIDL Milano Viale Monza","address":"Viale Monza","town":"Milano","postcode":"20128","operator_id":38,"usage_cost":"free","number_of_points":2,"power_kw":"22","verified":false,"last_verified":"2019-01-10T15:49:00Z"}},{"type":"Feature","geometry":{"type":"Point","coordinates":[9.246623,45.512576]},"properties":{"station_id":132056,"title":"LIDL Milano Adriano","address":"Via Adriano, 22","town":"Milano","postcode":"20128 ","operator_id":38,"usage_cost":"free","number_of_points":2,"power_kw":"50","verified":false,"last_verified":"2021-03-26T17:22:00Z"}}]}