{"type":"FeatureCollection","features":[{"type":"Feature","properties":{"service_id":1,"population_total":41631.95,"thiessen_area_km2":3.0945},"geometry":{"type":"Polygon","coordinates":[[[14.263769026000034,40.87719082000007],[14.26410314900005,40.87719796700003],[14.264436874000069,40.87721225400003],[14.26476993700004,40.877233671000056],[14.265102072000047,40.877262200000075],[14.265433018000067,40.87729782000008],[14.265762510000059,40.87734050100005],[14.266090288000044,40.877390209000055],[14.266416092000043,40.877446906000046],[14.266739662000077,40.87751054700004],[14.26706074200007,40.87758108000003],[14.267379078000033,40.87765845000007],[14.26769441700003,40.87774259500003],[14.268006508000042,40.877833449000036],[14.268315104000067,40.877930940000056],[14.268619960000024,40.87803499000006],[14.268920834000028,40.878145516000075],[14.269217488000038,40.87826243200004],[14.26950968500006,40.87838564400005],[14.269797194000034,40.87851505400005],[14.270079787000043,40.87865055900005],[14.270117404000075,40.878669743000046],[14.270357239000077,40.87879205300004],[14.270629330000077,40.87893942300008],[14.270895845000041,40.87909255200003],[14.271156572000052,40.87925131900005],[14.27128826300003,40.879336247000026],[14.271937281000078,40.880141441000035],[14.275149763000059,40.884126957000035],[14.275220131000026,40.88436748000004],[14.275283370000068,40.884616607000055],[14.275337336000064,40.884866988000056],[14.27538198800005,40.88511842400004],[14.275417288000028,40.88537071400003],[14.275443210000049,40.88562365900003],[14.275459732000058,40.88587705800006],[14.275466841000025,40.88613070900004],[14.275464531000068,40.88638441200004],[14.275452805000043,40.886637964000045],[14.275431671000035,40.886891165000065],[14.275401146000036,40.88714381400007],[14.275361254000074,40.88739571000008],[14.27531202700004,40.88764665300005],[14.275253504000034,40.887896444000035],[14.275185730000032,40.88814488500003],[14.27510876100007,40.88839177700004],[14.275022656000033,40.88863692700005],[14.274927484000045,40.88888013800005],[14.274823320000053,40.889121217000024],[14.274710248000076,40.88935997400006],[14.274588356000038,40.889596218000065],[14.274457741000049,40.88982976300008],[14.274318508000022,40.89006042200003],[14.274170766000054,40.89028801300003],[14.274014633000036,40.890512355000055],[14.27385023200003,40.890733269000066],[14.27367769500006,40.89095058100003],[14.273497157000065,40.89116411800006],[14.273369459000037,40.89130618400003],[14.272818006000023,40.891346707000025],[14.271618742000044,40.89144662700005],[14.270724273000042,40.89155118600007],[14.270668484000055,40.89155770000008],[14.270682062000049,40.89167862100004],[14.27070055400003,40.89184691400004],[14.270722876000036,40.89205486100008],[14.270738839000046,40.89219077300004],[14.270743444000061,40.89222947900004],[14.270788551000066,40.892614535000064],[14.270760000000053,40.89289201500003],[14.270755199000064,40.89293585900003],[14.270746922000058,40.893017075000046],[14.270638017000067,40.89343793300003],[14.270636269000022,40.89344551100004],[14.27049548900004,40.893524064000076],[14.270220658000028,40.89366854200006],[14.269940571000063,40.89380708600004],[14.269655451000062,40.89393958800008],[14.269365523000033,40.894065941000065],[14.269071019000023,40.894186045000026],[14.268772171000023,40.89429980400007],[14.268469218000064,40.89440712900006],[14.268162400000051,40.894507934000046],[14.26785196000003,40.89460213900003],[14.26753814500006,40.89468967000005],[14.267221204000066,40.89477045600006],[14.266901389000054,40.89484443400005],[14.266578953000021,40.894911544000024],[14.266254154000023,40.89497173500007],[14.265927248000025,40.89502495700003],[14.265598495000063,40.89507116800007],[14.265268157000037,40.89511033300005],[14.264936496000075,40.89514241900008],[14.264603775000069,40.89516740100004],[14.264270258000067,40.89518526000006],[14.263936211000043,40.89519598100003],[14.263601898000047,40.89519955500003],[14.263267585000051,40.89519598100003],[14.262933538000027,40.89518526000006],[14.262600021000026,40.89516740100004],[14.262267300000076,40.89514241900008],[14.261935639000058,40.89511033300005],[14.261605301000031,40.89507116800007],[14.261276548000069,40.89502495700003],[14.260949642000071,40.89497173500007],[14.260624843000073,40.894911544000024],[14.26030240700004,40.89484443400005],[14.259982592000028,40.89477045600006],[14.259665651000034,40.89468967000005],[14.259351836000064,40.89460213900003],[14.259041396000043,40.894507934000046],[14.25873457800003,40.89440712900006],[14.258431625000071,40.89429980400007],[14.258132777000071,40.894186045000026],[14.257838273000061,40.894065941000065],[14.257548345000032,40.89393958800008],[14.257263225000031,40.89380708600004],[14.256983138000066,40.89366854200006],[14.256708307000054,40.893524064000076],[14.256438950000074,40.89337376700007],[14.256175281000026,40.893217771000025],[14.255917509000028,40.89305619900006],[14.255665839000073,40.892889181000044],[14.255420471000036,40.89271684800008],[14.255181599000025,40.89253933700007],[14.254949413000077,40.892356790000065],[14.254724098000054,40.892169351000064],[14.254505832000063,40.89197716900003],[14.254294789000028,40.89178039600006],[14.254091135000067,40.89157919000007],[14.253895033000049,40.89137370900005],[14.253706639000029,40.89116411800006],[14.253526101000034,40.89095058100003],[14.253353564000065,40.890733269000066],[14.253189163000059,40.890512355000055],[14.25303303000004,40.89028801300003],[14.252885288000073,40.89006042200003],[14.252746055000046,40.88982976300008],[14.252615440000056,40.889596218000065],[14.252493548000075,40.88935997400006],[14.252380476000042,40.889121217000024],[14.252276312000049,40.88888013800005],[14.252181140000062,40.88863692700005],[14.252095035000025,40.88839177700004],[14.252018066000062,40.88814488500003],[14.25195029200006,40.887896444000035],[14.251891769000054,40.88764665300005],[14.251842542000077,40.88739571000008],[14.251802650000059,40.88714381400007],[14.251772125000059,40.886891165000065],[14.251750991000051,40.886637964000045],[14.251739265000026,40.88638441200004],[14.25173695500007,40.88613070900004],[14.251744064000036,40.88587705800006],[14.251760586000046,40.88562365900003],[14.251786508000066,40.88537071400003],[14.251821808000045,40.88511842400004],[14.25186646000003,40.884866988000056],[14.251920426000027,40.884616607000055],[14.251983665000068,40.88436748000004],[14.25205612600007,40.88411980300003],[14.252137751000078,40.88387377300006],[14.252228476000028,40.88362958700003],[14.252328228000067,40.88338743700007],[14.252436928000066,40.883147516000065],[14.252554490000023,40.88291001400006],[14.25268082100007,40.882675120000044],[14.252815819000034,40.88244302000004],[14.252959378000071,40.88221389900008],[14.253111384000022,40.881987937000076],[14.25327171500004,40.88176531600004],[14.253440246000025,40.88154621100006],[14.253616841000053,40.88133079600004],[14.253801361000058,40.88111924200007],[14.25399365900006,40.88091171700006],[14.254193582000028,40.88070838600004],[14.254400972000042,40.88050941000006],[14.254615664000028,40.880314947000045],[14.254837487000032,40.88012515100007],[14.255066266000028,40.87994017300008],[14.255301819000067,40.879760160000046],[14.255543958000032,40.87958525500005],[14.255792492000069,40.87941559600006],[14.256047224000042,40.87925131900005],[14.256307951000053,40.87909255200003],[14.256574466000075,40.87893942300008],[14.256846557000074,40.87879205300004],[14.257124009000052,40.87865055900005],[14.25740660200006,40.87851505400005],[14.257694111000035,40.87838564400005],[14.257986308000056,40.87826243200004],[14.258282962000067,40.878145516000075],[14.25858383600007,40.87803499000006],[14.258888692000028,40.877930940000056],[14.259197288000053,40.877833449000036],[14.259509379000065,40.87774259500003],[14.259824718000061,40.87765845000007],[14.260143054000025,40.87758108000003],[14.260464134000074,40.87751054700004],[14.260787704000052,40.877446906000046],[14.26111350800005,40.877390209000055],[14.261441286000036,40.87734050100005],[14.261770778000027,40.87729782000008],[14.262101724000047,40.877262200000075],[14.262433859000055,40.877233671000056],[14.262766922000026,40.87721225400003],[14.263100647000044,40.87719796700003],[14.26343477000006,40.87719082000007],[14.263769026000034,40.87719082000007]]]}},{"type":"Feature","properties":{"service_id":2,"population_total":10497.36,"thiessen_area_km2":2.6652},"geometry":{"type":"Polygon","coordinates":[[[14.288721019000036,40.867612748000056],[14.288840649000065,40.867614407000076],[14.289028988000041,40.867795141000045],[14.289109222000036,40.86787675900007],[14.28922887300007,40.86799847300006],[14.289421133000076,40.868205998000064],[14.289527088000057,40.86832750000008],[14.290411637000034,40.875781904000064],[14.29053401300007,40.876813208000044],[14.290476234000039,40.876916539000035],[14.290337027000078,40.877147199000035],[14.290189314000031,40.87737479000003],[14.290033211000036,40.87759913300005],[14.289868843000022,40.877820048000046],[14.289696339000045,40.878037360000064],[14.289515836000078,40.87825089700004],[14.289327478000075,40.87846048900008],[14.289131414000053,40.87866597000004],[14.288927801000057,40.878867177000075],[14.288716798000053,40.879063950000045],[14.288498575000062,40.87925613200008],[14.28827330300004,40.87944357200007],[14.28804116300006,40.87962612000007],[14.287802337000073,40.87980363100007],[14.28755701700004,40.87997596400004],[14.287305396000022,40.88014298300004],[14.287047674000064,40.880304555000066],[14.286784056000045,40.880460551000056],[14.286514751000027,40.88061084800006],[14.286239974000068,40.88075532700003],[14.285959941000044,40.88089387200006],[14.28567487600003,40.881026373000054],[14.285385005000023,40.88115272600004],[14.285090558000036,40.88127283100005],[14.284791768000048,40.881386590000034],[14.284488874000033,40.88149391600007],[14.284182115000021,40.881594721000056],[14.283871736000037,40.88168892600004],[14.283557982000048,40.88177645700006],[14.283241102000034,40.88185724300007],[14.282921349000048,40.88193122100006],[14.282598977000077,40.88199833200008],[14.28227424000005,40.88205852200008],[14.281947398000057,40.88211174500003],[14.281618709000043,40.88215795600007],[14.281288436000068,40.88219712100005],[14.280956839000055,40.88222920700008],[14.280624182000054,40.88225418900004],[14.280290731000036,40.88227204800006],[14.279956748000075,40.88228276900003],[14.279622500000073,40.88228634300003],[14.279288252000072,40.88228276900003],[14.278954269000053,40.88227204800006],[14.278620818000036,40.88225418900004],[14.278288161000035,40.88222920700008],[14.277956564000021,40.88219712100005],[14.277626291000047,40.88215795600007],[14.277297602000033,40.88211174500003],[14.27697076000004,40.88205852200008],[14.276646023000069,40.88199833200008],[14.276323651000041,40.88193122100006],[14.276003898000056,40.88185724300007],[14.275687018000042,40.88177645700006],[14.275373264000052,40.88168892600004],[14.275062885000068,40.881594721000056],[14.274756126000057,40.88149391600007],[14.274453232000042,40.881386590000034],[14.274154442000054,40.88127283100005],[14.273859995000066,40.88115272600004],[14.27357012400006,40.881026373000054],[14.273285059000045,40.88089387200006],[14.273105002000023,40.88080479000007],[14.273005026000021,40.88075532700003],[14.272730249000062,40.88061084800006],[14.272460944000045,40.880460551000056],[14.272197326000025,40.880304555000066],[14.271939604000067,40.88014298300004],[14.271937281000078,40.880141441000035],[14.27128826300003,40.879336247000026],[14.268079453000041,40.87535528600006],[14.268040919000043,40.87523165700003],[14.267973159000064,40.87498321600003],[14.267914647000055,40.874733425000045],[14.26786542900004,40.87448248100003],[14.26782554500005,40.87423058500008],[14.267795026000044,40.87397793500003],[14.267773896000051,40.873724733000074],[14.267762172000062,40.87347118000008],[14.267759863000038,40.873217477000026],[14.267766970000025,40.872963825000056],[14.267783489000067,40.872710426000026],[14.267809406000026,40.87245748000004],[14.267844699000023,40.872205190000045],[14.267889342000046,40.87195375400006],[14.267943298000034,40.87170337200007],[14.268006524000043,40.87145424400006],[14.268078971000023,40.87120656600007],[14.268160581000075,40.87096053600004],[14.268251288000044,40.87071634900008],[14.268351020000068,40.87047419900006],[14.26845970000005,40.870234277000066],[14.268577239000024,40.86999677500006],[14.268703544000061,40.869761880000055],[14.268838517000063,40.86952978000005],[14.268982048000055,40.86930065800004],[14.269134024000039,40.86907469600004],[14.269294324000043,40.868852074000074],[14.269462822000037,40.86863296800004],[14.269639383000026,40.86841755300003],[14.26982386700007,40.868205998000064],[14.270016127000076,40.86799847300006],[14.270216012000049,40.867795141000045],[14.270423361000041,40.867596165000066],[14.27062402100006,40.867414377000046],[14.270638012000063,40.86740170100006],[14.27068364300004,40.867362651000064],[14.288721019000036,40.867612748000056]]]}},{"type":"Feature","properties":{"service_id":3,"population_total":27088.9,"thiessen_area_km2":2.4131},"geometry":{"type":"Polygon","coordinates":[[[14.288692960000049,40.85619066700008],[14.289200257000061,40.85621996400005],[14.289387867000073,40.85641084300005],[14.28958009400003,40.856618368000056],[14.289764545000025,40.85682992300008],[14.289941075000058,40.85704533900008],[14.290109544000074,40.857264445000055],[14.290269816000034,40.85748706800007],[14.290421766000065,40.85771303000007],[14.290565272000038,40.85794215300007],[14.290700221000066,40.85817425300007],[14.290826504000052,40.85840914800008],[14.290944023000065,40.85864665100007],[14.291052683000032,40.85888657300006],[14.291152398000065,40.85912872400007],[14.291243090000023,40.859372912000026],[14.291324685000063,40.859618942000054],[14.291397119000067,40.85986662000005],[14.291460334000021,40.860115749000045],[14.291514281000048,40.860366131000035],[14.291558916000042,40.860617568000066],[14.291594203000045,40.86086985900005],[14.291620115000057,40.861122805000036],[14.291636631000074,40.861376205000056],[14.291643738000062,40.861629857000025],[14.291641429000038,40.86188356100007],[14.291629707000027,40.86213711500005],[14.291608581000048,40.86239031700006],[14.291578067000046,40.862642967000056],[14.29153819000004,40.862894864000054],[14.291531853000038,40.86292718200008],[14.290112513000054,40.86611845900006],[14.290027724000026,40.866232437000065],[14.289855250000073,40.86644975000007],[14.289674779000052,40.86666328700005],[14.289486454000041,40.866872880000074],[14.289290425000047,40.86707836100004],[14.289086846000032,40.86727956900006],[14.288875881000024,40.86747634200003],[14.288781318000076,40.86755963600007],[14.288721019000036,40.867612748000056],[14.27068364300004,40.867362651000064],[14.270566828000028,40.86736103100003],[14.27047949000007,40.86727956900006],[14.270275911000056,40.86707836100004],[14.270079882000061,40.866872880000074],[14.26989155700005,40.86666328700005],[14.26971108600003,40.86644975000007],[14.269538612000076,40.866232437000065],[14.26937427200005,40.866011521000075],[14.269218196000054,40.86578717900005],[14.269070508000027,40.865559587000064],[14.268931326000029,40.865328927000064],[14.268800760000033,40.86509538100006],[14.26867891300003,40.864859136000064],[14.268565882000075,40.86462037800004],[14.268461757000068,40.86437929700003],[14.268366620000052,40.86413608600003],[14.268280547000074,40.86389093500003],[14.268203606000043,40.86364404100004],[14.268135857000061,40.86339560000005],[14.26807735500006,40.86314580800007],[14.268028146000063,40.862894864000054],[14.267988269000057,40.862642967000056],[14.267957755000054,40.86239031700006],[14.267936629000076,40.86213711500005],[14.267924907000065,40.86188356100007],[14.267922598000041,40.861629857000025],[14.267929705000029,40.861376205000056],[14.267946221000045,40.861122805000036],[14.267972133000058,40.86086985900005],[14.26800742000006,40.860617568000066],[14.268052055000055,40.860366131000035],[14.268106002000025,40.860115749000045],[14.268169217000036,40.85986662000005],[14.26824165100004,40.859618942000054],[14.268323246000023,40.859372912000026],[14.268413938000037,40.85912872400007],[14.26851365300007,40.85888657300006],[14.268622313000037,40.85864665100007],[14.268739832000051,40.85840914800008],[14.268866115000037,40.85817425300007],[14.269001064000065,40.85794215300007],[14.269144570000037,40.85771303000007],[14.269296520000069,40.85748706800007],[14.269456792000028,40.857264445000055],[14.269625261000044,40.85704533900008],[14.269801791000077,40.85682992300008],[14.269986242000073,40.856618368000056],[14.27017846900003,40.85641084300005],[14.27037831900003,40.85620751100004],[14.270585632000063,40.85600853400007],[14.270800245000032,40.855814070000065],[14.27102198700004,40.855624273000046],[14.271250681000026,40.85543929500005],[14.271299978000059,40.85540160700003],[14.271486147000076,40.85525928100003],[14.27156603000003,40.85520155800003],[14.288692960000049,40.85619066700008]]]}},{"type":"Feature","properties":{"service_id":4,"population_total":17001.87,"thiessen_area_km2":2.6051},"geometry":{"type":"Polygon","coordinates":[[[14.29012055800007,40.84483755900004],[14.290272379000044,40.84519799700007],[14.290460443000029,40.84604925200006],[14.290538696000056,40.846403457000065],[14.290843557000073,40.84778338600006],[14.29107117500007,40.848813681000024],[14.29142285200004,40.85040551700007],[14.291836577000026,40.85227820400007],[14.291795301000036,40.85238374200003],[14.291691194000066,40.85262482300004],[14.291578184000059,40.852863582000055],[14.291456359000051,40.85309982800004],[14.29132581600004,40.853333374000044],[14.291186659000061,40.853564034000044],[14.291038998000033,40.85379162700008],[14.290882951000071,40.854015970000034],[14.290718640000023,40.85423688600008],[14.290546197000026,40.85445419900003],[14.290365759000053,40.85466773700006],[14.290177468000024,40.85487733000008],[14.289981474000058,40.855082812000035],[14.28977793200005,40.85528401900007],[14.289567004000048,40.85548079300003],[14.28934885800004,40.85567297600005],[14.28912366700007,40.85586041600004],[14.28895964000003,40.85598944800006],[14.288891608000029,40.85604296500003],[14.288692960000049,40.85619066700008],[14.27156603000003,40.85520155800003],[14.27106101000004,40.85517239200004],[14.270970390000059,40.855082812000035],[14.270774396000036,40.85487733000008],[14.270586105000064,40.85466773700006],[14.270405667000034,40.85445419900003],[14.270233224000037,40.85423688600008],[14.270068913000046,40.854015970000034],[14.269912866000027,40.85379162700008],[14.269765205000056,40.853564034000044],[14.269626048000077,40.853333374000044],[14.269495505000066,40.85309982800004],[14.269373680000058,40.852863582000055],[14.269260670000051,40.85262482300004],[14.269156563000024,40.85238374200003],[14.269061444000045,40.85214053000004],[14.268975386000022,40.85189537900004],[14.268898458000024,40.851648485000055],[14.268830722000075,40.85140004300007],[14.26877223100007,40.851150250000046],[14.268723030000046,40.85089930600003],[14.268683160000023,40.85064740800004],[14.268652652000071,40.85039475800005],[14.26863153000005,40.85014155500005],[14.268619810000075,40.84988800100007],[14.26861750200004,40.84963429600003],[14.26862460700005,40.849380643000075],[14.26864112000004,40.849127243000055],[14.268667027000049,40.848874297000066],[14.268702308000059,40.84862200500004],[14.268746935000024,40.848370568000064],[14.268800871000053,40.84812018500003],[14.268864076000057,40.84787105600003],[14.268936497000027,40.84762337700005],[14.269018077000055,40.84737734600003],[14.269108752000022,40.84713315800008],[14.269208449000075,40.84689100700007],[14.269317090000072,40.84665108400003],[14.269434587000035,40.846413581000036],[14.269560848000026,40.84617868500004],[14.269695772000034,40.845946584000046],[14.269839253000043,40.84571746100005],[14.26999117500003,40.84549149800006],[14.270151419000058,40.845268875000045],[14.270319856000071,40.84504976900007],[14.270496355000034,40.84483435200008],[14.270680773000038,40.844622797000056],[14.270872965000024,40.84441527100006],[14.271072779000065,40.84421193800006],[14.271280055000034,40.84401296100003],[14.271494629000074,40.84381849700003],[14.27171633100005,40.84362870000007],[14.271944984000072,40.84344372100003],[14.272180407000064,40.84326370700006],[14.272422414000062,40.84308880000003],[14.272670812000058,40.84291914100004],[14.272925404000034,40.84275486200005],[14.273115026000028,40.842639329000065],[14.273106108000036,40.842849640000054],[14.273093897000024,40.84325532400004],[14.273085729000059,40.84353478600008],[14.27306247000007,40.84393197400004],[14.273060902000054,40.84449021900008],[14.273147711000036,40.844463732000065],[14.273371526000062,40.84440845800003],[14.27365315000003,40.84434931100003],[14.273620951000055,40.84447938500006],[14.273637005000069,40.84461978200005],[14.273720213000047,40.84465037000007],[14.27393283400005,40.84469332200007],[14.274112949000028,40.84464375700003],[14.274205302000041,40.84459031100005],[14.274260971000047,40.84455223900005],[14.274353684000062,40.84452548200005],[14.274469450000026,40.84448806600005],[14.27461997100005,40.84446285400003],[14.274680885000066,40.84445265100004],[14.274599416000058,40.84414207800006],[14.274592238000025,40.84411471400006],[14.274689218000049,40.844091941000045],[14.274817190000022,40.84404932100006],[14.274940729000036,40.84401001300006],[14.27508892800006,40.84397861100007],[14.275227697000048,40.84393787600004],[14.275295455000048,40.843901620000054],[14.27582138200006,40.84376946800006],[14.275853136000023,40.84376092400004],[14.275911419000067,40.84374524500004],[14.275597004000076,40.84215381900003],[14.27558159800003,40.84211593400005],[14.275664352000035,40.842111964000026],[14.275996109000062,40.84372246100003],[14.27654751800003,40.843574113000045],[14.276970701000039,40.843449193000026],[14.27715147300006,40.843408483000076],[14.277212262000035,40.84337686400005],[14.277668309000035,40.84323548200007],[14.277773851000063,40.84320276100004],[14.277849179000043,40.84318509800005],[14.27792452500006,40.84316884000003],[14.277477903000033,40.84236282000006],[14.276799268000048,40.84113804300006],[14.27701898500004,40.84108461200003],[14.277339890000064,40.84101407800006],[14.277663283000038,40.84095043800005],[14.277988907000065,40.84089374000007],[14.278316505000078,40.840844031000074],[14.27864581700004,40.84080135000005],[14.278712554000037,40.840794163000055],[14.278887194000049,40.84108554100004],[14.279014525000036,40.841354283000044],[14.27919722300004,40.84164476300003],[14.279313598000044,40.84188895300008],[14.279407900000024,40.84206311200006],[14.27945896500006,40.842135133000056],[14.279687977000037,40.84253443100005],[14.279727594000065,40.842513076000046],[14.279784663000044,40.84247579500004],[14.280033208000077,40.84241487200006],[14.280486126000028,40.84225003900008],[14.28105427500003,40.84205290600005],[14.281253414000048,40.84199844300008],[14.281648658000051,40.841854829000056],[14.28180085400004,40.84181938200004],[14.281865261000064,40.84178720700004],[14.281922507000047,40.841754980000076],[14.28183914400006,40.841601042000036],[14.281798641000023,40.84141507100003],[14.281695334000062,40.84113988800004],[14.281592200000034,40.840848555000036],[14.281561759000056,40.840731953000045],[14.281643330000065,40.840737201000024],[14.281975283000065,40.84076573100003],[14.282306047000077,40.84080135000005],[14.28263535900004,40.840844031000074],[14.282856860000038,40.84087764100008],[14.283008977000065,40.84130145100005],[14.28327532700007,40.84120369400006],[14.283509707000064,40.841099186000065],[14.283671325000057,40.84102712300006],[14.283932879000076,40.84108461200003],[14.284251040000072,40.84116198300006],[14.284566205000033,40.84124612800008],[14.284878125000034,40.841336983000076],[14.285186552000027,40.84143447400004],[14.285491241000045,40.84153852500003],[14.285791950000032,40.84164905200004],[14.286088440000071,40.84176596900005],[14.286380477000023,40.841889181000056],[14.286667828000077,40.842018592000045],[14.286950266000076,40.84215409900003],[14.28722756600007,40.84229559400006],[14.287499508000053,40.84244296500003],[14.287765877000027,40.842596094000044],[14.288026460000026,40.84275486200005],[14.288281052000059,40.84291914100004],[14.288529450000055,40.84308880000003],[14.288751083000022,40.843248982000034],[14.288771457000053,40.84326370700006],[14.289006880000045,40.84344372100003],[14.289235533000067,40.84362870000007],[14.28934650900004,40.84372370600005],[14.289457235000043,40.84381849700003],[14.289671809000026,40.84401296100003],[14.289842071000066,40.84417640600003],[14.29012055800007,40.84483755900004]]]}},{"type":"Feature","properties":{"service_id":5,"population_total":21747.05,"thiessen_area_km2":1.8736},"geometry":{"type":"Polygon","coordinates":[[[14.22998112700003,40.857987474000026],[14.23016558300003,40.85819902800006],[14.230342117000077,40.85841444400006],[14.230510588000072,40.858633550000036],[14.230670864000047,40.85885617300005],[14.230785755000056,40.85902702300007],[14.230054463000045,40.85942937900006],[14.211831349000022,40.86945572500008],[14.211766632000035,40.86940761500006],[14.211534527000026,40.86922506700006],[14.211309290000031,40.86903762700007],[14.211091100000033,40.868845444000044],[14.210880130000078,40.868648671000074],[14.210676548000038,40.86844746400004],[14.21048051400004,40.868241983000075],[14.210292185000071,40.86803239000005],[14.21015062600003,40.86786489800005],[14.210111710000035,40.86781885200003],[14.209939233000057,40.86760154000007],[14.209774889000073,40.86738062400008],[14.209618810000052,40.86715628200005],[14.209471120000046,40.866928690000066],[14.209331935000023,40.866698030000066],[14.209201366000059,40.86646448400006],[14.209079517000077,40.866228239000066],[14.20896648300004,40.86598948100004],[14.208862356000054,40.865748401000076],[14.208767217000059,40.86550518900003],[14.208681142000046,40.86526003900008],[14.208604199000035,40.865013145000034],[14.208536449000064,40.86476470300005],[14.208477946000073,40.86451491200006],[14.20842873600003,40.864263968000046],[14.208388858000035,40.86401207100005],[14.208358344000033,40.863759421000054],[14.208337217000064,40.863506218000055],[14.208325495000054,40.86325266500006],[14.20832318600003,40.86299896100007],[14.208330293000074,40.86274530900005],[14.208346809000034,40.86249190900003],[14.208372721000046,40.86223896300004],[14.208408010000028,40.86198667200006],[14.208452645000023,40.861735235000026],[14.208506593000038,40.861484853000036],[14.208569810000029,40.86123572500003],[14.208642245000021,40.860988047000035],[14.20872384200004,40.860742016000074],[14.208814535000045,40.86049782900005],[14.208914253000046,40.860255678000044],[14.209022915000048,40.86001575600005],[14.209140436000041,40.85977825300006],[14.209266723000042,40.85954335800005],[14.209401674000048,40.85931125700006],[14.209545183000046,40.85908213500005],[14.209697136000045,40.85885617300005],[14.209857412000076,40.858633550000036],[14.210025883000071,40.85841444400006],[14.210202417000062,40.85819902800006],[14.210386873000061,40.857987474000026],[14.210579104000033,40.85777994800003],[14.210778957000059,40.857576616000074],[14.210986275000039,40.85737763900005],[14.211200892000022,40.857183175000046],[14.211422638000045,40.85699337900007],[14.211477139000067,40.85694929700003],[14.211559910000062,40.85705058000008],[14.211788289000026,40.85698299100005],[14.21171172000004,40.85768261000004],[14.212296012000024,40.85785980500003],[14.212466430000063,40.85767249200006],[14.21283100900007,40.856917733000046],[14.213230043000067,40.85632796700003],[14.213650726000026,40.85587226100006],[14.214142327000047,40.85540433700004],[14.214262417000043,40.85527285300003],[14.21427635300006,40.855254727000045],[14.214278269000033,40.855253864000076],[14.214570364000053,40.85513065200007],[14.214866914000027,40.855013736000046],[14.21516768400005,40.85490320900004],[14.215472434000048,40.85479915900004],[14.215780922000022,40.854701668000075],[14.216092905000039,40.85461081300008],[14.216408134000062,40.85452666700007],[14.216726359000063,40.85444929700003],[14.217047328000035,40.854378764000046],[14.217370785000071,40.85431512300005],[14.217696476000071,40.85425842600006],[14.218024139000022,40.85420871700006],[14.218353517000025,40.85416603600004],[14.218684348000068,40.85413041600003],[14.219016368000041,40.85410188700007],[14.219349315000045,40.85408047000004],[14.21968292400004,40.85406618300004],[14.220016930000043,40.85405903600008],[14.22035107000005,40.85405903600008],[14.220685076000052,40.85406618300004],[14.221018685000047,40.85408047000004],[14.22135163200005,40.85410188700007],[14.221683652000024,40.85413041600003],[14.222014483000066,40.85416603600004],[14.22234386100007,40.85420871700006],[14.222671524000077,40.85425842600006],[14.222997215000078,40.85431512300005],[14.223320672000057,40.854378764000046],[14.223641641000029,40.85444929700003],[14.22395986600003,40.85452666700007],[14.224275095000053,40.85461081300008],[14.22458707800007,40.854701668000075],[14.224895566000043,40.85479915900004],[14.225200316000041,40.85490320900004],[14.225501086000065,40.855013736000046],[14.225797636000038,40.85513065200007],[14.226089731000059,40.855253864000076],[14.226377140000068,40.855383275000065],[14.226659635000033,40.85551878100006],[14.22693699100006,40.85566027600004],[14.22720898800003,40.85580764600007],[14.227475410000068,40.855960776000074],[14.227736046000075,40.856119543000034],[14.227990689000023,40.856283821000034],[14.22823913600007,40.856453481000074],[14.22848119200006,40.85662838700006],[14.228716662000068,40.856808400000034],[14.228945362000047,40.85699337900007],[14.22916710800007,40.857183175000046],[14.229381725000053,40.85737763900005],[14.229589043000033,40.857576616000074],[14.22978889600006,40.85777994800003],[14.22998112700003,40.857987474000026]]]}},{"type":"Feature","properties":{"service_id":6,"population_total":5302.94,"thiessen_area_km2":1.8923},"geometry":{"type":"Polygon","coordinates":[[[14.230235016000051,40.85956740300003],[14.23046372500005,40.85975238200007],[14.230685480000034,40.85994217800004],[14.230900107000025,40.86013664200004],[14.231107433000034,40.86033561800008],[14.231307295000022,40.860538950000034],[14.231499534000022,40.86074647600003],[14.231683997000061,40.86095803100005],[14.231735276000052,40.861020601000064],[14.231860538000035,40.861173446000066],[14.232029017000059,40.86139255300003],[14.232189299000026,40.861615175000054],[14.232341258000076,40.861841137000056],[14.232484773000067,40.86207025900006],[14.232619730000067,40.86230236000006],[14.232746022000072,40.86253725500006],[14.232863548000068,40.86277475700007],[14.232972215000075,40.86301467900006],[14.233071936000044,40.86325683000007],[14.233162633000063,40.86350101700003],[14.23324423300005,40.86374704800005],[14.233316672000058,40.863994725000055],[14.233379892000073,40.86424385400005],[14.233433842000068,40.86449423600004],[14.233478479000041,40.864745672000026],[14.23351376900007,40.864997964000054],[14.233539682000071,40.86525090900005],[14.233556199000077,40.86550430900007],[14.233563306000065,40.86575796100004],[14.23356099700004,40.86601166500003],[14.23354927500003,40.86626521800008],[14.233528147000072,40.866518420000034],[14.233497631000034,40.86677107000003],[14.23345775200005,40.867022967000025],[14.233408540000028,40.86727391100004],[14.233350034000068,40.867523703000074],[14.233282281000072,40.86777214400007],[14.233205335000036,40.86801903800006],[14.233119257000055,40.86826418800007],[14.233024114000045,40.868507399000066],[14.232919982000055,40.86874848000008],[14.23280694400006,40.868987237000056],[14.232685090000075,40.86922348300004],[14.23255451500006,40.869457028000056],[14.232415325000034,40.869687688000056],[14.232267628000045,40.86991528000004],[14.23211154300003,40.87013962200007],[14.231947193000053,40.87036053800006],[14.231774708000046,40.870577850000075],[14.231594226000027,40.870791387000054],[14.23140588900003,40.871000980000076],[14.23120984700006,40.87120646100004],[14.231006256000057,40.871407669000064],[14.230795277000027,40.871604442000034],[14.230577078000067,40.87179662400007],[14.230351832000053,40.87198406400006],[14.230119718000026,40.87216661200006],[14.229880919000038,40.87234412300006],[14.22963562600006,40.872516457000074],[14.22938403300003,40.87268347600008],[14.22912634100004,40.872845048000045],[14.228862752000055,40.873001044000034],[14.22859347800005,40.87315134200003],[14.228318731000059,40.87329582000007],[14.228038730000037,40.873434366000026],[14.227753697000026,40.87356686700008],[14.227463858000021,40.87369322100005],[14.227169444000026,40.87381332500007],[14.226870688000076,40.87392708500005],[14.226567828000043,40.874034410000036],[14.22626110300007,40.87413521600007],[14.225950759000057,40.87422942100005],[14.225637040000038,40.87431695200007],[14.225320196000041,40.87439773800003],[14.225000479000073,40.87447171600007],[14.224678142000073,40.87453882700004],[14.224353442000051,40.874599018000026],[14.224026637000065,40.874652240000046],[14.223697985000058,40.874698452000075],[14.223367749000033,40.87473761600006],[14.223036189000027,40.87476970200004],[14.222703570000022,40.87479468500004],[14.222370156000068,40.874812544000065],[14.222036210000056,40.87482326400004],[14.22170200000005,40.874826839000036],[14.221367790000045,40.87482326400004],[14.221033844000033,40.874812544000065],[14.220700430000022,40.87479468500004],[14.220367811000074,40.87476970200004],[14.220036251000067,40.87473761600006],[14.219706015000042,40.874698452000075],[14.219377363000035,40.874652240000046],[14.219050558000049,40.874599018000026],[14.218725858000028,40.87453882700004],[14.218403521000027,40.87447171600007],[14.21808380400006,40.87439773800003],[14.217766960000063,40.87431695200007],[14.217453241000044,40.87422942100005],[14.21714289700003,40.87413521600007],[14.216836172000058,40.874034410000036],[14.216533312000024,40.87392708500005],[14.216234556000074,40.87381332500007],[14.215940142000022,40.87369322100005],[14.215650303000075,40.87356686700008],[14.215365270000063,40.873434366000026],[14.215085269000042,40.87329582000007],[14.21481052200005,40.87315134200003],[14.214541248000046,40.873001044000034],[14.21427765900006,40.872845048000045],[14.21401996700007,40.87268347600008],[14.21376837400004,40.872516457000074],[14.213523081000062,40.87234412300006],[14.213284282000075,40.87216661200006],[14.213052168000047,40.87198406400006],[14.212826922000033,40.87179662400007],[14.212608723000073,40.871604442000034],[14.212397744000043,40.871407669000064],[14.212194153000041,40.87120646100004],[14.21199811100007,40.871000980000076],[14.211809774000074,40.870791387000054],[14.211629292000055,40.870577850000075],[14.211456807000047,40.87036053800006],[14.21129245700007,40.87013962200007],[14.211136372000055,40.86991528000004],[14.211099464000029,40.86985840700004],[14.211831349000022,40.86945572500008],[14.230054463000045,40.85942937900006],[14.230235016000051,40.85956740300003]]]}},{"type":"Feature","properties":{"service_id":7,"population_total":32945.28,"thiessen_area_km2":2.4323},"geometry":{"type":"MultiPolygon","coordinates":[[[[14.216367294000065,40.85298464700003],[14.216082349000033,40.85311714900007],[14.215919230000054,40.853188282000076],[14.216115221000052,40.85305066900003],[14.21614296000007,40.85303590800004],[14.216193943000064,40.85302459300004],[14.216438481000068,40.85294941300003],[14.216367294000065,40.85298464700003]]],[[[14.22027455500006,40.84991080800006],[14.22010212300006,40.85012812100007],[14.219921697000075,40.85034165900004],[14.219733418000033,40.85055125300005],[14.219537436000053,40.85075673500006],[14.219333908000067,40.850957943000026],[14.219122994000031,40.85115471600005],[14.218904862000045,40.85134690000007],[14.21867968500004,40.85153434000006],[14.218447642000058,40.851716889000045],[14.218208917000027,40.85189440100004],[14.217963699000052,40.85206673500005],[14.21771218400005,40.85223375500004],[14.21745457000003,40.85239532700007],[14.21719106300003,40.852551324000046],[14.216921871000068,40.85270162200004],[14.21664720900003,40.85284610100007],[14.216563035000036,40.85288776400006],[14.216616553000051,40.85283887600008],[14.216713097000024,40.85278498200006],[14.216782418000037,40.85270531400005],[14.216843935000043,40.85263950500007],[14.216102939000052,40.85216894200005],[14.215785062000066,40.85192523400008],[14.215332624000041,40.851485558000036],[14.215276312000071,40.85141396200004],[14.21523748900006,40.85136460000007],[14.215070497000056,40.85115228300003],[14.214905676000058,40.85069030600005],[14.214806421000048,40.850083244000075],[14.214844837000044,40.849533714000074],[14.214878264000049,40.849449080000056],[14.214943568000024,40.84928374700007],[14.21503619400005,40.84903477900008],[14.21508076400005,40.84915426100008],[14.21505849700003,40.84937779200004],[14.215086089000067,40.84953455600004],[14.215122405000045,40.84978261400005],[14.215192132000027,40.849792957000034],[14.215311298000074,40.849810062000074],[14.215492354000048,40.84955877500005],[14.215567964000059,40.849172725000074],[14.215595768000071,40.848838357000034],[14.215630718000057,40.848748888000046],[14.215749990000063,40.84866978300005],[14.215855877000024,40.84861056700004],[14.215895555000031,40.84859085700003],[14.216066947000058,40.848552065000035],[14.216204918000074,40.84850914100008],[14.216241746000037,40.848430947000054],[14.21607778400005,40.848249320000036],[14.21598418800005,40.848105016000034],[14.21600750500005,40.847986922000075],[14.216022603000056,40.847896207000076],[14.216070375000072,40.84785352800003],[14.216300946000047,40.84738392600008],[14.216369577000023,40.847088220000046],[14.216472381000074,40.84693501100003],[14.215804423000066,40.84635803800006],[14.215248295000038,40.84616224100006],[14.21519260100007,40.846151262000035],[14.214834199000052,40.84605047100007],[14.21472762600007,40.84602379100005],[14.214217566000059,40.84601089900008],[14.213778675000071,40.84601728600006],[14.213398882000035,40.84601199100007],[14.213113298000053,40.84608345000004],[14.21300662300007,40.84608378200005],[14.212770370000044,40.84599095500005],[14.212581623000062,40.845927483000025],[14.212579277000032,40.84616166500007],[14.212578303000043,40.846224730000074],[14.212447785000052,40.84618562900005],[14.212317518000077,40.846178027000065],[14.212135818000036,40.84620426500004],[14.211758054000029,40.84653715600007],[14.211477226000056,40.84671089600005],[14.21095820000005,40.84696407800004],[14.21042778900005,40.84717664500005],[14.20983964900006,40.84735631700005],[14.209591402000058,40.84743215200007],[14.208733822000056,40.84772354100005],[14.207513369000026,40.84817366400006],[14.206414292000034,40.84874804700007],[14.205978810000033,40.84920446600006],[14.205962304000025,40.84922867200004],[14.205199492000077,40.85014045100007],[14.204578243000071,40.85075322800003],[14.204258663000076,40.85094019500008],[14.20427985300006,40.85115203300006],[14.204134649000025,40.85138974800003],[14.204054685000074,40.851627912000026],[14.203980006000052,40.851920163000045],[14.203819914000064,40.85216227800004],[14.203597113000058,40.85243999200003],[14.203447913000048,40.85251553200004],[14.20313619500007,40.852540403000035],[14.202776151000023,40.85249341900004],[14.202661234000061,40.85242538800003],[14.20265856800006,40.85230288900004],[14.202842392000036,40.85181321400006],[14.202866068000048,40.85157015800007],[14.202183809000076,40.85182667600003],[14.201881896000032,40.851912524000056],[14.201856109000062,40.85189440100004],[14.20161738400003,40.851716889000045],[14.201385341000048,40.85153434000006],[14.201160164000044,40.85134690000007],[14.200942032000057,40.85115471600005],[14.200731118000022,40.850957943000026],[14.200527590000036,40.85075673500006],[14.200331608000056,40.85055125300005],[14.20014332900007,40.85034165900004],[14.199962903000028,40.85012812100007],[14.199790471000028,40.84991080800006],[14.199626171000034,40.84968989200007],[14.199470134000023,40.84946554900006],[14.19932248200007,40.849237956000024],[14.199183335000043,40.849007295000035],[14.19905280000006,40.84877374900003],[14.198930983000025,40.848537503000045],[14.198817980000058,40.84829874500008],[14.19871388100006,40.84805766300008],[14.198618767000028,40.84781445100003],[14.198532715000056,40.84756930000003],[14.198455792000061,40.84732240500006],[14.19838806000007,40.84707396300007],[14.198329573000024,40.84682417000005],[14.19828037600007,40.84657322600003],[14.198240508000026,40.846321328000045],[14.198210002000053,40.84606867700006],[14.198188881000021,40.84581547400006],[14.198177162000036,40.84556192000008],[14.198174854000058,40.845308215000045],[14.198181958000077,40.84505456200003],[14.198198470000023,40.84480116200007],[14.198224376000042,40.84454821500003],[14.198259655000072,40.84429592300006],[14.198304278000023,40.84404448600003],[14.198358212000073,40.84379410300005],[14.198421412000073,40.843544973000064],[14.19849382800004,40.84329729500007],[14.198575403000063,40.84305126400005],[14.198666072000037,40.84280707500005],[14.19876576300004,40.842564924000044],[14.198874396000065,40.84232500100006],[14.198991886000044,40.84208749700008],[14.199118139000063,40.841852602000074],[14.199253054000053,40.84162050000003],[14.199396525000054,40.841391377000036],[14.199548438000022,40.841165414000045],[14.199708671000053,40.84094279100003],[14.199877098000059,40.84072368400007],[14.200053585000035,40.840508268000065],[14.200237991000051,40.840296712000054],[14.20043017100005,40.84008918600006],[14.200629971000069,40.839885853000055],[14.200837234000062,40.83968687600003],[14.201051794000023,40.83949241100004],[14.201273481000044,40.839302614000076],[14.201502120000043,40.839117635000036],[14.201737528000024,40.83893762100007],[14.201979519000076,40.83876271500003],[14.202227900000025,40.83859305500005],[14.202482475000068,40.83842877600006],[14.202743042000066,40.83827000800005],[14.203009393000059,40.83811687800005],[14.203281318000052,40.837969507000025],[14.203558600000065,40.837828012000045],[14.203841019000038,40.837692505000064],[14.204128352000055,40.837563094000075],[14.204420370000037,40.83743988200007],[14.20471684100005,40.837322965000055],[14.205017530000077,40.83721243800005],[14.205322199000022,40.83710838700006],[14.205630606000057,40.83701089600004],[14.205942506000042,40.83692004100004],[14.206257651000044,40.836835895000036],[14.206575791000034,40.83675852500005],[14.206896675000053,40.836687991000076],[14.207220046000032,40.83662435000008],[14.207545650000043,40.83656765300003],[14.20787322700005,40.836517944000036],[14.208202517000075,40.83647526300007],[14.208533259000035,40.83643964300006],[14.20886519100003,40.836411113000054],[14.209198050000055,40.836389696000026],[14.209531570000024,40.83637540900003],[14.209865488000048,40.836368262000065],[14.21019953800004,40.836368262000065],[14.210533456000064,40.83637540900003],[14.210866976000034,40.836389696000026],[14.211199835000059,40.836411113000054],[14.211531767000054,40.83643964300006],[14.21186250900007,40.83647526300007],[14.212191799000038,40.836517944000036],[14.212519376000046,40.83656765300003],[14.212844980000057,40.83662435000008],[14.213168351000036,40.836687991000076],[14.213489235000054,40.83675852500005],[14.213807375000044,40.836835895000036],[14.214122520000046,40.83692004100004],[14.214434420000032,40.83701089600004],[14.214742827000066,40.83710838700006],[14.215047496000068,40.83721243800005],[14.215348185000039,40.837322965000055],[14.215644656000052,40.83743988200007],[14.215936674000034,40.837563094000075],[14.21622400700005,40.837692505000064],[14.216506426000024,40.837828012000045],[14.216783708000037,40.837969507000025],[14.21705563300003,40.83811687800005],[14.217321984000023,40.83827000800005],[14.217582551000078,40.83842877600006],[14.217837126000063,40.83859305500005],[14.218085507000069,40.83876271500003],[14.218327498000065,40.83893762100007],[14.218562906000045,40.839117635000036],[14.218791545000045,40.839302614000076],[14.219013232000066,40.83949241100004],[14.219227792000027,40.83968687600003],[14.219435055000076,40.839885853000055],[14.219634855000038,40.84008918600006],[14.219827035000037,40.840296712000054],[14.220011441000054,40.840508268000065],[14.22018792800003,40.84072368400007],[14.220356355000035,40.84094279100003],[14.220516588000066,40.841165414000045],[14.220668501000034,40.841391377000036],[14.220811972000035,40.84162050000003],[14.220946887000025,40.841852602000074],[14.221073140000044,40.84208749700008],[14.221190630000024,40.84232500100006],[14.221299263000049,40.842564924000044],[14.221398954000051,40.84280707500005],[14.221489623000025,40.84305126400005],[14.22157119800005,40.84329729500007],[14.221643614000072,40.843544973000064],[14.221706814000072,40.84379410300005],[14.221760748000065,40.84404448600003],[14.221805371000073,40.84429592300006],[14.221840650000047,40.84454821500003],[14.221866556000066,40.84480116200007],[14.221883068000068,40.84505456200003],[14.22189017200003,40.845308215000045],[14.221887864000053,40.84556192000008],[14.221876145000067,40.84581547400006],[14.221855024000035,40.84606867700006],[14.221824518000062,40.846321328000045],[14.221784650000075,40.84657322600003],[14.221735453000065,40.84682417000005],[14.221676966000075,40.84707396300007],[14.221609234000027,40.84732240500006],[14.221532311000033,40.84756930000003],[14.22144625900006,40.84781445100003],[14.221351145000028,40.84805766300008],[14.22124704600003,40.84829874500008],[14.221134043000063,40.848537503000045],[14.221012226000028,40.84877374900003],[14.220881691000045,40.849007295000035],[14.220742544000075,40.849237956000024],[14.220594892000065,40.84946554900006],[14.220438855000054,40.84968989200007],[14.22027455500006,40.84991080800006]]]]}},{"type":"Feature","properties":{"service_id":8,"population_total":28983.06,"thiessen_area_km2":3.0817},"geometry":{"type":"Polygon","coordinates":[[[14.196965141000021,40.830159098000024],[14.196696040000063,40.830309397000065],[14.196421470000075,40.830453876000036],[14.196141650000072,40.83059242300004],[14.195856800000058,40.83072492500003],[14.195567148000066,40.83085128000005],[14.195272923000061,40.830971385000055],[14.19497436000006,40.83108514500003],[14.194671695000068,40.831192472000055],[14.194365168000047,40.83129327800003],[14.194055023000033,40.83138748400006],[14.193741506000038,40.83147501500008],[14.193424866000043,40.831555802000025],[14.193105355000057,40.83162978100006],[14.192783226000074,40.831696892000025],[14.19245873500006,40.83175708300007],[14.19213214000007,40.83181030600008],[14.191803700000037,40.83185651800005],[14.191473676000044,40.83189568300003],[14.191142330000048,40.83192776900006],[14.190809925000053,40.83195275200006],[14.190476725000053,40.83197061100003],[14.19014299500003,40.831981332000055],[14.189809000000025,40.83198490600006],[14.189475005000077,40.831981332000055],[14.189141275000054,40.83197061100003],[14.188808075000054,40.83195275200006],[14.18847567000006,40.83192776900006],[14.188144324000064,40.83189568300003],[14.18781430000007,40.83185651800005],[14.187485860000038,40.83181030600008],[14.187159265000048,40.83175708300007],[14.186834774000033,40.831696892000025],[14.18651264500005,40.83162978100006],[14.186193134000064,40.831555802000025],[14.18587649400007,40.83147501500008],[14.185776669000063,40.83144714500003],[14.185715476000041,40.831389098000045],[14.185441537000031,40.83082285200004],[14.185412244000076,40.83081040400003],[14.185318702000075,40.830675074000055],[14.185214164000058,40.83052223300007],[14.185084801000073,40.83039301900004],[14.184908047000022,40.83030195200007],[14.184743340000068,40.83024185100004],[14.184660499000074,40.83019606800008],[14.184566235000034,40.830146299000035],[14.184460547000072,40.830092541000056],[14.184357109000075,40.83014350600007],[14.184200788000055,40.830150881000066],[14.184089411000059,40.830133131000025],[14.184079501000042,40.83003129400004],[14.184241170000064,40.82979119000004],[14.183304532000022,40.82925061800006],[14.183078247000026,40.82908686800005],[14.182760837000046,40.82885941500007],[14.182117991000041,40.82857560200006],[14.181851154000071,40.82881693200005],[14.181571484000074,40.82841408300004],[14.181261452000058,40.828069570000025],[14.181073384000058,40.82793311200004],[14.180952835000028,40.827851182000074],[14.18085744800004,40.82771428700005],[14.180517855000062,40.82754181300004],[14.180029296000043,40.82725007700003],[14.179115632000048,40.826811185000054],[14.179195320000076,40.82660005900004],[14.178917987000034,40.826533649000055],[14.178832981000028,40.82638150900004],[14.17871120500007,40.82614526200007],[14.178598240000042,40.825906502000066],[14.178494176000072,40.825665420000064],[14.178399094000042,40.82542220700003],[14.178313071000048,40.82517705500004],[14.178236174000062,40.824930159000075],[14.178168465000056,40.82468171600004],[14.178109997000035,40.82443192200003],[14.178060816000027,40.824180977000026],[14.178020962000062,40.82392907800005],[14.17799046600004,40.82367642600008],[14.177969352000048,40.82342322200003],[14.177957637000077,40.82316966700006],[14.177955330000032,40.822915962000025],[14.177962432000072,40.82266230700003],[14.177978938000024,40.82240890600008],[14.178004835000024,40.82215595800005],[14.178040102000068,40.821903665000036],[14.178084710000064,40.82165222700007],[14.178138626000077,40.82140184300005],[14.178201804000025,40.82115271300006],[14.178274196000075,40.82090503300003],[14.178355744000044,40.82065900100008],[14.178446382000061,40.82041481200008],[14.178546040000072,40.820172659000036],[14.178654637000022,40.819932735000066],[14.178772087000027,40.819695231000026],[14.178898297000046,40.81946033400004],[14.179033167000057,40.81922823200006],[14.179176590000054,40.81899910800007],[14.17932845100006,40.81877314400003],[14.179488630000037,40.81855052000003],[14.179657000000077,40.81833141300007],[14.179833428000052,40.81811599500003],[14.180017772000042,40.817904439000074],[14.180209887000046,40.81769691200003],[14.180409621000024,40.81749357800004],[14.180616814000075,40.817294600000025],[14.180831301000069,40.81710013500003],[14.181052914000077,40.816910337000024],[14.181281476000038,40.81672535700005],[14.181516804000069,40.81654534200004],[14.181758714000068,40.81637043500007],[14.182007012000042,40.81620077400004],[14.182261502000074,40.81603649500005],[14.182521981000036,40.81587772700004],[14.182788242000072,40.81572459600005],[14.183060075000071,40.81557722500003],[14.183337264000045,40.81543572900006],[14.183619589000045,40.815300222000076],[14.183906825000065,40.81517081000004],[14.18419874400007,40.815047597000046],[14.18449511600005,40.81493068000003],[14.184795704000067,40.81482015200004],[14.185100270000078,40.814716101000045],[14.185408573000075,40.814618609000036],[14.185720368000034,40.81452775400004],[14.186035407000077,40.81444360800003],[14.186353441000051,40.81436623700006],[14.186674216000029,40.81429570300003],[14.18699747900007,40.81423206200003],[14.18732297300005,40.81417536500004],[14.187650440000027,40.814125655000055],[14.187979619000032,40.81408297400003],[14.188310250000029,40.814047354000024],[14.18864207100006,40.81401882500006],[14.18897481700003,40.813997407000045],[14.189308225000048,40.813983120000046],[14.189642031000062,40.813975973000026],[14.189975969000045,40.813975973000026],[14.19030977500006,40.813983120000046],[14.190643183000077,40.813997407000045],[14.190975929000047,40.81401882500006],[14.191307750000021,40.814047354000024],[14.191638381000075,40.81408297400003],[14.191967560000023,40.814125655000055],[14.192295027000057,40.81417536500004],[14.192620521000038,40.81423206200003],[14.192943784000022,40.81429570300003],[14.193264559000056,40.81436623700006],[14.19358259300003,40.81444360800003],[14.193897632000073,40.81452775400004],[14.194209427000033,40.814618609000036],[14.19451773000003,40.814716101000045],[14.19482229600004,40.81482015200004],[14.195122884000057,40.81493068000003],[14.195419256000037,40.815047597000046],[14.195711175000042,40.81517081000004],[14.195998411000062,40.815300222000076],[14.196280736000062,40.81543572900006],[14.196557925000036,40.81557722500003],[14.196829758000035,40.81572459600005],[14.197096019000071,40.81587772700004],[14.197356498000033,40.81603649500005],[14.197610988000065,40.81620077400004],[14.197859286000039,40.81637043500007],[14.198101196000039,40.81654534200004],[14.19833652400007,40.81672535700005],[14.19856508600003,40.816910337000024],[14.198786699000038,40.81710013500003],[14.199001186000032,40.817294600000025],[14.199208379000027,40.81749357800004],[14.199408113000061,40.81769691200003],[14.199600228000065,40.817904439000074],[14.199784572000056,40.81811599500003],[14.19996100000003,40.81833141300007],[14.20012937000007,40.81855052000003],[14.200289549000047,40.81877314400003],[14.200441410000053,40.81899910800007],[14.20058483300005,40.81922823200006],[14.200719703000061,40.81946033400004],[14.200845913000023,40.819695231000026],[14.200963363000028,40.819932735000066],[14.201071960000036,40.820172659000036],[14.201171618000046,40.82041481200008],[14.201262256000064,40.82065900100008],[14.201343804000032,40.82090503300003],[14.201416196000025,40.82115271300006],[14.20147937400003,40.82140184300005],[14.201533290000043,40.82165222700007],[14.20157789800004,40.821903665000036],[14.201613165000026,40.82215595800005],[14.201639062000027,40.82240890600008],[14.201655568000035,40.82266230700003],[14.201662670000076,40.822915962000025],[14.20166036300003,40.82316966700006],[14.20164864800006,40.82342322200003],[14.201627534000067,40.82367642600008],[14.201597038000045,40.82392907800005],[14.201557184000023,40.824180977000026],[14.201508003000072,40.82443192200003],[14.201449535000052,40.82468171600004],[14.201381826000045,40.824930159000075],[14.20130492900006,40.82517705500004],[14.201218906000065,40.82542220700003],[14.201123824000035,40.825665420000064],[14.201019760000065,40.825906502000066],[14.200906795000037,40.82614526200007],[14.200785019000023,40.82638150900004],[14.20065452800003,40.82661505600004],[14.200515427000028,40.82684571800007],[14.200367826000047,40.82707331100005],[14.200211841000055,40.82729765500005],[14.200047596000047,40.82751857200003],[14.19987522300005,40.82773588600003],[14.199694856000065,40.82794942500004],[14.199506641000028,40.828159019000054],[14.199310725000032,40.828364502000056],[14.199107265000066,40.82856571100007],[14.198896422000075,40.82876248500003],[14.198678364000045,40.82895466900004],[14.198453263000033,40.82914211000008],[14.198221298000021,40.829324660000054],[14.197982653000054,40.82950217200005],[14.197737518000054,40.82967450700005],[14.197486087000073,40.82984152700004],[14.197228560000042,40.830003101000045],[14.196965141000021,40.830159098000024]]]}},{"type":"Feature","properties":{"service_id":9,"population_total":10332.96,"thiessen_area_km2":1.6769},"geometry":{"type":"Polygon","coordinates":[[[14.310001054000054,40.839244576000056],[14.30383884500003,40.84217995500006],[14.301758192000023,40.84304306000007],[14.290686263000055,40.845120345000055],[14.290437686000075,40.84516698200008],[14.290272379000044,40.84519799700007],[14.29012055800007,40.84483755900004],[14.289842071000066,40.84417640600003],[14.289458942000067,40.84326682300008],[14.288489751000043,40.84096587300007],[14.288503051000077,40.84076175400003],[14.28852895500006,40.84050880800004],[14.288564231000066,40.84025651500008],[14.288608852000038,40.84000507800005],[14.288662782000074,40.83975469500007],[14.288725979000048,40.839505565000024],[14.288798390000068,40.83925788600004],[14.288835886000072,40.83914479100008],[14.289130833000058,40.839021538000054],[14.289274130000024,40.83897893900007],[14.289881346000072,40.83870368800007],[14.290177750000055,40.839116911000076],[14.290299607000065,40.839074683000035],[14.29035901800006,40.83904374700006],[14.290059573000065,40.83864810000006],[14.290047698000024,40.838619003000076],[14.290096923000021,40.83861250500007],[14.290389514000026,40.83849101700008],[14.290800271000023,40.83833366500005],[14.290859778000026,40.83830283900005],[14.290732921000028,40.83813408100008],[14.290676619000067,40.838059186000066],[14.290297089000035,40.83754547700005],[14.289928048000036,40.837021640000046],[14.290013160000058,40.83690338100007],[14.290181576000066,40.83668427400005],[14.290358052000045,40.83646885700006],[14.290542448000053,40.836257302000035],[14.290734616000066,40.83604977500005],[14.29093440400004,40.83584644200005],[14.290953411000032,40.835828194000044],[14.29096970300003,40.83585109000006],[14.291298083000072,40.836312570000075],[14.292234441000062,40.83757340400007],[14.29233853900007,40.83772649400004],[14.292406280000023,40.83769354800006],[14.292466047000062,40.83766220700005],[14.292748042000028,40.83750644400004],[14.292808320000063,40.83747352300003],[14.293057069000042,40.83733863900005],[14.29311722400007,40.83730611300007],[14.293656371000054,40.83701578800003],[14.293716894000056,40.83698366600004],[14.294279411000048,40.83668972900006],[14.294340391000048,40.83665787500007],[14.294544044000077,40.836551489000044],[14.294605152000031,40.836519632000034],[14.295244167000021,40.83618321700004],[14.295302053000057,40.836149352000064],[14.295130605000054,40.83594117700005],[14.294952626000054,40.83576614900005],[14.294702178000023,40.83551985200006],[14.294569427000056,40.835576968000055],[14.294397127000025,40.83539005200004],[14.29446487100006,40.83534661900006],[14.294521430000032,40.83531020600003],[14.294295150000039,40.83508097300006],[14.29417264500006,40.835130427000024],[14.29403269900007,40.83496895900004],[14.294067126000073,40.83493109400007],[14.294114240000056,40.83488677200006],[14.293883003000076,40.83464592200005],[14.293765582000049,40.83469540700003],[14.293596645000036,40.83450663100007],[14.293638670000064,40.83447544100005],[14.29369209600003,40.83443621200007],[14.293349816000045,40.834057882000025],[14.293585590000077,40.83393009500003],[14.293862855000043,40.83378860000005],[14.294145257000025,40.833653093000066],[14.294432572000062,40.83352368200008],[14.294461126000044,40.83351163300006],[14.29592281600003,40.83510274300005],[14.296039202000031,40.83502270900004],[14.296097177000036,40.83498599100005],[14.296184186000062,40.83493508300006],[14.296244196000032,40.83490313000004],[14.296327922000046,40.83486172500005],[14.296388069000045,40.83483029100006],[14.29656771200007,40.83473827300003],[14.296628475000034,40.83470695200003],[14.298231325000074,40.833840405000046],[14.298289737000061,40.833805433000066],[14.297231219000025,40.83264257700006],[14.297524079000027,40.832584937000036],[14.297849663000022,40.832528240000045],[14.29817722000007,40.83247853100005],[14.298506490000022,40.832435849000035],[14.298736252000026,40.83241110300003],[14.29888875100005,40.83257649500007],[14.299084730000061,40.832848058000025],[14.299271417000057,40.83300823600007],[14.29941750300003,40.83304888400005],[14.299898877000032,40.83305180800005],[14.300453168000047,40.833086980000076],[14.300578827000038,40.833079791000046],[14.300683391000064,40.833088377000024],[14.300724664000029,40.83314429200004],[14.300723911000034,40.83321585600004],[14.30066602100004,40.83325666400003],[14.30037707300005,40.83335689100005],[14.299929705000068,40.83356721600006],[14.299867986000038,40.83359875700006],[14.299655244000064,40.833714583000074],[14.299692139000058,40.83380203000007],[14.299701767000045,40.83388160900006],[14.299795781000057,40.833898085000044],[14.299926499000037,40.833848217000025],[14.300560349000023,40.83351776600006],[14.300615723000021,40.83348108700005],[14.300840135000044,40.833294110000054],[14.300890533000029,40.83325234800003],[14.301040134000061,40.83312893900006],[14.301096217000065,40.83309210400006],[14.301207370000043,40.83303118100008],[14.301259906000041,40.833000421000065],[14.301282035000042,40.83288998200004],[14.301334746000066,40.832849785000064],[14.301512726000055,40.83284291100006],[14.301837547000048,40.83280511600003],[14.302162949000035,40.832711661000076],[14.302520412000035,40.832554781000056],[14.302644514000065,40.83250114000003],[14.302823087000036,40.832528240000045],[14.30314867100003,40.832584937000036],[14.30347202300004,40.83264857800003],[14.303792887000043,40.83271911200006],[14.304111008000064,40.83279648200005],[14.304426134000039,40.832880628000055],[14.304738015000055,40.83297148300005],[14.305046403000063,40.83306897400007],[14.305351053000038,40.833173025000065],[14.305651724000029,40.83328355300006],[14.305948178000051,40.833400469000026],[14.306240178000053,40.83352368200008],[14.306527493000033,40.833653093000066],[14.306809895000072,40.83378860000005],[14.307087160000037,40.83393009500003],[14.30735906800004,40.83407746600005],[14.307625403000031,40.834230596000054],[14.307885954000028,40.83438936400006],[14.308140514000058,40.83455364300005],[14.308388881000042,40.83472330300003],[14.308630857000026,40.83489821000006],[14.30886625100004,40.83507822400003],[14.309094875000028,40.83526320300007],[14.309316549000073,40.83545300000003],[14.309531096000057,40.83564746500008],[14.309738346000074,40.83584644200005],[14.309938134000049,40.83604977500005],[14.310130302000061,40.836257302000035],[14.31031469800007,40.83646885700006],[14.310491174000049,40.83668427400005],[14.310659590000057,40.83690338100007],[14.31081981400007,40.83712600400003],[14.31097171700003,40.837351967000075],[14.311115179000069,40.83758109100006],[14.311250087000076,40.837813192000056],[14.311376332000066,40.83804808800005],[14.311493814000073,40.838285592000034],[14.311586143000056,40.83848951700003],[14.310557814000049,40.83897936300008],[14.310499839000045,40.83900697900003],[14.310001054000054,40.839244576000056]]]}},{"type":"Feature","properties":{"service_id":10,"population_total":385.03,"thiessen_area_km2":0.8152},"geometry":{"type":"Polygon","coordinates":[[[14.301320317000034,40.84683732900004],[14.300525224000069,40.85033570400003],[14.29967147700006,40.85409215400006],[14.299670743000036,40.85409538500005],[14.299387747000026,40.85406798900004],[14.299057613000059,40.85402882500006],[14.298729064000042,40.85398261300003],[14.298402360000068,40.853929390000076],[14.298274400000025,40.853905663000035],[14.298077761000059,40.85386920000008],[14.297755524000024,40.853802089000055],[14.297435907000022,40.85372811000008],[14.297119161000069,40.853647323000075],[14.296805540000037,40.853559792000055],[14.296495292000031,40.85346558700007],[14.296188663000066,40.85336478100004],[14.295885896000073,40.85325745500006],[14.295587233000049,40.85314369500003],[14.295292911000047,40.85302359000008],[14.295003162000057,40.85289723600005],[14.294718218000071,40.85276473400006],[14.294438304000039,40.852626188000045],[14.294163642000058,40.852481709000074],[14.293894452000075,40.85233141100008],[14.293630945000075,40.852175414000044],[14.293373333000034,40.852013842000076],[14.293121818000031,40.85184682200003],[14.292876601000046,40.85167448800007],[14.292637877000061,40.85149697600008],[14.292405834000022,40.851314427000034],[14.29218369800003,40.85112951700006],[14.292180658000063,40.85112698700004],[14.291962527000067,40.850934804000076],[14.291751614000077,40.85073803000006],[14.291548086000034,40.85053682200004],[14.29142285200004,40.85040551700007],[14.29107117500007,40.848813681000024],[14.290843557000073,40.84778338600006],[14.290538696000056,40.846403457000065],[14.290460443000029,40.84604925200006],[14.290272379000044,40.84519799700007],[14.290437686000075,40.84516698200008],[14.290686263000055,40.845120345000055],[14.301758192000023,40.84304306000007],[14.301320317000034,40.84683732900004]]]}},{"type":"Feature","properties":{"service_id":11,"population_total":425.82,"thiessen_area_km2":0.0352},"geometry":{"type":"Polygon","coordinates":[[[14.30383884500003,40.84217995500006],[14.301320317000034,40.84683732900004],[14.301758192000023,40.84304306000007],[14.30383884500003,40.84217995500006]]]}},{"type":"Feature","properties":{"service_id":12,"population_total":4309.41,"thiessen_area_km2":1.4034},"geometry":{"type":"Polygon","coordinates":[[[14.310584680000034,40.83899878100004],[14.31082008800007,40.839178795000066],[14.31104872700007,40.83936377400005],[14.311270414000035,40.83955357100007],[14.311484975000042,40.83974803600006],[14.311692237000045,40.83994701300003],[14.311892038000053,40.84015034600003],[14.312084218000052,40.84035787200003],[14.312130041000046,40.840410441000074],[14.312268625000058,40.84056942800004],[14.312445112000034,40.84078484400004],[14.31261353900004,40.84100395100006],[14.312773772000071,40.841226574000075],[14.312925685000039,40.841452537000066],[14.31306915600004,40.84168166000006],[14.31320407100003,40.84191376200005],[14.313330324000049,40.84214865700005],[14.313447814000028,40.842386161000036],[14.313556447000053,40.842626084000074],[14.313656138000056,40.842868235000026],[14.31374680700003,40.843112424000026],[14.313828383000043,40.84335845500004],[14.313900799000066,40.84360613300004],[14.313963999000066,40.84385526300008],[14.31401793200007,40.84410564600006],[14.314062556000067,40.844357083000034],[14.314097835000041,40.84460937500006],[14.31412374100006,40.84486232200004],[14.314140252000072,40.84511572200006],[14.314147357000024,40.845369375000075],[14.314145049000047,40.84562308000005],[14.314133330000061,40.845876634000035],[14.31411220900003,40.846129837000035],[14.314081702000067,40.846382488000074],[14.314041835000069,40.84663438600006],[14.313992638000059,40.84688533000008],[14.313934150000023,40.847135123000044],[14.313866418000032,40.84738356500003],[14.313789496000027,40.84763046000006],[14.313703444000055,40.84787561100006],[14.313608330000022,40.84811882300005],[14.313504230000035,40.84835990500005],[14.313391227000068,40.848598663000075],[14.313269410000032,40.84883490900006],[14.31313887500005,40.849068455000065],[14.312999727000033,40.849299116000054],[14.31285207600007,40.84952670900003],[14.31269603800007,40.849751052000045],[14.312531739000065,40.849971968000034],[14.312359307000065,40.85018928100004],[14.312178880000033,40.85040281900007],[14.311990601000048,40.85061241300008],[14.311794619000068,40.850817895000034],[14.311591090000036,40.851019103000056],[14.311380176000057,40.851215876000026],[14.31116204400007,40.85140806000004],[14.310936867000066,40.85159550000003],[14.310704824000027,40.851778049000075],[14.310466098000063,40.85195556100007],[14.310220881000077,40.85212789500008],[14.309969365000029,40.852294914000026],[14.309711751000066,40.85245648700004],[14.309448244000066,40.852612484000076],[14.309179052000047,40.85276278200007],[14.308904389000077,40.85290726100004],[14.308624474000055,40.85304580700006],[14.308339528000033,40.85317830900004],[14.308049779000044,40.853304663000074],[14.307755455000063,40.853424767000035],[14.30745679000006,40.85353852800006],[14.307154023000066,40.853645853000046],[14.306847393000055,40.85374665900008],[14.306537143000071,40.85384086500005],[14.30622352000006,40.85392839600007],[14.30590677400005,40.85400918300007],[14.305587154000023,40.85408316100006],[14.305264917000045,40.85415027200003],[14.304940316000057,40.85421046300007],[14.304613611000036,40.854263685000035],[14.30428506000004,40.854309897000064],[14.303954925000028,40.85434906200004],[14.303623467000023,40.85438114800007],[14.303290950000076,40.854406131000076],[14.302957638000066,40.854423989000054],[14.302623795000045,40.85443471000008],[14.30228968700004,40.85443828500007],[14.301955579000037,40.85443471000008],[14.301621736000072,40.854423989000054],[14.301288424000063,40.854406131000076],[14.30095590700006,40.85438114800007],[14.300624449000054,40.85434906200004],[14.300294314000041,40.854309897000064],[14.299965763000046,40.854263685000035],[14.299644391000072,40.854211332000034],[14.299670743000036,40.85409538500005],[14.29967147700006,40.85409215400006],[14.300525224000069,40.85033570400003],[14.301320317000034,40.84683732900004],[14.30383884500003,40.84217995500006],[14.310001054000054,40.839244576000056],[14.310499839000045,40.83900697900003],[14.310557814000049,40.83897936300008],[14.310584680000034,40.83899878100004]]]}},{"type":"Feature","properties":{"service_id":13,"population_total":17858.74,"thiessen_area_km2":3.1412},"geometry":{"type":"Polygon","coordinates":[[[14.323794220000025,40.85060494100003],[14.324128209000037,40.85061208700006],[14.32446180100004,40.85062637500005],[14.324794731000054,40.850647792000075],[14.325126734000037,40.85067632100004],[14.325457547000042,40.85071194100004],[14.325786907000065,40.85075462200007],[14.326114554000071,40.85080433100006],[14.326440227000035,40.850861028000054],[14.32676366800007,40.85092466800006],[14.32708462100004,40.850995202000036],[14.32740282900005,40.85107257200008],[14.327718042000072,40.85115671800003],[14.328030008000042,40.85124757300008],[14.32833848100006,40.85134506400004],[14.328643215000056,40.85144911400005],[14.328943969000022,40.85155964100005],[14.329240503000051,40.851676557000076],[14.329532584000049,40.85179977000007],[14.329819978000046,40.85192918000007],[14.330102458000056,40.85206468700005],[14.33037979900007,40.85220618100004],[14.330651782000075,40.85235355200007],[14.330918190000034,40.85250668200007],[14.331178812000076,40.85266544900003],[14.331433442000048,40.85282972700003],[14.331681877000051,40.85299938700007],[14.331923920000065,40.85317429300005],[14.332159378000028,40.853354307000075],[14.332388066000021,40.85353928500007],[14.332609800000057,40.85372908200003],[14.332824406000043,40.85392354600003],[14.333031713000025,40.85412252300006],[14.333231556000044,40.85432585500007],[14.333423777000064,40.85453338100007],[14.333608223000056,40.85474493500004],[14.333784748000028,40.854960352000035],[14.33395321100005,40.855179458000066],[14.334113478000063,40.85540208000003],[14.334265423000033,40.855628043000024],[14.334408925000048,40.85585716500003],[14.334543869000072,40.856089266000026],[14.334670149000033,40.85632416100003],[14.334787664000032,40.856561664000026],[14.33489632100003,40.856801586000074],[14.334996033000039,40.857043737000026],[14.335086721000039,40.85728792500004],[14.335168314000043,40.857533956000054],[14.335240746000068,40.85778163400005],[14.335303959000044,40.858030763000045],[14.335357904000034,40.858281145000035],[14.33540253800004,40.85853258100008],[14.335437824000053,40.85878487300005],[14.335463735000076,40.85903781900004],[14.335480250000046,40.859291219000056],[14.335487357000034,40.859544871000026],[14.335485048000066,40.85979857500007],[14.335473326000056,40.86005212900005],[14.335452201000066,40.86030533100006],[14.335421688000054,40.860557981000056],[14.335381812000037,40.860809878000055],[14.335332605000076,40.86106082200007],[14.335274105000053,40.861310615000036],[14.33520635800005,40.86155905600003],[14.335129419000054,40.861805950000075],[14.335043349000046,40.86205110000003],[14.334948215000054,40.862294312000074],[14.334844093000072,40.86253539300003],[14.334731065000028,40.86277415100005],[14.33460922200004,40.86301039700004],[14.334478660000059,40.863243942000054],[14.334339483000065,40.86347460200005],[14.334191800000042,40.86370219400004],[14.33403572900005,40.863926537000054],[14.333871394000028,40.864147453000044],[14.333698925000022,40.86436476500006],[14.33351846000005,40.86457830300003],[14.333330141000033,40.86478789600005],[14.333134117000043,40.864993377000076],[14.332930545000067,40.86519458500004],[14.332719586000053,40.86539135800007],[14.332501408000041,40.865583541000035],[14.332276183000033,40.865770981000026],[14.332044090000068,40.86595352900008],[14.331805314000064,40.86613104000003],[14.33156004400007,40.86630337400004],[14.331308474000025,40.86647039300004],[14.331050806000064,40.86663196600006],[14.330787242000042,40.866787962000046],[14.330517993000058,40.86693826000004],[14.330243272000075,40.86708273800008],[14.329963297000063,40.86722128400004],[14.32967829000006,40.86735378600008],[14.329388479000045,40.867480139000065],[14.329094092000048,40.86760024400007],[14.32879536400003,40.86771400400005],[14.328492532000041,40.86782132900004],[14.328185836000046,40.86792213500007],[14.327875520000077,40.868016340000054],[14.327561831000025,40.86810387100007],[14.327245017000052,40.868184658000075],[14.326925330000051,40.868258636000064],[14.326603023000075,40.86832574700003],[14.326278354000067,40.86838593700003],[14.325951579000048,40.86843916000004],[14.325622958000054,40.86848537100008],[14.325292752000053,40.86852453600005],[14.32496122300006,40.86855662200003],[14.324628635000067,40.86858160400004],[14.32429525200007,40.868599463000066],[14.32396133800006,40.86861018400003],[14.323627159000068,40.86861375900003],[14.323292980000076,40.86861018400003],[14.322959066000067,40.868599463000066],[14.32262568300007,40.86858160400004],[14.322293095000077,40.86855662200003],[14.321961566000027,40.86852453600005],[14.321631360000026,40.86848537100008],[14.321302739000032,40.86843916000004],[14.32097596400007,40.86838593700003],[14.320651295000062,40.86832574700003],[14.320328988000028,40.868258636000064],[14.320009301000027,40.868184658000075],[14.319692487000054,40.86810387100007],[14.31937879800006,40.868016340000054],[14.319068482000034,40.86792213500007],[14.318761786000039,40.86782132900004],[14.31845895400005,40.86771400400005],[14.318160226000032,40.86760024400007],[14.317865839000035,40.867480139000065],[14.317576028000076,40.86735378600008],[14.317291021000074,40.86722128400004],[14.317011046000061,40.86708273800008],[14.316736325000022,40.86693826000004],[14.316467076000038,40.866787962000046],[14.316203512000072,40.86663196600006],[14.315945844000055,40.86647039300004],[14.315694274000066,40.86630337400004],[14.315449004000072,40.86613104000003],[14.315210228000069,40.86595352900008],[14.314978135000047,40.865770981000026],[14.314752910000038,40.865583541000035],[14.314534732000027,40.86539135800007],[14.31432377300007,40.86519458500004],[14.314120201000037,40.864993377000076],[14.313924177000047,40.86478789600005],[14.31373585800003,40.86457830300003],[14.313555393000058,40.86436476500006],[14.313382924000052,40.864147453000044],[14.31321858900003,40.863926537000054],[14.313062518000038,40.86370219400004],[14.312914835000072,40.86347460200005],[14.312775658000078,40.863243942000054],[14.31264509600004,40.86301039700004],[14.312523253000052,40.86277415100005],[14.312410225000065,40.86253539300003],[14.312306103000026,40.862294312000074],[14.312210969000034,40.86205110000003],[14.312124899000025,40.861805950000075],[14.31204796000003,40.86155905600003],[14.311980213000027,40.861310615000036],[14.31192171300006,40.86106082200007],[14.311872506000043,40.860809878000055],[14.311832630000026,40.860557981000056],[14.31180211700007,40.86030533100006],[14.311780992000024,40.86005212900005],[14.31176927000007,40.85979857500007],[14.311766961000046,40.859544871000026],[14.311774068000034,40.859291219000056],[14.311790583000061,40.85903781900004],[14.311816494000027,40.85878487300005],[14.31185178000004,40.85853258100008],[14.311896414000046,40.858281145000035],[14.311950359000036,40.858030763000045],[14.312013572000069,40.85778163400005],[14.312086004000037,40.857533956000054],[14.312167597000041,40.85728792500004],[14.312258285000041,40.857043737000026],[14.31235799700005,40.856801586000074],[14.312466654000048,40.856561664000026],[14.312584169000047,40.85632416100003],[14.312710449000065,40.856089266000026],[14.312845393000032,40.85585716500003],[14.312988895000046,40.855628043000024],[14.313140840000074,40.85540208000003],[14.31330110700003,40.855179458000066],[14.313469570000052,40.854960352000035],[14.313646095000024,40.85474493500004],[14.313830541000073,40.85453338100007],[14.314022762000036,40.85432585500007],[14.314222605000055,40.85412252300006],[14.314429912000037,40.85392354600003],[14.314644518000023,40.85372908200003],[14.314866252000058,40.85353928500007],[14.315094940000051,40.853354307000075],[14.315330398000071,40.85317429300005],[14.315572441000029,40.85299938700007],[14.315820876000032,40.85282972700003],[14.316075506000061,40.85266544900003],[14.316336128000046,40.85250668200007],[14.316602536000062,40.85235355200007],[14.316874519000066,40.85220618100004],[14.317151860000024,40.85206468700005],[14.317434340000034,40.85192918000007],[14.317721734000031,40.85179977000007],[14.318013815000029,40.851676557000076],[14.318310349000058,40.85155964100005],[14.318611103000023,40.85144911400005],[14.318915837000077,40.85134506400004],[14.319224310000038,40.85124757300008],[14.319536276000065,40.85115671800003],[14.31985148900003,40.85107257200008],[14.32016969700004,40.850995202000036],[14.320490650000067,40.85092466800006],[14.320814091000045,40.850861028000054],[14.321139764000065,40.85080433100006],[14.321467411000071,40.85075462200007],[14.321796771000038,40.85071194100004],[14.322127584000043,40.85067632100004],[14.322459587000026,40.850647792000075],[14.322792517000039,40.85062637500005],[14.323126109000043,40.85061208700006],[14.323460098000055,40.85060494100003],[14.323794220000025,40.85060494100003]]]}},{"type":"Feature","properties":{"service_id":14,"population_total":8518.01,"thiessen_area_km2":2.7076},"geometry":{"type":"Polygon","coordinates":[[[14.300483089000068,40.86182204800008],[14.300817135000045,40.86182919500004],[14.301150783000026,40.86184348200004],[14.301483769000072,40.86186489900007],[14.30181582800003,40.86189342900008],[14.302146696000023,40.861929048000036],[14.302476113000068,40.86197172900006],[14.302803815000061,40.862021438000056],[14.303129543000068,40.86207813500005],[14.303453039000033,40.862141775000055],[14.303774045000068,40.86221230900003],[14.304092307000076,40.86228967900007],[14.304407573000049,40.86237382400003],[14.304719592000026,40.86246467900003],[14.305028117000063,40.86256217000005],[14.305332902000032,40.86266622000005],[14.305633707000027,40.862776747000055],[14.305930291000038,40.86289366300008],[14.30622242100003,40.86301687500003],[14.30650986300003,40.86314628500003],[14.306792391000045,40.86328179100008],[14.307069779000074,40.86342328600006],[14.307341808000047,40.863570656000036],[14.307608261000041,40.86372378500005],[14.307868927000072,40.863882552000064],[14.308123600000044,40.86404683000006],[14.308372077000058,40.86421649000005],[14.308614160000047,40.86439139500004],[14.308849659000032,40.864571409000064],[14.309078385000078,40.86475638700006],[14.309300157000052,40.86494618300003],[14.309514799000056,40.86514064700003],[14.309722141000066,40.86533962300007],[14.309922018000066,40.86554295500008],[14.310114271000032,40.86575048000003],[14.310298748000037,40.86596203500005],[14.310475303000032,40.866177450000066],[14.310643794000043,40.86639655600004],[14.310804089000044,40.866619178000064],[14.310956059000034,40.866845140000066],[14.311014055000044,40.866937723000035],[14.309540602000027,40.86954363500007],[14.30397197600007,40.87939216800004],[14.303934468000023,40.87940173100003],[14.303614727000024,40.879475709000076],[14.30329236700004,40.87954282000004],[14.302967642000056,40.87960301000004],[14.30264081200005,40.87965623200006],[14.302312136000069,40.87970244400003],[14.301981874000035,40.879741608000074],[14.301650290000055,40.87977369500004],[14.301539946000048,40.879781982000054],[14.30131764500004,40.87979867700005],[14.300984206000066,40.87981653600008],[14.300650236000024,40.879827257000045],[14.300316000000066,40.87983083100005],[14.299981764000051,40.879827257000045],[14.299647794000066,40.87981653600008],[14.299314355000035,40.87979867700005],[14.298981710000078,40.87977369500004],[14.298650126000041,40.879741608000074],[14.298319864000064,40.87970244400003],[14.297991188000026,40.87965623200006],[14.297664358000077,40.87960301000004],[14.297339633000036,40.87954282000004],[14.297017273000051,40.879475709000076],[14.296697532000053,40.87940173100003],[14.296380664000026,40.87932094400003],[14.296066921000033,40.879233414000055],[14.295756553000047,40.879139208000026],[14.295449806000022,40.87903840300004],[14.295146923000061,40.87893107800005],[14.29484814400007,40.878817318000074],[14.294553708000024,40.878697214000056],[14.294263847000025,40.87857086100007],[14.293978793000065,40.87843835900003],[14.293698771000038,40.87829981400006],[14.293424003000041,40.87815533500003],[14.293154709000078,40.878005038000026],[14.292891100000077,40.87784904200004],[14.29263338800007,40.87768747000007],[14.29238177700006,40.877520451000066],[14.292136465000056,40.877348117000054],[14.291897649000077,40.87717060600005],[14.29166551700007,40.87698805900004],[14.291440253000076,40.87680061900005],[14.291222038000058,40.876608436000026],[14.291011043000026,40.876411664000045],[14.290830011000025,40.876232765000054],[14.290807437000069,40.87621045700007],[14.290611381000076,40.87600497500006],[14.290423030000056,40.875795383000025],[14.290411637000034,40.875781904000064],[14.289527088000057,40.86832750000008],[14.289443463000055,40.86762276500008],[14.289989680000076,40.86639463900008],[14.290156697000043,40.866177450000066],[14.290333252000039,40.86596203500005],[14.290517729000044,40.86575048000003],[14.290709982000067,40.86554295500008],[14.290909859000067,40.86533962300007],[14.291117201000077,40.86514064700003],[14.291331843000023,40.86494618300003],[14.291553615000055,40.86475638700006],[14.291782341000044,40.864571409000064],[14.292017840000028,40.86439139500004],[14.292259923000074,40.86421649000005],[14.292508400000031,40.86404683000006],[14.29276307300006,40.863882552000064],[14.293023739000034,40.86372378500005],[14.293290192000029,40.863570656000036],[14.293562221000059,40.86342328600006],[14.293839609000031,40.86328179100008],[14.294122137000045,40.86314628500003],[14.294409579000046,40.86301687500003],[14.294701709000037,40.86289366300008],[14.294998293000049,40.862776747000055],[14.295299098000044,40.86266622000005],[14.29560388300007,40.86256217000005],[14.29591240800005,40.86246467900003],[14.296224427000027,40.86237382400003],[14.296539693000057,40.86228967900007],[14.296857955000064,40.86221230900003],[14.297178961000043,40.862141775000055],[14.297502457000064,40.86207813500005],[14.297828185000071,40.862021438000056],[14.298155887000064,40.86197172900006],[14.298485304000053,40.861929048000036],[14.298816172000045,40.86189342900008],[14.29914823100006,40.86186489900007],[14.29948121700005,40.86184348200004],[14.29981486500003,40.86182919500004],[14.300148911000065,40.86182204800008],[14.300483089000068,40.86182204800008]]]}},{"type":"Feature","properties":{"service_id":15,"population_total":4137.38,"thiessen_area_km2":1.6738},"geometry":{"type":"Polygon","coordinates":[[[14.306450787000074,40.875314056000036],[14.306180767000058,40.875637115000075],[14.306138270000076,40.875683680000066],[14.306208254000069,40.87602967000004],[14.306223014000068,40.87610990100006],[14.30623316200007,40.876166097000066],[14.306312691000073,40.876622644000065],[14.306322676000036,40.87667964600007],[14.306332958000041,40.876737035000076],[14.30642195400003,40.87703032400003],[14.306480151000073,40.87726406400003],[14.306490550000035,40.87730675600005],[14.306618795000077,40.877832211000054],[14.306783858000074,40.878373717000045],[14.306784280000045,40.87837510000003],[14.307409611000026,40.87947821400007],[14.308492080000065,40.88029104800006],[14.308712890000038,40.88035473100007],[14.308791515000053,40.880451734000076],[14.308945119000043,40.88055135700006],[14.309043995000025,40.88065731800003],[14.309624539000026,40.880821076000075],[14.310508953000067,40.881142304000036],[14.310964066000054,40.88127867800006],[14.310930585000051,40.88134205800003],[14.31083890900004,40.88151807500003],[14.310612226000046,40.881750459000045],[14.310565619000045,40.88179777800008],[14.310513728000046,40.88184723300003],[14.310399533000066,40.88188526300007],[14.310337725000068,40.88191543200003],[14.309927954000045,40.88207032100007],[14.309377834000031,40.88239255600007],[14.30932093000007,40.88242896500003],[14.309160806000023,40.882868495000025],[14.309227383000064,40.88332006200005],[14.309410606000029,40.883643128000074],[14.309426403000032,40.88367098300006],[14.309051828000065,40.88375018900007],[14.308773846000065,40.883764126000074],[14.308687706000057,40.88376810400007],[14.308593065000025,40.88377247200003],[14.307997507000039,40.88377521700005],[14.307675946000074,40.88395705200003],[14.307617654000069,40.88399305200005],[14.30751213700006,40.88415074000005],[14.307475909000061,40.884199126000055],[14.307216109000024,40.88450302900003],[14.30717059400007,40.88454730600006],[14.306657341000061,40.884841152000035],[14.306601288000024,40.884878238000056],[14.306553074000021,40.88492707800003],[14.306507970000041,40.88497276900006],[14.306334648000075,40.88514828900003],[14.30628736600005,40.88519328700005],[14.306002635000027,40.88519292400008],[14.305865918000052,40.885188294000045],[14.30577119700007,40.88513224700006],[14.305513457000075,40.884970675000034],[14.305261818000076,40.88480365600003],[14.305016479000074,40.884631323000065],[14.30477763700003,40.88445381200006],[14.304545479000069,40.88427126500005],[14.304320192000034,40.88408382500006],[14.304101952000053,40.88389164300003],[14.303890934000037,40.883694870000056],[14.303687306000029,40.88349366400007],[14.303491228000041,40.88328818300005],[14.303302856000073,40.88307859100007],[14.303122341000062,40.882865054000035],[14.302949824000052,40.882647742000074],[14.302785443000062,40.882426827000074],[14.30262932900007,40.88220248500005],[14.302497653000046,40.881999619000055],[14.30397197600007,40.87939216800004],[14.309540602000027,40.86954363500007],[14.309738487000061,40.869495534000066],[14.310059529000057,40.869425000000035],[14.31038306000005,40.86936136000003],[14.310708824000073,40.86930466300004],[14.311036562000027,40.86925495400004],[14.311366014000043,40.86921227300007],[14.311696919000042,40.86917665400006],[14.31197073100003,40.869153131000076],[14.312029015000064,40.86914812400005],[14.31236203700007,40.86912670700008],[14.312695721000068,40.86911242000008],[14.313029804000053,40.86910527400005],[14.313364018000073,40.86910527400005],[14.313698101000057,40.86911242000008],[14.314031785000054,40.86912670700008],[14.31436480700006,40.86914812400005],[14.314696903000026,40.86917665400006],[14.315027808000025,40.86921227300007],[14.315357260000042,40.86925495400004],[14.315684998000052,40.86930466300004],[14.316010762000076,40.86936136000003],[14.316334293000068,40.869425000000035],[14.316655335000064,40.869495534000066],[14.316973632000042,40.86957290400005],[14.317288932000054,40.86965704900007],[14.31760098500007,40.869747903000075],[14.317909544000031,40.86984539400004],[14.318214363000038,40.86994944400004],[14.318515200000036,40.870059971000046],[14.31881181700004,40.87017688700007],[14.319103979000033,40.870300099000076],[14.319391453000037,40.870429509000076],[14.319674011000075,40.87056501500007],[14.31995143000006,40.87070650900006],[14.320223489000057,40.87085387900004],[14.320489971000029,40.87100700800005],[14.320750666000038,40.871165775000065],[14.321005367000055,40.871330053000065],[14.321253870000078,40.87149971200006],[14.321495981000055,40.87167461700005],[14.32173150500006,40.871854631000076],[14.321960256000068,40.87203960800008],[14.322182052000073,40.87222940400005],[14.32239671800005,40.872423868000055],[14.322604082000055,40.872622844000034],[14.32280398100005,40.87282617500006],[14.322996256000067,40.873033701000054],[14.323180753000031,40.87324525500003],[14.323357327000053,40.87346067000004],[14.323525837000034,40.873679776000074],[14.323686149000025,40.87390239800004],[14.323838136000063,40.87412835900005],[14.323981678000052,40.87435748100006],[14.324116660000072,40.874589581000066],[14.324242975000061,40.87482447600007],[14.324360522000063,40.875061978000076],[14.324469209000029,40.87530189900008],[14.324568949000025,40.87554404900004],[14.324659663000034,40.87578823600006],[14.324741278000033,40.87603426600003],[14.324813730000074,40.87628194300004],[14.32487696100003,40.876531071000045],[14.324930921000032,40.876781453000035],[14.324975567000024,40.87703288800003],[14.325010863000045,40.87728517900007],[14.32503678200004,40.87753812400007],[14.325053302000072,40.87779152300004],[14.325060410000049,40.87804517500007],[14.325058101000025,40.87829887800007],[14.325046376000046,40.87855243100006],[14.325025245000063,40.87880563300007],[14.324994723000032,40.879058282000074],[14.324954836000074,40.879310178000026],[14.324905615000034,40.87956112100005],[14.324871849000033,40.879705261000026],[14.324483994000047,40.87936472200005],[14.324095465000028,40.87902710100008],[14.323471477000055,40.87856421500004],[14.322965768000074,40.87890356100007],[14.322910518000072,40.878942281000036],[14.322279833000039,40.87944549400004],[14.322229041000071,40.87948782700005],[14.321833475000062,40.87986412300006],[14.321784969000078,40.879908295000064],[14.321703078000041,40.87997384000005],[14.321651013000064,40.88001571800004],[14.320888183000022,40.88062775700007],[14.320836285000041,40.880669400000045],[14.32053267300006,40.880912512000066],[14.320480702000054,40.88095433600006],[14.320162459000073,40.880681061000075],[14.319995519000031,40.87987304500007],[14.319481302000042,40.87985675500005],[14.319498493000026,40.87970168500004],[14.319503853000072,40.87957922000004],[14.319251633000022,40.87954178100006],[14.319218560000024,40.879537018000065],[14.31916779100004,40.87952970500004],[14.31877285400003,40.879473087000065],[14.317837280000049,40.87933892900003],[14.31779085900007,40.87933230200008],[14.31767009400005,40.88058477100003],[14.318794747000027,40.88101441200007],[14.31844484800007,40.881685194000056],[14.318422480000038,40.88172289600004],[14.318148476000033,40.881570957000065],[14.317971465000028,40.88145760300006],[14.317780434000042,40.88133139800004],[14.31758288900005,40.88121178800003],[14.317238118000034,40.881003630000066],[14.317074909000041,40.88090487900007],[14.316773964000049,40.88072523300008],[14.316617041000029,40.88062943600005],[14.31641460700007,40.88050777700005],[14.315894090000029,40.88014920900008],[14.315559671000074,40.879894773000046],[14.315082292000056,40.87952503100007],[14.314931227000045,40.879395110000075],[14.314400245000058,40.87894436100004],[14.31356093100004,40.87848798500005],[14.312986095000042,40.87809630800007],[14.312748635000048,40.87793583200005],[14.312423834000072,40.87774598000004],[14.312362514000029,40.87771058900006],[14.312147874000061,40.87758996300005],[14.311838153000053,40.87742823900004],[14.311309510000058,40.87715153500005],[14.311071431000073,40.877034027000036],[14.310994642000026,40.877153339000074],[14.310006153000074,40.87671508100004],[14.310110204000068,40.87652289600004],[14.309799440000063,40.87633899300005],[14.30973683700006,40.87629715000003],[14.30942942200005,40.87609167800008],[14.309221087000026,40.87595156400005],[14.308995179000021,40.875874226000064],[14.308733317000076,40.87578502000008],[14.308442527000068,40.875687062000054],[14.307804648000058,40.875471428000026],[14.30776232200003,40.87550846600004],[14.307719791000068,40.87554443000005],[14.307505332000062,40.87572488400008],[14.307454158000041,40.87576752900003],[14.307301449000022,40.875689401000045],[14.306587167000032,40.87532489700004],[14.306488838000064,40.87527403400003],[14.306450787000074,40.875314056000036]]]}}]}